"Name";"Address";"Municipality";"Description";"Latitude";"Longitude";"Phone"
"BAZZANELLA RENATA";"Via del Lagorai";"Sover";"generi misti, bar - ristorante";;;
"CONFEZIONI MONTIBELLER S.R.L.";"Corso Ausugum";"Borgo Valsugana";"esercizio commerciale";;;
"FOTOGRAFICA TRINTINAGLIA UMBERTO S.N.C.";"Largo Dordi";"Borgo Valsugana";"esercizio commerciale, attivitÃ  artigianale";;;
"BAR SERAFINI DI MINATI RENZO";;"Grigno";"esercizio commerciale";;;
"SEMBENINI GINO & FIGLI S.R.L.";"Via S. Francesco";"Riva del Garda";;;;
"HOTEL RISTORANTE PIZZERIA â€œALLA NAVEâ€?";"Via Nazionale";"Lavis";;;;
"OBRELLI GIOIELLERIA DAL 1929 S.R.L.";"Via Roma";"Lavis";;;;
"MACELLERIE TROIER S.A.S. DI TROIER DARIO E C.";"Via Roma";"Lavis";;;;
"NARDELLI TIZIANO";"Piazza Manci";"Lavis";"esercizio commerciale";;;
"PASTICCERIA SILVANO DI ANDREOLLI SILVANO& C.";"Via Matteotti";"Lavis";;;;
"LONA S.N.C. DI LONA ROBERTO & C.";"Piazza Manci";"Lavis";"esercizio commerciale";;;
"GADOTTI CALZATURE DI GADOTTI MARCO";"Via Matteotti";"Lavis";;;;
"BAR LEON Dâ€™ORO DI DELLAI LORENA";"Piazza Cesare Battisti";"Lavis";;;;
"TURCO CALZATURE DI TURCO CORRADO";"Via Filzi";"Lavis";;;;
"FARMACIA ROMANI DOTT. ALBERTO ERRIGO & C. S.N.C.";"Via Filzi";"Lavis";;;;
"FAMIGLIA COOPERATIVA MEZZOLOMBARDO E PRESSANO SOC. COOP.";"Piazza Giovanni della Croce";"Lavis";;;;
"CONFEZIONI DANTI DI PELKAN WILMA & C. S.A.S.";"Viale San Francesco";"Riva del Garda";;;;
"DELUGAN GUIDO E GINO S.N.C.";"Via Pennella";"Pergine Valsugana";"attivitÃ  artigianale";;;
"FRUTTA E VERDURA SPRINGHETTI GILBERTO";"Piazza Prati";"Cavareno";;;;
"LARCHER SPORT";"Via Moscabio";"Cavareno";;;;
"BAR GELATERIA EREDI CAVALLAR DOMENICO";"Piazza Prati";"Cavareno";;;;
"EDICOLA TABACCHI GENETTI ANNAMARIA";"Via Roma";"Cavareno";;;;
"MERCERIE CATTARINI TIZIANA";"Piazza Prati";"Cavareno";;;;
"ZANI FABIO S.A.S. FERRAMENTA";"Via Roma";"Cavareno";;;;
"LATTERIA SOCIALE CAVARENO";"Via Moscabio";"Cavareno";;;;
"RISTORANTE AL VOLT DI LABRIOLA MICHELANGELO";"Piazza Municipio";"Pergine Valsugana";;;;
"RISTORANTE PIZZERIA NUOVO CORONA DI PALMIERI TOMMASO";"Piazza Manci";"Lavis";;;;
"BAR ALBERGO CORONA S.N.C. DI PRONER RICCARDA & C.";"Piazza Manci";"Lavis";;;;
"SARTORI GIUSEPPE & C. S.N.C. ";"Via Clementi";"Lavis";"esercizio commerciale";;;
"TORREFAZIONE CAFFEâ€™ BONTADI";"Vicolo del Messaggero";"Rovereto";;;;
"COLORIFICIO LUCIANO CARESIA DI DANIELA CARESIA";"Via Tartarotti";"Rovereto";;;;
"FARMACIA COBELLI";"Via Mazzini";"Rovereto";;;;
"BAR MANIFATTURA";"Piazza Manifattura";"Rovereto";;;;
"BAR DUE COLONNE";"Piazza del PodestÃ ";"Rovereto";;;;
"PANIFICIO COLLER S.N.C. DI COLLER CLAUDIO, ANDREA & C.";"Largo S. Floriano";"Rovereto";;;;
"CAPPELLERIA BACCA";"Via Rialto";"Rovereto";;;;
"BAR-TRATTORIA BELLAVISTA";"Via Paganini";"Rovereto";;;;
"DROGHERIA MICHELI";"Via Mercerie";"Rovereto";;;;
"LAZZERI";"Via Rialto";"Rovereto";"esercizio commerciale";;;
"LOCOS BAR";"Via Valbusa Grande";"Rovereto";;;;
"FARMACIA S. MARCO";"Piazza Erbe";"Rovereto";;;;
"B. SALVETTI FABBRICA OMBRELLI MERCERIE E MANIFATTURE";"Piazza C. Battisti";"Rovereto";;;;
"MANIFATTURE ZOCCHE LUIGI";"Via Roma";"Rovereto";;;;
"RISTORANTE BAR ALBERGO SERRAIA";"Viale della Serraia";"Baselga di PinÃ©";"ristorante bar";;;
"BAR TAVOLA CALDA PIZZERIA ALPINO";"Corso Roma";"Baselga di PinÃ©";;;;
"RISTORANTE BAR ALBERGO VILLA ANITA";"Via del Fosch";"Baselga di PinÃ©";"ristorante bar";;;
"RISTORANTE BAR CAâ€™ DEI BOCI";"Via Domenica Targa";"Baselga di PinÃ©";"ristorante bar";;;
"HOTEL BELVEDERE WELLNESS & FAMILY";"Via Domenica Targa";"Baselga di PinÃ©";"ristorante bar";;;
"BAR PASTI VELOCI GELATERIA PASTICCERIA PINETANA";"Corso Roma";"Baselga di PinÃ©";;;;
"SEGHERIA E LEGNAMI DI SIGHEL RENZO";"Via Marconi";"Baselga di PinÃ©";;;;
"MACELLERIA SIGHEL SRL";"Via Cesare Battisti";"Baselga di PinÃ©";;;;
"FAMIGLIA COOPERATIVA ALTOPIANO DI PINEâ€™ SCARL, PUNTO VENDITA";"Via 4 Novembre";"Baselga di PinÃ©";;;;
"FAMIGLIA COOPERATIVA ALTOPIANO DI PINEâ€™ SCARL, PUNTO VENDITA";"Via Roma";"Baselga di PinÃ©";;;;
"FAMIGLIA COOPERATIVA ALTOPIANO DI PINEâ€™ SCARL, PUNTO VENDITA";"Via della Chiesa";"Baselga di PinÃ©";;;;
"FAMIGLIA COOPERATIVA ALTOPIANO DI PINEâ€™ SCARL, PUNTO VENDITA";"Via dei Piani";"Baselga di PinÃ©";;;;
"FARMACIA MORELLI S.N.C. DI MORELLI DOTT. GIUSEPPE & C.";"Via Cesare Battisti";"Baselga di PinÃ©";;;;
"ORTOFRUTTA - GRAPPOTECA DI ZANEI GIUSEPPE & C. S.N.C.";"Via Cesare Battisti";"Baselga di PinÃ©";;;;
"CALZATURE CARLIN";"Via Pergine";"Baselga di PinÃ©";;;;
"RIVENDITA TABACCHI N. 5 DI BROSEGHINI CATERINA";"Via Cesare Battisti";"Baselga di PinÃ©";;;;
"OTTICI DEFLORIAN MARANGONI DI MARANGONI DONATELLA";"Corso Roma";"Baselga di PinÃ©";;;;
"BAZAR IORIATTI LINO & C. S.N.C.";"Corso Roma";"Baselga di PinÃ©";;;;
"MINIMERCATO DALSANT GIUSEPPINA & C. SAS";;"Baselga di PinÃ©";;;;
"PANIFICIO ANESI DI ANESI ALESSANDRO";"Corso Roma";"Baselga di PinÃ©";;;;
"MACELLERIA FRANCESCHI ANDREA E C. SNC";"Corso Roma";"Baselga di PinÃ©";;;;
"ORTOFRUTTA ALIMENTARI RAVANELLI RENZO";"Corso Roma";"Baselga di PinÃ©";;;;
"COLTELLERIA S. MARCO F.LLI VALENTINI SNC";"Piazzetta Agostiniani";"Trento";;;;
"ANTICA TRATTORIA AL VOLT DI DANIELA CARESIA";"Via Santa Croce";"Trento";;;;
"NATURERBE S.N.C.";"Piazza Fiera";"Trento";"esercizio commerciale";;;
"LA CANTINOTA RISTORANTE";"Via San Marco";"Trento";;;;
"OSTERIA COE DI PLOTEGHER CHRITIAN";"Via Caduti Malga Zonta";"Folgaria";;;;
"JOHN CLUB SAS DI SCHÃ–NSBERG GIOVANNI & C.";"Via E. Colpi";"Folgaria";"bar";;;
"RISTORANTE BAR HOTEL MARTINELLA DI PLOTEGHER STEFANO";"Via Martinella";"Folgaria";;;;
"RISTORANTE BAR ALBERGO TOMASI DI TOMASI MASSIMILIANO";"Via E. Colpi";"Folgaria";;;;
"CASALINGHI MARTINO S.A.S. DI PERGHER GELMI BRUNA E FIGLI";"Via E. Colpi";"Folgaria";;;;
"RISTORANTE ALBERGO MILANO DI CAPPELLETTI PAOLA";"Via L. Cadorna";"Folgaria";;;;
"BAR PASTICCERIA DALSASS DI CUEL SILVANA & C. SNC";"Via E. Colpi";"Folgaria";;;;
"BAR CENTRALE DI CANALIA LUISA";"Via Pasubio";"Folgaria";;;;
"PIZZERIA SCOIATTOLO CENTER SERVICE DI COROTTI GIANDARLO & C. SAS";"Via E. Colpi";"Folgaria";;;;
"ORTOFRUTTA GASPEROTTI FULVIO";"Via E. Colpi";"Folgaria";;;;
"ORTOFRUTTA VENERI PAOLO";"Via Roma";"Folgaria";;;;
"MINIMARKET TARGHER S.A.S. DI TARGHER MAURO & C.";"Via E. Colpi";"Folgaria";;;;
"PANIFICIO BARBETTI GUIDO DI BARBETTI BRUNO & C. S.N.C.";"Via Nazioni Unite";"Folgaria";;;;
"RISTORANTE HOTEL ALPINO S.R.L.";"Via E. Colpi";"Folgaria";;;;
"RISTORANTE LOCANDA DA UGO DI LEITEMPERGHER ETTORE";"Via E. Colpi";"Folgaria";;;;
"BAZAR TABACCHI PEROTTO LUCIA ASSUNTA";"Via G. Carducci";"Folgaria";;;;
"FOTO OTTICA PLOTEGHER ALCIDE";"Via E. Colpi";"Folgaria";;;;
"MINIMARKET SCALZERI GIANNA";"Via A. Manzoni";"Folgaria";;;;
"ANTICA MACELLERIA E SALUMERIA CAPPELLETTI DI CAPPELLETTI ANDREA";"Via E. Colpi";"Folgaria";;;;
"NEGOZIO MARIAROSA DI FESTI GIUSTINO";"Via E. Colpi";"Folgaria";;;;
"MACELLERIA CANALIA MAURO";"Via E. Colpi";"Folgaria";;;;
"BAR RISTORANTE CONCA Dâ€™ORO DI GEROLA FIORENZO";;"Folgaria";;;;
"RISTORANTE BAR ALBERGO AL SOLE DI ALICE E MARIANNA DALPRAâ€™ SNC";"Via L. Nazionale";"Folgaria";;;;
"EDICOLA RIVENDITA TABACCHI NÂ° 3 DI WEGHER PAOLO";"Via Roma";"Folgaria";;;;
"MILLE COSE SNC DI PLOTEGHER MAURO E MICHELA & C.";"Via E. Colpi";"Folgaria";;;;
"SPECIALITAâ€™ ALIMENTARI DI PAOLO E GIANNI ALIMENTARI FINAROLLI DI GILBERTI PAOLO & C. S.N.C.";"Via Mercerie";"Rovereto";;;;
"LUIGI ALDRIGHETTONI DI ALDRIGHETTONI GIOVANNI BATTISTA";"Via Paoli";"Rovereto";"esercizio commerciale";;;
"RISTORANTE  BAR BENACO di NODARI GIOVANNI & C. S.A.S.";"Via Benaco";"Torbole sul Garda";;;;
"CAFFEâ€™ ALEXANDER BERNARDI GIORGIO & C. SNC";"Piazza Municipio";"Pergine Valsugana";;;;
"OCHNER LUIGI";"Piazza Municipio";"Pergine Valsugana";"esercizio commerciale";;;
"BAR AL PONTE di TARGA MATTEO";"Via Al Ponte";"Pergine Valsugana";;;;
"PANIFICIO BERTOLDI S.N.C. DI BERTOLDI FABIO & C.";;"Lavarone";;;;
"CERVO S.N.C. DI MARCHESI CARLO & F.LLI";"Piazza Milano";"Lavarone";"ristorante bar";;;
"PICCOLO BAZAR DI GIONGO MARIO";;"Lavarone";;;;
"STENGHELE FRATELLI S.N.C. DI STENGHELE FRANCESCO GINO & C.";"Via Trieste";"Lavarone";"esercizio commerciale";;;
"RISTORANTE BAR HOTEL DU LAC DI GABRIELLI ANDREA & C. S.A.S.";"Via Trieste";"Lavarone";;;;
"FAMIGLIA COOPERATIVA LAVARONE S.C.A.R.L.";;"Lavarone";;;;
"DALSASSO EUGENIO";"Via Piave";"Pergine Valsugana";"esercizio commerciale";;;
"A.B. INTIMO DI BRUNELLI SILVANA E EVANGELISTI LUIGINO S.N.C.";"Via Chimelli";"Pergine Valsugana";;;;
"LA ROTONDA DI BETTI MARCO & C. S.N.C.";"Viale Venezia";"Pergine Valsugana";"ristorante";;;
"GIOIELLERIA ANDREATTA SAS DI ANDREATTA ALESSANDRO & C.";"Corso Roma";"Baselga di PinÃ©";;;;
"FARMACIA DE BATTAGLIA";"Piazza Pasi";"Trento";;;;
"MOSER CICLI";"Via Calepina";"Trento";;;;
"FOTO CINE LA ROTONDA";"Via San Vigilio";"Trento";;;;
"FARMACIA DOTT. SANTONI";"Piazza Filzi";"Rovereto";;;;
"OREFICERIA FRANCO GOTTARDI";"Viale Dante";"Tione di Trento";;;;
"BAR BELEM DI BERTOLDI FRANCA";;"Lavarone";;;;
"BAR ALBERGO NAZIONALE DI PACE ENLI & C. SNC";"Piazza Milano";"Lavarone";"bar";;;
"TABACCHI PACE ENLI";"Piazza Milano";"Lavarone";;;;
"CASEIFICIO DEGLI ALTIPIANI E DEL VEZZENA S.C.A.";"Via Marconi";"Lavarone";;;;
"FOTO EMANUELLI";"Via S. Bernardino";"Arco";;;;
"BAZAR DEL POPOLO";"Via Vergolano";"Arco";;;;
"MANIFATTURE LOMBARDE";"Via Segantini";"Arco";;;;
"CALZATURE GIULIANI";"Via Segantini";"Arco";;;;
"ALIMENTARI TRENTI";"Via S. Bernardino";"Arco";;;;
"ZAMBONI TESSUTI";"Piazza 3 Novembre";"Arco";;;;
"RISTORANTE HOTEL MARCHI";"Via Ferrera";"Arco";;;;
"RISTORANTE ALLA LEGA";"Via Vergolano";"Arco";;;;
"RISTORANTE BELVEDERE";"Via Serafini";"Arco";;;;
"PANIFICIO PULIN SAS";"Via Cavour";"Trento";;;;
"ANTICA MACELLERIA BALLARDINI";"Via del Foro";"Tione di Trento";;;;
"CARTOLIBRERIA B. ANTOLINI";"Viale Dante";"Tione di Trento";;;;
"DI FLORIO MARIA TERESA";"Via del Moleta";"Cinte Tesino";"esercizio commerciale";;;
"FAMIGLIA COOEPRATIVA VALLE SAN FELICE";"Piazza San Felice";"Mori";;;;
"ABBIGLIAMENTO MAGANOTTI MARIA GRAZIA";"Piazza Cal Di Ponte";"Mori";;;;
"TRATTORIA - BAR AL LAGO";"Via del Garda";"Mori";;;;
"FABBRICA RETI E MATERIASSI MENEGHELLI";"Largo Villanuova";"Mori";;;;
"LA BOTTEGA DI GARUFFO LIA";"Via Modena";"Mori";;;;
"VINERIA â€“ BAR BAROLDI";"Via Modena";"Mori";;;;
"BAR SANI";"Piazza Cal Di Ponte";"Mori";;;;
"FORGIATURA MARCHIORI";"Via Monte Baldo";"Mori";;;;
"FERRAMENTA MALFATTI";"Piazza Cal Di Ponte";"Mori";;;;
"OFFICINA BOMBARDELLI";"Via Matteotti";"Mori";;;;
"EDICOLA CARTOLERIA PERINI";"Piazza Cal Di Ponte";"Mori";;;;
"ALIMENTARI MIORELLI";"Via Modena";"Mori";;;;
"CAFFEâ€™ DEL GELSO";"Via Garibaldi";"Mori";;;;
"MACELLERIA TRANQUILLINI";"Via Modena";"Mori";;;;
"FARMACIA S. STEFANO";"Via Malfatti";"Mori";;;;
"SUPERMARKET ZENI";"Via Don  Sturzo";"Mori";;;;
"LAVANDERIA LA RINNOVA";"Via Modena";"Mori";;;;
"PANIFICIO SARTORI";"Piazza Cal Di Ponte";"Mori";;;;
"BAR RISTORANTE ALBERGO ALLA COSTA";"Piazza Concei";"Ledro";;;;
"BAR RISTORANTE ALBERGO ALLA PERLA";"Via Garibaldi";"Ledro";;;;
"BAR RISTORANTE ALBERGO ALPINO";"Via Cassoni";"Ledro";;;;
"BAR RISTORANTE ALBERGO CASAVECCHIA";"Via G. Marconi";"Ledro";;;;
"BAR RISTORANTE ALBERGO MAGGIORINA";"Via XXIV Ottobre";"Ledro";;;;
"BAR RISTORANTE ALBERGO VITTORIA";"Piazza Milin";"Ledro";;;;
"BAR POSTA";"Via G. Marconi";"Ledro";;;;
"CAFFÃˆ BAR CENTRALE";"Piazza Garibaldi";"Ledro";;;;
"BAR RISTORANTE PIZZERIA CAMPEGGIO AL LAGO";"Via Alzer";"Ledro";;;;
"CASARI FERRAMENTA";"Via Maffei";"Ledro";;;;
"OFFICINA MECCANICA DISTRIBUTORE MAZZOLA";"Via Maffei";"Ledro";;;;
"OFFICINA MECCANICA DISTRIBUTORE PELLEGRINI";"Via Nuova";"Ledro";;;;
"BAR RISTORANTE ECO AMBIENTI HOTEL ELDA";"Via III Giugno";"Ledro";;;;
"FARMACIA FOLETTO";"Via Vittoria";"Ledro";;;;
"BAR RISTORANTE HOTEL CADRIA";"Via UnitÃ  dâ€™Italia";"Ledro";;;;
"BAR RISTORANTE HOTEL LIDO";"Via Pribram";"Ledro";;;;
"BAR RISTORANTE HOTEL MEZZOLAGO";"Via Lungolago";"Ledro";;;;
"LA BOTTEGA DELLâ€™ARTIGIANO";"Via Vittoria";"Ledro";;;;
"MACELLERIA CIS MASSIMO";"Via XXI Luglio";"Ledro";;;;
"MACELLERIA ZECCHINI";"Piazza Obbedisco";"Ledro";;;;
"OSTERIA LA TORRE";"Via Vittoria";"Ledro";;;;
"PANIFICIO F.LLI TOMASONI S.A.S.";"Via C. Battisti";"Ledro";;;;
"RIFUGIO AL FAGGIO";"LocalitÃ  al Faggio";"Ledro";"rifugio escursionistico";;;
"RIBAGA SELF SERVICE";"Via Vittorio Emanuele";"Ledro";;;;
"BAR RISTORANTE FALORIA";"Piaz De Sotegrava";"Moena";;;;
"CASABELLA IDEE REGALO";"Cort Del Batesta";"Moena";;;;
"ARTICOLI DA REGALO LIBRERIA CROCE MARIA CRISTINA";"Piaz De Ramon";"Moena";;;;
"EN SLUCK";"Strada Cerilo Dellantonio Bora";"Moena";"esercizio commerciale";;;
"FARMACIA DOTT. RIGONI";"Strada Cerilo Dellantonio Bora";"Moena";;;;
"BAR HOTEL CAVALLETTO";"Strada De Fachin";"Moena";;;;
"BAR HOTEL MARIA";"Strada De Sen Pelegrin";"Moena";;;;
"IELLICI SPORT CALZATURE";"Piaz De Ramon";"Moena";;;;
"MODE SPORT";"Piaz De Ramon";"Moena";;;;
"BAR HOTEL MANZONI";"Sen Pelegrin";"Moena";;;;
"BAR RISTORANTE LO SFIZIO";"Piaz De Ramon";"Moena";;;;
"BAR SPORTHOTEL SAN VIGILIO";"L Vial";"Moena";;;;
"CALZATURE ZANONER";"Strada Ermanno Zanoner â€“ Canori";"Moena";;;;
"ALIMENTARI MANINFIOR ANITA";"Via C. A. Martini";"RevÃ²";;;;
"ALIMENTARI SANDRI";"Via C. A. Martini";"RevÃ²";;;;
"ALIMENTARI WEGHER GIOVANNA";"Piazza S. Maurizio";"RevÃ²";;;;
"BAR ZILLER";"Via C. A. Martini";"RevÃ²";;;;
"CALZATURIFICIO ROSSI LUIGI DI ROSSI DIEGO";"Via C. A. Martini";"RevÃ²";;;;
"CASEIFICIO SOCIALE MONTE OZOLO";"Via Dei Maurini Bassi";"RevÃ²";;;;
"CONFEZIONI ZILLER";"Via C. A. Martini";"RevÃ²";;;;
"ELETTROMARTINI";"Piazza della Madonna Pellegrina";"RevÃ²";;;;
"FABBRO GENTILINI MAURIZIO";"Via C. A. Martini";"RevÃ²";;;;
"FARMACIA SILVESTRI LUCIANA";"Via J. A. Maffei";"RevÃ²";;;;
"FERRAMENTA FERRARI GIULIANO";"Via C. A. Martini";"RevÃ²";;;;
"SALUMIFICIO ARTIGIANALE FLAIM";"Via C. A. Martini";"RevÃ²";;;;
"BAR RISTORANTE HOTEL REVÃ’";"Via G. Verdi";"RevÃ²";;;;
"ARTICOLI SPORTIVI DI VARESCO MARIO & C. SNC";"Via Prai de Mont";"Predazzo";;;;
"FOTO BONINSEGNA";"Via Trento";"Predazzo";;;;
"CASALINGHI MORANDINI";"Via Trento";"Predazzo";;;;
"CEMIN SPORT";"Piazza SS. Filippo e Giacomo";"Predazzo";;;;
"EL MAMA FERRAMENTA";"Via Garibaldi";"Predazzo";;;;
"SUPERMERCATO FAMIGLIA COOPERATIVA";"Via C. Battisti";"Predazzo";;;;
"CALZATURE GARDENER";"Via Roma";"Predazzo";;;;
"MACELLERIA DELLANTONIO";"Via C. Battisti";"Predazzo";;;;
"OREFICERIA TONINI";"Via C. Battisti";"Predazzo";;;;
"CALZATURE SEBER SANDRA";"Piazza SS. Filippo e Giacomo";"Predazzo";;;;
"BAR RISTORANTE ALBERGO ANTICO";"Via Prai de Mont";"Predazzo";;;;
"BAR RISTORANTE ALBERGO MONTANARA";"Via Indipendenza";"Predazzo";;;;
"BAR RISTORANTE ALBERGO ROSA";"Via Garibaldi";"Predazzo";;;;
"BAR RISTORANTE ALBERGO STELLA ALPINA";"Via Prai de Mont";"Predazzo";;;;
"BAR RISTORANTE ALBERGO VINELLA";"Via Mazzini";"Predazzo";;;;
"BAR RISTORANTE ALBERGO ANCORA";"Via IX Novembre";"Predazzo";;;;
"BAR RISTORANTE ALBERGO BELLARIA";"Corso Degasperi";"Predazzo";;;;
"BAR RISTORANTE ALBERGO TOURING";"Via Trento";"Predazzo";;;;
"BAR CAORER";"Vicolo del Caorer";"Predazzo";;;;
"BAR EL PIRLE";"Via Dante";"Predazzo";;;;
"CAFFÃˆ CROCE";"Via Dellagiacoma";"Predazzo";;;;
"BAR RISTORANTE MIOLA";;"Predazzo";;;;
"RISTORANTE BAR ALBERGO VILLA ROSA";"Via San Giuseppe";"Roncegno Terme";;;;
"RISTORANTE PALACE HOTEL";"Palace Hotel";"Roncegno Terme";;;;
"BAR RISTORANTE ALBERGO ALLA STAZIONE";"Via Nazionale";"Roncegno Terme";;;;
"MACELLERIA HOFFER ELISA";"Via San Giuseppe";"Roncegno Terme";;;;
"FAMIGLIA COOPERATIVA LAGORAI";"Piazza Montebello";"Roncegno Terme";;;;
"MACELLERIA HOFFER FABRIZIO";"Via Battaglione Basseggio";"Roncegno Terme";;;;
"ALIMENTARI HOFFER NICOLETTA";"Piazza Achille De Giovanni";"Roncegno Terme";;;;
"RISTORANTE ALBERGO GARNÃŒ VITTORIA";"Via San Giuseppe";"Roncegno Terme";;;;
"CASALINGHI BERTAGNOLLI FERRAMENTA";"Piazza Dante";"Cavalese";;;;
"PASTICCERIA COSE BUONE DA PAOLO";"Piazza Scopoli";"Cavalese";;;;
"TABARELLI GIORNALI TABACCHI SOUVENIR";"Piazza Verdi";"Cavalese";;;;
"VIDEO UNO";"Piazza Scopoli";"Cavalese";"esercizio commerciale";;;
"CORNICI PLASTICOLOR SELLE";"Via IX Novembre";"Cavalese";;;;
"CARTOLIBRERIA SPAZZALI";"Piazza Scopoli";"Cavalese";;;;
"RISTORANTE HOTEL LA STUA";"Via Baldieroni";"Cavalese";;;;
"RISTORANTE VECCHIA FONTANA";"Piazza Venezia";"Levico Terme";;;;
"BAR MASO AL VETRIOLO VECCHIO";;"Levico Terme";;;;
"MACELLERIA DEL CENTRO";"Via Garibaldi";"Levico Terme";;;;
"FARMACIA DE PREZ";"Via Dante";"Levico Terme";;;;
"BAR-ALBERGO NAZIONALE";"Via Della Chiesa di Santa Giuliana";"Levico Terme";;;;
"RISTORANTE-BAR-ALBERGO GARDEN";"Viale Vittorio Emanuele";"Levico Terme";;;;
"FRIGO PRODOTTI TIPICI";"Via Regia";"Levico Terme";;;;
"ALIMENTARI CONCI SAMUELA";"Piazza Venezia";"Levico Terme";;;;
"RISTORANTE-BAR-ALBERGO G.H. BELLAVISTA";"Viale Vittorio Emanuele";"Levico Terme";;;;
"MOBILI ARESE";"Viale Stazione";"Levico Terme";;;;
"FIORERIA OGNIBENI IVANA";"Via Garibaldi";"Levico Terme";;;;
"ANTICA FARMACIA ROMANESE";"Via Regia";"Levico Terme";;;;
"MERCERIE VERGOT";"Via Regia";"Levico Terme";;;;
"CASALINGHI-ELETTRODOMESTICI TADDEI GIULIANO";"Via Garibaldi";"Levico Terme";;;;
"ORTOFRUTTA SCAPIN GIANNI";"Via Cavour";"Levico Terme";;;;
"LANA MODA";"Via Regia";"Levico Terme";;;;
"VIVISPORT S.N.C.";"Via Regia";"Levico Terme";;;;
"CONCESSIONARIA BASSETTI";"C.so Centrale";"Levico Terme";;;;
"BAR AL CONTE";"Via Regia";"Levico Terme";;;;
"BAR CAMINETTO";"Via Dante";"Levico Terme";;;;
"RISTORANTE-BAR ANTICA ROSA";"Via Garibaldi";"Levico Terme";;;;
"EDICOLA PASSERINI ALBERTO";"Via Guglielmo Marconi";"Levico Terme";;;;
"BAR LINO";"Via Dante";"Levico Terme";;;;
"BAR SERENA";"Via Regia";"Levico Terme";;;;
"RISTORANTE-BAR SANDRO";"Via Domenico Mons. Caproni";"Levico Terme";;;;
"DALSASSO ABBIGLIAMENTO";"Via Dante";"Levico Terme";;;;
"GIOVANNINI LUISA";"Via C. Battisti n. 19";"Pergine Valsugana";"esercizio commerciale";;;
"BAR - RISTORANTE ALBERGO AL BIVIO";"Via Nazionale";"Imer";;;;
"RISTORANTE ALBERGO AL LAGO";;"Imer";;;;
"B. & B. LEGNO DI BETTEGA GRAZIANO & C. S.N.C.";"Via Casabianca";"Imer";;;;
"BAR OBBER";"Via Nazionale";"Imer";;;;
"DARIO SPORT DI BETTEGA ROBERTO & C. S.A.S.";"Via Nazionale";"Imer";;;;
"FALEGNAMERIA FRATELLI BONINSEGNA SNC";;"Imer";;;;
"FAMIGLIA COOPERATIVA IMER";"Via Nazionale";"Imer";;;;
"CANTINOTA";"Via Nazionale n. 15";"Vallelaghi";"bar - esercizio commerciale";;;
"FERRAGLIA VITTORIO";"Piazza G. Garibaldi";"Riva del Garda";"esercizio commerciale";;;
"OTTICA ARMANI";"Via Gazzoletti";"Riva del Garda";;;;
"FARMACIA S. CHIARA";"Via S. Croce ";"Trento";;;;
"BIRRERIA PEDAVENA";"Piazza Fiera";"Trento";;;;
"VIGILIO FRANZINELLI";"Vicolo del Liceo";"Trento";"esercizio commerciale";;;
"EL MERICAN";"Via Torre Verde";"Trento";"ristorante";;;
"FOTO RENSI";"Via Marchetti";"Trento";;;;
"OROLOGERIA M. GROPPA";"Via degli Orbi";"Trento";;;;
"FAMIGLIA COOPERATIVA DI POVO";"Piazza Manci";"Trento";;;;
"CALZATURE E PELLETTERIE CAPPELLO";"Scala al Convento";"Borgo Valsugana";;;;
"BOTTEGA DEL COLORE";"Corso Ausugum";"Borgo Valsugana";;;;
"VULCANO STORE";"Via Spagolla";"Borgo Valsugana";"esercizio commerciale";;;
"ARCOBALENO";"Corso Ausugum";"Borgo Valsugana";"esercizio commerciale";;;
"SEGNANA";"Via Temanza";"Borgo Valsugana";"esercizio commerciale";;;
"CAMBO";"Piazza Martiri Resistenza";"Borgo Valsugana";"esercizio commerciale";;;
"GANARIN";"Via B. Venezia";"Borgo Valsugana";"esercizio commerciale";;;
"BELLUCCO";"Corso Ausugum";"Borgo Valsugana";"esercizio commerciale";;;
"AGOSTINI";"Corso Ausugum";"Borgo Valsugana";"esercizio commerciale";;;
"PAGNUSAT";"Corso Ausugum";"Borgo Valsugana";"esercizio commerciale";;;
"BAR CUSSO";"Piazza Dante";"Borgo Valsugana";;;;
"CAFFÃˆ PASTICCERIA ZITA";"Piazza De Gasperi";"Borgo Valsugana";;;;
"BAR MILANO";"Piazza Romani";"Borgo Valsugana";;;;
"DALSASSO";"Piazza Dante";"Borgo Valsugana";"esercizio commerciale";;;
"COMUNELLO";"Corso Ausugum";"Borgo Valsugana";"esercizio commerciale";;;
"MACELLERIA BAGGETTO";"Via Giuseppe Terrabugio";"Primiero San Martino di Castrozza";;;;
"CALZATURE TAMANINI";"Via Giuseppe Terrabugio";"Primiero San Martino di Castrozza";;;;
"FARMACIA ALLA MADONNA";"Via Guadagnini";"Primiero San Martino di Castrozza";;;;
"BELLOTTO GIOIELLI";"Salita Luigi Negrelli";"Primiero San Martino di Castrozza";;;;
"CANTINA CESARI";"Via San Francesco";"Primiero San Martino di Castrozza";;;;
"ARREDAMENTI GUBERT FRANCO";"Via San Francesco";"Primiero San Martino di Castrozza";;;;
"PASTICCERIA GIOVANNA SIMION";"Piazzetta del Dazio";"Primiero San Martino di Castrozza";;;;
"SPORTING GAIO";"Via Giuseppe Terrabugio";"Primiero San Martino di Castrozza";;;;
"FOTO OTTICA GILLI";"Via Giuseppe Garibaldi";"Primiero San Martino di Castrozza";;;;
"CREPAZ FLORIO";"Via San Francesco";"Primiero San Martino di Castrozza";"esercizio commerciale";;;
"RISTORANTE BAR ALBERGO DOLOMITI";"Viale Piave";"Primiero San Martino di Castrozza";;;;
"ORTOFRUTTA MELCHIORI";"Via San Francesco";"Primiero San Martino di Castrozza";;;;
"BAR AQUILA NERA";"Piazza Cesare Battisti";"Primiero San Martino di Castrozza";;;;
"LAVASECCO LA RAPIDA";"Piazza Cesare Battisti";"Primiero San Martino di Castrozza";;;;
"GAUDENZI FRANCESCO";"Via Terrabugio";"Primiero San Martino di Castrozza";"esercizio commerciale";;;
"TROTTER CALZATURE";"Via Giuseppe Garibaldi";"Primiero San Martino di Castrozza";;;;
"MACELLERIA GADENZ";"Via Fiume";"Primiero San Martino di Castrozza";;;;
"GADENZ SEBASTIANO";"Via Fiume";"Primiero San Martino di Castrozza";"esercizio commerciale";;;
"BAR TABACCHI WEISS";"Piazza Luigi Negrelli";"Primiero San Martino di Castrozza";;;;
"BETTY BAR";"Via alla Malga";"Pergine Valsugana";;;;
"ARREDI MORELLI";"Via Marconi";"Comano Terme";;;;
"PANIFICIO ZANONI";"Piazza Mercato";"Comano Terme";;;;
"LEONARDI ANTONIO";"Via S. Pietro";"Trento";"esercizio commerciale";;;
"RISTORANTE PIZZERIA VESUVIO";"Via Malvasia";"Trento";;;;
"BERLANDA LA NASCENTE";"Via Segantini";"Arco";"esercizio commerciale";;;
"NEGRI FIORI";"Via Vergolano";"Arco";;;;
"TORBOLI MARCO";"Via Segantini";"Arco";"esercizio commerciale";;;
"ALPINA";"Via della Predolcia";"Pergine Valsugana";"pubblico esercizio esercizio commerciale";;;
"RISTORANTE BAR HOTEL STELLA DELLE ALPI";"Via Mendola";"Ronzone";;;;
"RISTORANTE BAR HOTEL REGINA DEL BOSCO";"Via Mendola";"Ronzone";;;;
"LA BOTTEGA";"Via Mendola";"Ronzone";"esercizio commerciale";;;
"SEGHERIA IMBALLAGGI ABRAM SILVIO & C. SNC";"Via Cesare Battisti";"Sarnonico";;;;
"RISTORANTE HOTEL IL FALCHETTO";;"Sarnonico";;;;
"BAR RISTORANTE REGOLE";;"Sarnonico";;;;
"DE LUCA FABIO FABBRO";"Via Cesare Battisti";"Sarnonico";;;;
"BAR CENTRALE";"Via Cesare Battisti";"Sarnonico";;;;
"BAR RISTORANTE PIZZERIA LA RUSTICA";"Via Cesare Battisti";"Sarnonico";;;;
"FAMIGLIA COOPERATIVA MARTER";"Via Nazionale";"Roncegno";;;;
"CARTOLERIA DI HOFFER LEOPOLDA";"Via A. Pola";"Roncegno";;;;
"PANE LATTE DOLCIUMI DI PAROLARI LUCIANA";"Via 3 Novembre";"Tione di Trento";;;;
"FAMIGLIA COOPERATIVA CONAD";"Piazza Cooperazione";"Romeno";;;;
"MACELLERIA ENDRIZZI SERGIO";"Piazza Romana";"Romeno";;;;
"IL FORNO DE BIASI";"Piazza Graiff";"Romeno";;;;
"FALEGNAMERIA ROSATI ELIO";"Via San Bartolomeo";"Romeno";;;;
"BAZAR DI FRANCISCI MARIANGELA";"Piazza Lampi";"Romeno";;;;
"PIZZERIA ANAUNIA";"Via 4 Novembre";"Romeno";;;;
"BAR CENTRALE DI CAIO E LORENZA";"Piazza Romana";"Romeno";;;;
"CASEIFICIO SOCIALE";"Via Alla Piena";"Romeno";;;;
"ARTICOLI REGALO SARCLETTI";"Via Al Castello";"Romeno";;;;
"LATTONIERE PLAGA MATTEO";"Via SS. Martiri dâ€™Anaunia";"Romeno";;;;
"MOBILIFICIO FRANCISCI";"Via 4 Novembre";"Romeno";;;;
"ROEN MODE DI COGOI LUCA";"Via 4 Novembre";"Romeno";;;;
"OSTARIA DELE STRIE";"Piazza Centrale";"Nogaredo";;;;
"FAMIGLIA COOPERATIVA NOGAREDO";"Via Verdi";"Nogaredo";;;;
"PARISI BRUNA ALIMENTARI";"Via Del Ponte";"Nogaredo";;;;
"MOBILI BETTINI";"Via San Biagio";"Nogaredo";;;;
"BAR TRATTORIA AI MOLINI";"Via Molini";"Nogaredo";;;;
"BAR PIZZERIA AI TRE FAGGI";"Strada Laghi di Lamar";"Vallelaghi";;;;
"RISTORANTE ALBERGO AL BORGHETTO";"Via E. de Varda";"Mezzolombardo";;;;
"BOTTAMEDI CALZATURE";"Corso Mazzini";"Mezzolombardo";;;;
"FERRAMENTA TOMASI";"Corso Mazzini";"Mezzolombardo";;;;
"ZENI";"Corso Mazzini";"Mezzolombardo";"esercizio commerciale";;;
"TAIT";"Corso Mazzini";"Mezzolombardo";"esercizio commerciale";;;
"BAZAR TAIT MERCERIE";"Via Roma";"Mezzolombardo";;;;
"ABBIGLIAMENTO MAURINA";"Via De Gasperi";"Mezzolombardo";;;;
"OREFICERIA G. CASNA";"Corso Mazzini";"Mezzolombardo";;;;
"TESSUTI MANZATTI";"Piazza Cassa di Risparmio";"Mezzolombardo";;;;
"PESCHERIA ROAT ROMANO";"Via 4 Novembre";"Mezzolombardo";;;;
"OTTICA PIZZI";"Via A. de Varda";"Mezzolombardo";;;;
"WEBER LILIANA";"Corso LibertÃ ";"Mezzolombardo";"generi di monopolio";;;
"TAIT GIUDITTA";"Via De Gasperi";"Mezzolombardo";"esercizio commerciale";;;
"BOZ GIUSEPPE";"Corso Mazzini";"Mezzolombardo";"esercizio commerciale";;;
"LA CASA DELLA RADIO";"Via A. de Varda";"Mezzolombardo";;;;
"FEDRIZZI VIGILIO & C. S.N.C.";"Corso del Popolo";"Mezzolombardo";"esercizio commerciale";;;
"FEDRIZZI ROSANNA E C. S.N.C.";"Corso del Popolo";"Mezzolombardo";"esercizio commerciale";;;
"PUNTO CASA";"Via Roma";"Molveno";;;;
"RISTORANTE ALPOTEL VENEZIA";"Via Nazionale";"Molveno";;;;
"FRUTTA VERDURA DI GIORDANI ADELIO";"P. Marconi";"Molveno";;;;
"CENTRAL MARKET";"Via Paganella";"Molveno";;;;
"BAR ALBERGO ITALIA";"Via Lungolago";"Molveno";;;;
"RISTORANTE HOTEL MIRALAGO";"Piazza Scuole";"Molveno";;;;
"RISTORANTE HOTEL EXCELSIOR";"Via Nazionale";"Molveno";;;;
"BAR CRISTALLO";"Piazza Scuole";"Molveno";;;;
"ZENI CALZATURE";"Via Roma";"Molveno";;;;
"MACELLERIA SPRINGHETTI";"Via Roma";"Molveno";;;;
"RISTORANTE HOTEL LONDRA";"Via Nazionale";"Molveno";;;;
"RISTORANTE ALEXANDER HOTEL";"Piazza Scuole";"Molveno";;;;
"RISTORANTE HOTEL BELVEDERE";"Via Nazionale";"Molveno";;;;
"BAR RISTORANTE HOTEL EUROPA";"Via Nazionale";"Molveno";;;;
"RISTORANTE HOTEL AURORA";"Via Belvedere";"Molveno";;;;
"RISTORANTE HOTEL PANORAMA";"Via Nazionale";"Molveno";;;;
"RISTORANTE HOTEL MOLVENO";"Via Bettega";"Molveno";;;;
"RISTORANTE PIZZERIA AL CAMINETTO";"Via Lungolago";"Molveno";;;;
"RISTORANTE HOTEL GLORIA";"Via Lungolago";"Molveno";;;;
"RISTORANTE ALBERGO STELLA ALPINA";"Via Cesare Battisti";"Molveno";;;;
"CENTRO FOTO OTTICA";"Piazza S. Carlo";"Molveno";;;;
"RISTORANTE ALBERGO DEL BRENTA";;"Molveno";;;;
"RISTORANTE ALBERGO PRADEL";;"Molveno";;;;
"ANGOLO MODA";"Piazza San Carlo";"Molveno";;;;
"CRONST";"Via Galilei";"Trento";"esercizio commerciale";;;
"PONTRELLI DI CARLA ZANCANELLA";"Piazza C. Battisti";"Cavalese";"esercizio commerciale";;;
"RAFFAELLA";"Via IX Novembre";"Cavalese";"esercizio commerciale";;;
"CAPPELLERIA BETTA";"Piazza Dante";"Cavalese";;;;
"MACELLERIA MINIMARKET HIGHLANDER";;"Canal San Bovo";;;;
"BAR RISTORANTE ALBERGO AL PIN";;"Canal San Bovo";;;;
"OSTERIA ALLE FOSSE";"Via Fosse";"Canal San Bovo";;;;
"RISTORANTE ALBERGO LAGORAI";;"Canal San Bovo";;;;
"RISTORANTE ALBERGO SERENELLA";;"Canal San Bovo";;;;
"CENTRO SPESA CORONA";;"Canal San Bovo";;;;
"FAMIGLIA COOPERATIVA ZORTEA";"Via Zortea";"Canal San Bovo";;;;
"FAMIGLIA COOPERATIVA CANAL SAN BOVO";"Via Roma";"Canal San Bovo";;;;
"FAMIGLIA COOPERATIVA CAORIA";;"Canal San Bovo";;;;
"FAMIGLIA COOPERATIVA PRADE";"Piazza G. Marconi Loc. Prade";"Canal San Bovo";;;;
"FERRAMENTA FEDRIZZI";"Via Marconi";"Comano Terme";;;;
"CAFFEâ€™ ROMA";"Largo Dordi";"Borgo Valsugana";;;;
"BAR RISTORANTE ALBERGO AL CERVO";"Via IV Novembre";"Tesero";;;;
"BAR ANCORA";"Via IV Novembre";"Tesero";;;;
"CARTOLIBRERIA DEFLORIAN";"Via Roma";"Tesero";;;;
"RISTORANTE HOTEL ERICA";;"Tesero";;;;
"CALZATURE ZENI SPORT";"Via IV Novembre";"Tesero";;;;
"VALENTINO SCARPE";"Via Roma";"Tesero";;;;
"EUFORIA INTIMO";"Piazza Nuova";"Tesero";;;;
"BAR STELLA";"Via Roma";"Tesero";;;;
"CANAL KATIA TABACCHERIA";"Via Roma";"Tesero";;;;
"ELETTROSOC DI GILMOZZI ERNESTO";"Via Socce";"Tesero";;;;
"MOBILIFICIO SILVIO DELLADIO";"Via Roma";"Tesero";;;;
"FAMIGLIA COOPERATIVA";"Via Cavada";"Tesero";;;;
"BAR PASTICCERIA MAZZOLENI";"Piazza General Cantore";"Trento";;;;
"PROFUMERIA BOSCHETTO";"Via F.lli Bronzetti";"Cavalese";;;;
"L. MALGHER";"Piaza del Malgher";"San Giovanni di Fassa-SÃ¨n Jan";;;;
"LINO SPORT";"Strada de Meida";"San Giovanni di Fassa-SÃ¨n Jan";;;;
"RISTORANTE ALBERGO RIZZI";"Piaza de Salin";"San Giovanni di Fassa-SÃ¨n Jan";;;;
"ELETTROGAS PEDERIVA";"Strada Dolomites";"San Giovanni di Fassa-SÃ¨n Jan";;;;
"PANIFICIO EL PEK";"Piaza Deodat de Dolomieu";"San Giovanni di Fassa-SÃ¨n Jan";;;;
"FAMIGLIA COOPERATIVA POZZA DI FASSA";"Piaza de Comun";"San Giovanni di Fassa-SÃ¨n Jan";;;;
"BAR AL PONTE";"Strada de Meida";"San Giovanni di Fassa-SÃ¨n Jan";;;;
"PANIFICIO BERNARD";"Troi Giovanni Francesco Bernard";"San Giovanni di Fassa-SÃ¨n Jan";;;;
"PANIFICIO BONINSEGNA";"Piazza Cioc";"Soraga";;;;
"BAR RISTORANTE HOTEL DE FRONZ";"Strada de Pont";"Soraga";;;;
"BAR RISTORANTE HOTEL AVISIO";"Stradone de Fascia";"Soraga";;;;
"FAMIGLIA COOPERATIVA SORAGA";"Stradone de Fascia";"Soraga";;;;
"SPORT BRUNEL";"Piazza Cioc";"Soraga";;;;
"TABACCHERIA GIULIANI";"Stradone de Fascia";"Soraga";;;;
"BAR RISTORANTE HOTEL ROSALPINA";"Strada de Palua";"Soraga";;;;
"BAR RISTORANTE HOTEL ROSA";"Strada Rezia";"San Giovanni di Fassa-SÃ¨n Jan";;;;
"TABACCHI E SOUVENIRS GHETTA FABRIZIO";"Strada de la Piazedela";"San Giovanni di Fassa-SÃ¨n Jan";;;;
"FOTO SPORT LADIN";"Strada Roma";"San Giovanni di Fassa-SÃ¨n Jan";;;;
"OREFICERIA OROLOGERIA POLLAM";"Strada Roma";"San Giovanni di Fassa-SÃ¨n Jan";;;;
"BAR BIANCO";"Strada Rezia";"San Giovanni di Fassa-SÃ¨n Jan";;;;
"MACELLERIA F.LLI PELLEGRIN";"Strada Daniel Zen";"San Giovanni di Fassa-SÃ¨n Jan";;;;
"BAR HOTEL MIRAMONTI";"Strada di Molins";"San Giovanni di Fassa-SÃ¨n Jan";;;;
"BAR RISTORANTE ACTIVE HOTEL OLYMPIC";"Strada Dolomites";"San Giovanni di Fassa-SÃ¨n Jan";;;;
"BAR RISTORANTE HOTEL DOLOMITI";"Strada Dolomites";"San Giovanni di Fassa-SÃ¨n Jan";;;;
"TONY SPORT";"Strada Rezia";"San Giovanni di Fassa-SÃ¨n Jan";;;;
"BAR LADIN";"Strada de la Piazedela";"San Giovanni di Fassa-SÃ¨n Jan";;;;
"BAR RISTORANTE HOTEL FONTANA";"Strada de Valongia";"San Giovanni di Fassa-SÃ¨n Jan";;;;
"DA FLORA";"Strada Rezia";"San Giovanni di Fassa-SÃ¨n Jan";;;;
"LA BOTEIGA";"Via Roma";"San Giovanni di Fassa-SÃ¨n Jan";;;;
"BAR ALBERGO BELVEDERE";"Strada Murada";"San Giovanni di Fassa-SÃ¨n Jan";;;;
"BAR RISTORANTE HOTEL RENATO";"Strada de Solar";"San Giovanni di Fassa-SÃ¨n Jan";;;;
"PANIFICIO EL PECH";"Strada Rezia";"San Giovanni di Fassa-SÃ¨n Jan";;;;
"FAMIGLIA COOPERATIVA VIGO DI FASSA";"Strada Rezia";"San Giovanni di Fassa-SÃ¨n Jan";;;;
"ELECTRO POLLAM";"Strada Roma";"San Giovanni di Fassa-SÃ¨n Jan";;;;
"BAR RISTORANTE HOTEL VAEL";"Strada Rezia";"San Giovanni di Fassa-SÃ¨n Jan";;;;
"RISTORANTE HOTEL SAVOY";"Jouf de Ciareja";"San Giovanni di Fassa-SÃ¨n Jan";;;;
"SPORT LUCY";;"San Giovanni di Fassa-SÃ¨n Jan";;;;
"LORENZ EMILIO BIBITE";"Strada de Pilat";"San Giovanni di Fassa-SÃ¨n Jan";;;;
"RISTORANTE BAR ALPEN HOTEL CORONA";"Strada Murada";"San Giovanni di Fassa-SÃ¨n Jan";;;;
"BAR RISTORANTE ALBERGO ALPINO AL CAVALLETTO";"Via Costa";"Canazei";;;;
"RISTORANTE HOTEL ALBA";"Via Costa";"Canazei";;;;
"BAR RISTORANTE HOTEL BERNARD";"Via Roma";"Canazei";;;;
"BAR RISTORANTE HOTEL ALLA ROSA";"Strada del Faure";"Canazei";;;;
"PANIFICIO BONINSEGNA";"Via Costa";"Canazei";;;;
"RIFUGIO ESCURSIONISTICO VALENTINI";"Streda de Sella";"Canazei";;;;
"BAR RISTORANTE RIFUGIO VILLETTA MARIA";"Strada Pian Trevisan";"Canazei";;;;
"VALERUZ SPORT";"Via Roma";"Canazei";;;;
"CALZATURE ROSSI";"Via Dolomiti";"Canazei";;;;
"BAR RISTORANTE HOTEL COL DI LANA";"Strada del Pordoi";"Canazei";;;;
"BAR RISTORANTE ALBERGO MIRAMONTI";"Streda de Costa";"Canazei";;;;
"RISTORANTE HOTEL PORDOI";"Strada del Pordoi";"Canazei";;;;
"RISTORANTE HOTEL DOLOMITI";"Via Dolomites";"Canazei";;;;
"BAR GARNÃŒ INTERNATIONAL";"Streda Dolomites";"Canazei";;;;
"PROFUMERIA COSTA";"Piazza G. Marconi";"Canazei";;;;
"BAR GARNÃŒ STELLA ALPINA";"Streda do Ruf de Antermont";"Canazei";;;;
"BAR RISTORANTE HOTEL CROCE BIANCA";"Via Streda Roma";"Canazei";;;;
"BAR RISTORANTE HOTEL VILLA ROSA";"Streda Dolomites";"Campitello di Fassa";;;;
"RISTORANTE SPORT HOTEL ENROSADIRA";"Streda de Morandin";"Campitello di Fassa";;;;
"BAR RISTORANTE HOTEL RODODENDRO";"Streda Dolomites";"Campitello di Fassa";;;;
"BAR AGNELLO";"Piazza Centrale";"Campitello di Fassa";;;;
"FAMIGLIA COOPERATIVA CAMPITELLO DI FASSA";"Streda Dolomites";"Campitello di Fassa";;;;
"BAR RISTORANTE HOTEL MIRAMONTI";"Via Mazzini Loc. Crosano";"Brentonico";;;;
"BAR RISTORANTE ALBERGO NENI";"Via Garibaldi";"Brentonico";;;;
"BAR RISTORANTE ALBERGO ZENI";"Via Roma";"Brentonico";;;;
"RISTORANTE HOTEL S. GIACOMO";"Via Borani Salvotti";"Brentonico";;;;
"PANIFICIO TOGNI";"Via Roma";"Brentonico";;;;
"PIZZERIA LA PINETA";;"Brentonico";;;;
"SAV FORMAGGI";"Piazza Generale Dalla Chiesa";"Brentonico";;;;
"TABACCHERIA RIGO";"Via Roma";"Brentonico";;;;
"PASSERINI CALZATURE";"Via Fabio Filzi";"Brentonico";;;;
"ALIMENTARI ANDREOLLI";"Via Roma";"Brentonico";;;;
"ALIMENTARI CANALI";"Via Clemente";"Brentonico";;;;
"BAR COMMERCIO";"Via Roma";"Brentonico";;;;
"FAMIGLIA COOPERATIVA BRENTONICO";"Via Roberti";"Brentonico";;;;
"FAMIGLIA COOPERATIVA CROSANO";"Via Mazzini";"Brentonico";;;;
"FAMIGLIA COOPERATIVA CORNÃˆ";"Via 3 Novembre";"Brentonico";;;;
"BAR IL BUNKER";"Via Prof. Vanzetta";"Ziano di Fiemme";;;;
"RISTORANTE HOTEL AL PONTE";"Via Alpini";"Villa Lagarina";;;;
"BAR RISTORANTE ALBERGO LAGO DI CEI";;"Villa Lagarina";;;;
"BAR ROMA";"Via XXV Aprile";"Villa Lagarina";;;;
"FARMACIA DE PROBIZER";"Via XXV Aprile";"Villa Lagarina";;;;
"FAMIGLIA COOPERATIVA DI CASTELLANO";"Via del Torchio";"Villa Lagarina";;;;
"FAMIGLIA COOPERATIVA DI PEDERSANO";"Via Santâ€™Antonio";"Villa Lagarina";;;;
"FAMIGLIA COOPERATIVA VILLA LAGARINA";"Via XXV Aprile";"Villa Lagarina";;;;
"TESINO MARKET";"Via Brigata Abruzzi";"Pieve Tesino";;;;
"BAR CENTRALE";"Piazza Garibaldi";"Pieve Tesino";;;;
"PUNTO ROSSO ALIMENTARI";"Piazza Garibaldi";"Pieve Tesino";;;;
"BAR RISTORANTE ALBERGO ALPINO";;"Avio";;;;
"BAR NUOVO";"Viale Alcide De Gasperi";"Avio";;;;
"CASEIFICIO SOCIALE SABBIONARA";"Via Vignola";"Avio";;;;
"RIVENDITA FUMANELLI GEDEONE";"Piazza Conciliazione";"Avio";;;;
"PANIFICIO SEGA DIEGO";"Via Regina Elena";"Avio";;;;
"FAMIGLIA COOPERATIVA AVIO";"Piazza Roma";"Avio";;;;
"BAR SPORT";"Via Venezia";"Avio";;;;
"BAR TRATTORIA ALLA STAZIONE";"Via General Cantore";"Avio";;;;
"CADEN CARLO ABBIGLIAMENTO";"Via Regina Elena";"Avio";;;;
"CADEN TENDAGGI";"Via Teatro";"Avio";;;;
"CONFEZIONI DA IDA";"Via S. Antonio";"Avio";;;;
"BAR RISTORANTE ALBERGO MONTE BALDO";;"Avio";;;;
"RIFUGIO ESCURSIONISTICO MONTE BALDO";;"Avio";;;;
"FARMACIA COOPERATIVA";"Piazza Roma";"Avio";;;;
"FALEGNAMERIA MABBONI";"Viale Alcide De Gasperi";"Avio";;;;
"DELIZIE WELPONER";"Via F.lli Bronzetti";"Cavalese";;;;
"FARMACIA BONI";"Viale Dante";"Tione di Trento";;;;
"PANIFICIO MODERNO";"Via Al Ponte";"Isera";;;;
"FAMIGLIA COOPERATIVA DI ISERA";"Piazza San Vincenzo";"Isera";;;;
"RISTORANTE BAR HOTEL TRESSANE";"Via Roma";"Primiero San Martino di Castrozza";;;;
"RISTORANTE PARK HOTEL IRIS";"Via Roma";"Primiero San Martino di Castrozza";;;;
"RISTORANTE HOTEL PRIMIERO";"Via Roma";"Primiero San Martino di Castrozza";;;;
"IL NEGOZIO DEL PANE";"Via Roma";"Primiero San Martino di Castrozza";;;;
"PANIFICIO CENTRALE DI PRIMIERO";"Via Roma";"Primiero San Martino di Castrozza";;;;
"BAR ALBERGO TRE PONTI";"Via Sorelle Lucian";"Primiero San Martino di Castrozza";;;;
"RISTORANTE BAR LANTERNA VERDE";"Via Roma";"Primiero San Martino di Castrozza";;;;
"EDICOLA BAZAR TABACCHI";"Via Scopoli";"Primiero San Martino di Castrozza";;;;
"BAR CENTRALE";"Via Scopoli";"Primiero San Martino di Castrozza";;;;
"NON SOLO PANE";"Via Card. Bernardin";"Primiero San Martino di Castrozza";;;;
"FAMIGLIA COOPERATIVA DI TONADICO";"Via Scopoli";"Primiero San Martino di Castrozza";;;;
"OREFICERIA OROLOGERIA MULLER";"Piazza San Giorgio";"Castello Tesino";;;;
"FARMACIA RIGONI";"Via Dante";"Castello Tesino";;;;
"BAR PIZZERIA CROSARA";"Piazza San Giorgio";"Castello Tesino";;;;
"BAR ROMA";"Piazza San Giorgio";"Castello Tesino";;;;
"FAMIGLIA COOPERATIVA DI CASTELLO TESINO";"Via Donato Pelloso";"Castello Tesino";;;;
"BAR ORATORIO";"Via Venezia";"Castello Tesino";;;;
"RISTORANTE BAR ALBERGO PASSO BROCON â€œDA Sâ€™CIOPOâ€?";;"Castello Tesino";;;;
"FIORI E VERDURA";"Piazza Trento";"Castello Tesino";;;;
"EMPORIO DIEGO ZOTTA";"Piazza Trento";"Castello Tesino";;;;
"BAR AL PONTE";;"Castello Tesino";;;;
"MACELLERIA BOSO";"Via Baili";"Castello Tesino";;;;
"BAR RISTORANTE ALBERGO BELLAVISTA";"Via Roma";"Castello Tesino";;;;
"ABBIGLIAMENTO BAILO";"Piazza Marconi";"Castello Tesino";;;;
"ALIMENTARI DA CELESTINO";"Piazza Marconi";"Castello Tesino";;;;
"ALIMENTARI MORANDUZZO";"Via Terrasanta";"Castello Tesino";;;;
"CAFFÃˆ MARCONI";"Piazza Marconi";"Castello Tesino";;;;
"TABACCHI ZAMPIERO";"Piazza Marconi";"Castello Tesino";;;;
"CHALET FERRARI";"Piazza Righi";"Pinzolo";;;;
"CHALET FERRARI REGALO";"Piazza Righi";"Pinzolo";;;;
"ZANELLA ARREDAMENTI";"Via Rosmini";"Trento";;;;
"ALIMENTARI RICCIO STEFANIA";"Via Dante";"Levico Terme";;;;
"ETA BETA DI GRISENTI GIORGIA";"Corso Centrale";"Levico Terme";;;;
"FERRAMENTA CASALINGHI ROSA";"Via Dante";"Levico Terme";;;;
"FAMIGLIA COOPERATIVA LAGORAI";"Via Marchi";"Ronchi Valsugana";;;;
"SIMONETTO CARNI";"Viale Venezia";"Castelnuovo";;;;
"BAR RISTORANTE HOTEL COSTABELLA";;"Moena";;;;
"MACELLERIA FELICETTI";"Strada E. Zanoner Canori";"Moena";;;;
"ELETTRODOMESTICI DE PELLEGRINI";"Strenta de Ischiacia";"Moena";;;;
"SEGHERIA ZANONER";"Strada de la ComunitÃ  de Fiem";"Moena";;;;
"MACELLERIA FASANELLI";"Via 3 Novembre";"Pomarolo";;;;
"MINATI ROBERTA";"Via Vittorio Emanuele";"Grigno";"esercizio commerciale";;;
"BAR RISTORANTE ALBERGO SILVANA";"Via Nuova";"Ledro";;;;
"EDICOLA TABACCHI SANNICOLÃ’ GABRIELE";"Piazza Sanzio";"Trento";;;;
"FARMACIA CENTRALE";"Corso Ausugum";"Borgo Valsugana";;;;
"SIMONETTO CARNI";"Via Padri Morizzo";"Borgo Valsugana";;;;
"FAMIGLIA COOPERATIVA DI CAVALESE";"Piazza Battisti";"Cavalese";;;;
"DAMIATA MOTO";"Corso Bettini";"Rovereto";;;;
"NEON TRENTO SCOTUZZI";"Via Ragazzi del '99";"Trento";"attivitÃ  artigianale";;;
"CASA DEL CAFFÃˆ";"Via Maffei";"Riva del Garda";;;;
"RISTORANTE PIZZERIA LILLÃ€";"Piazza di Sant'A. Abate";"Vallelaghi";;;;
"BAR HOTEL SEGGIOVIA";;"Folgaria";;;;
"PANIFICIO CANALIA";"Via Schirni";"Folgaria";;;;
"FOLGARIA FASHION SPORT";"Via E. Colpi";"Folgaria";;;;
"BAR RISTORANTE HOTEL BIANCANEVE";"Via A. Maffei";"Folgaria";;;;
"BAR RISTORANTE HOTEL ERICA";"Via Nazionale";"Folgaria";;;;
"BAR RISTORANTE ANTICO ALBERGO STELLA D'ITALIA";"Via E. Colpi";"Folgaria";;;;
"BAR RISTORANTE ALBERGO TRENTINO";"Via Manzoni";"Folgaria";;;;
"CALZATURE FAIT";"Via E. Colpi";"Folgaria";;;;
"FARMACIA GIRARDI";"Via E. Colpi";"Folgaria";;;;
"BAR RISTORANTE PARK HOTEL MIRAMONTI";"Via Dante Alighieri";"Folgaria";;;;
"BAR RISTORANTE ALBERGO DUE SPADE";"Via Lega Nazionale";"Folgaria";;;;
"MERCERIA RELLA";"Piazza S. Lorenzo";"Folgaria";;;;
"SALUMERIA BELLI";"Piazza Oveno";"Trento";;;;
"BONANI GIULIANA";;"Comano Terme";"esercizio commerciale";;;
"BAR FIORENTINA";"Via Calepina";"Trento";;;;
"AMBROSI SILVIO LUIGI";"Via Nazionale";"Pellizzano";"esercizio commerciale";;;
"MACELLERIA MALENCH";"Piazza San Vittore";"Predaia";;;;
"BAR DEI CAVAI";"Via S. Martino";"Trento";;;;
"BRESCIANI SOUVENIR";"Piazza C. Battisti";"Riva del Garda";;;;
"PROFUMERIE BRESCIANI";"Via Mazzini";"Riva del Garda";;;;
"BAR DELL'HOTEL RANCOLIN";"Strada de Moene";"Moena";;;;
"MOBILIFICIO ARTIGIANI ASSOCIATI";"Strada de la ComunitÃ  de Fiem";"Moena";;;;
"BAR GABRY";"Piaz de Ramon";"Moena";;;;
"BAR RAMON";"Piaz de Ramon ";"Moena";;;;
"ENOTECA DEL PINTER";"Strenta de Ischiacia";"Moena";;;;
"GIOIELLERIA CROCE";"Piaz de Ramon";"Moena";;;;
"BAR DELL'HOTEL ALLE ALPI";"Strada de Moene ";"Moena";;;;
"LA BORA";"Piaz de Ramon";"Moena";;;;
"NONSOLOMODA";"Strada de Fachin";"Moena";;;;
"PELLETTERIA GRAZIA S.A.S.";"Via Fiume";"Riva del Garda";;;;
"MACELLERIA ZANOTELLI";"Viale IV Novembre 35";"Cembra Lisignago";;;;
"PANIFICIO GAIGHER";"Via Damiano Chiesa  6";"Cembra Lisignago";;;;
"FERRAMENTA PIU'";"Viale IV Novembre 35";"Cembra Lisignago";;;;
"IDEA CASA";"Viale IV Novembre 35";"Cembra Lisignago";;;;
"MACELLERIA PAOLAZZI";"Piazza San Rocco";"Cembra Lisignago";;;;
"BAR VICO";"Piazza Marconi";"Cembra Lisignago";;;;
"BAR ROSALPINA";"Viale IV Novembre 17";"Cembra Lisignago";;;;
"ALBERGO RISTORANTE BAR DUE SPADE";"Piazza Municipio ";"Caldonazzo";;;;
"ALBERGO RISTORANTE BAR ALLA TORRE";"Via delle Villa";"Caldonazzo";;;;
"CASALINGHI FERRAMENTA MURARA";"Piazza Municipio";"Caldonazzo";;;;
"MOBILI CIOLA";"Via Brenta";"Caldonazzo";;;;
"BAR RISTORNATE ROSSI";"Via G. Marconi";"Luserna";;;;
"MACELLERIA BONELLI";"Via Asilo";"Primiero San Martino di Castrozza";;;;
"PANIFICIO PASTICCERIA ZANETEL ARRIGO";"Via Larga";"Primiero San Martino di Castrozza";;;;
"BAR HOTEL SIROR";"Via Larga ";"Primiero San Martino di Castrozza";;;;
"CAFFE' CENTRALE DI GIAN LUIGI SECCO E C.";"Via Passo Rolle";"Primiero San Martino di Castrozza";;;;
"RISTORANTE ALBERGO CENTRALE";"Via Passo Rolle";"Primiero San Martino di Castrozza";;;;
"BAZAR DELL'ALPE";"Via Passo Rolle";"Primiero San Martino di Castrozza";;;;
"BANCHER S.A.S. DI TISOT ADELIA E C.";"Via Laghetto";"Primiero San Martino di Castrozza";;;;
"ALBERGO BAR RISTORANTE ROSALPINA DI CANALIA GABRIELE";"Via Strada Nuova ";"Folgaria";;;;
"ALBERGO BAR RISTORANTE SAYONARA DI RECH WILLIAM";"Via A. Maffei";"Folgaria";;;;
"NIC S.A.S. DI NICOLODI MARTINO";"Via Cesare Battisti";"Cembra Lisignago";;;;
"FAMIGLIA COOPERATIVA DI CEMBRA";"Piazza Marconi";"Cembra Lisignago";;;;
"TABACCHINO DI FADANELLI MAURA";"Piazza Marconi";"Cembra Lisignago";;;;
"BAR PIZZERIA SAINT ROCK";"Viale IV Novembre";"Cembra Lisignago";;;;
"BAZAR COVI";"Piazza San Giovanni";"Fondo";;;;
"CALZATURE SCHNEIDER";"Via IV Novembre";"Fondo";;;;
"EUROPAFERR FERRAMENTA DI ZINI MAURO GIOVANNI";"Via Battisti";"Fondo";;;;
"BATTISTI CALZATURE DI BATTISTI ALBERTO";"Via Battisti";"Fondo";;;;
"ZANONI PREZIOSI ";"Via Inama";"Fondo";;;;
"PIZZERIA-RISTORANTE AL FOLON";"Via Lago Smeraldo";"Fondo";;;;
"BAR RISTORANTE TRENTO";"Via Milano ";"Bieno";;;;
"BIRRERIA VALSERENA";"Via Valserena ";"Primiero San Martino di Castrozza";;;;
"BAR CAFFE' ERO";"Via S. Andrea";"Primiero San Martino di Castrozza";;;;
"BAR MARGHERITA";"Via Passo Rolle";"Primiero San Martino di Castrozza";;;;
"ESTETICA PROFUMERIA TISOT";"Via Passo Rolle";"Primiero San Martino di Castrozza";;;;
"CALZATURE BANCHER SEVERINO";"Via Rivetta";"Primiero San Martino di Castrozza";;;;
"RISTORANTE ALBERGO FRATAZZA";"Via Passo Rolle";"Primiero San Martino di Castrozza";;;;
"FAMIGLIA COOPERATIVA DI SIROR";"Via S. Andrea";"Primiero San Martino di Castrozza";;;;
"BAR ALLA TORRE";"Via Avisio";"Castello-Molina di Fiemme";;;;
"RISTORANTE ALBERGO LATEMAR S.N.C. DI BETTA MARISA E &.";"Via Latemar";"Castello-Molina di Fiemme";;;;
"CAVADA DOLORES DI CAVADA UGO & C. S.N.C.";"Via Bolzano";"Castello-Molina di Fiemme";;;;
"BAR RISTORANTE PIZZERIA AL LAGO";;"Castello-Molina di Fiemme";;;;
"BAR RISTORANTE ALBERGO PINETA";"Via Cadino";"Castello-Molina di Fiemme";;;;
"RISTORANTE ALBERGO ANCORA DI ZANCANELLA PAOLO E LUCIA S.N.C.";"Via Marconi";"Castello-Molina di Fiemme";;;;
"PANIFICIO TARTER DI MARCO TARTER & C. S.N.C.";"Via Marconi";"Castello-Molina di Fiemme";;;;
"FAMIGLIA COOPERATIVA DI CAVALESE - MOLINA DI FIEMME - PREDAIA";"Via Marconi";"Castello-Molina di Fiemme";;;;
"FAMIGLIA COOPERATIVA DI CAVALESE - CASTELLO DI FIEMME";"Via Roma";"Castello-Molina di Fiemme";;;;
"CARTOLERIA GIOCATTOLI BERTOLDI";"Piazza San Giovanni";"Fondo";;;;
"LA BOTTEGA DI ZAMBIASI";"Piazza San giovanni";"Fondo";;;;
"LATTERIA SOCIALE DI FONDO";"Via IV Novembre";"Fondo";;;;
"FAMIGLIA COOPERATIVA VAL DI NON";"Via Battisti";"Fondo";;;;
"CAFFE' VECCHIA TIONE";"Via del Foro";"Tione di Trento";;;;
"FAMIGLIA COOPERATIVA VAL DI NON S.C.A.R.L. - CASEZ";"Via Roma";"Sanzeno";;;;
"FAMIGLIA COOPERATIVA VAL DI NON S.C.A.R.L. - SANZENO";"Via Nazionale";"Sanzeno";;;;
"FAMIGLIA COOPERATIVA VAL DI NON S.C.A.R.L. - BANCO";"Via Mazzini";"Sanzeno";;;;
"BAR ALLA FONTANA DI BALDO ONESTINGHEL OLGA & C.";"Piazza Centrale";"Sanzeno";;;;
"BAR MARINELLI";"Via Mazzini";"Sanzeno";;;;
"BAR DALPIAZ";;"Sanzeno";;;;
"HOTEL CASEZ";"Via Roma";"Sanzeno";;;;
"RISTORANTE AL MULINO";"Via S. Romedio ";"Sanzeno";;;;
"PANIFICIO ZORZI DI ZORZI EZIO & C. S.N.C.";"Via Roma";"Castello-Molina di Fiemme";;;;
"BAR SPORT";"Via Italia";"Castello-Molina di Fiemme";;;;
"QUEN CONFEZIONI";"Piazza Dante";"Fondo";;;;
"RESTEL DE FER";"Via Restel de Fer";"Riva del Garda";;;;
"DELVAI MARKET S.N.C. DI DELVAI NICOLETTA E CARESIA DIEGO";"Via Giovanelli A.";"Carano";;;;
"TUTTO LUCE SAS";"Via Calepina";"Trento";;;;
"BAR TRE PORTONI";"Via S. Croce";"Trento";;;;
"BAR ROMA";"Via Roma";"Ospedaletto";;;;
"FIORERIA STELLA";"Corso Tre Novembre";"Trento";;;;
"CONTINI";"Via Fiume";"Riva del Garda";"esercizio commerciale";;;
"A. CRIVELLARI â€“ COSE DI CASA";"Via Battisti";"Pergine Valsugana";;;;
"FRISANCO";"Piazza Spiaz de le Oche";"Pergine Valsugana";"esercizio commerciale";;;
"ALIMENTARI CAOLA";"Via Maturi";"Pinzolo";;;;
"LA BOTTEGA DEL MOLETA";"Via Lampi ";"Cles";"esercizio commerciale/attivitÃ  artigianale";;;
"ALBERGO RISTORANTE CLES â€“ OSTERIA PALAZAN";"Piazza Navarrino";"Cles";;;;
"CAFF'E EUROPA";"Piazza Granda";"Cles";;;;
"FARMACIA DE MAFFEI ";"Via Pilati";"Cles";;;;
"CAFFÃˆ BERTOLASI";"Piazza Granda";"Cles";;;;
"VISINTAINER CARTOLIBRERIA";"Piazza Granda";"Cles";;;;
"ROSANI ALIMENTARI";"Piazza Pez";"Cles";;;;
"SEGHERIA LONGO";"Via Marconi";"Cles";;;;
"ALIMENTARI PAOLI S.N.C.";"Via Diaz";"Cles";;;;
"MACELLERIA AGOSTINI LUIGI";"Via Lampi ";"Cles";;;;
"MENAPACE IVO";"Via Pilati";"Cles";"esercizio commerciale";;;
"VALENTINOTTI FRANCESCO";"Piazza Granda";"Cles";"esercizio commerciale";;;
"ANGELI FLAVIO";"Piazza Municipio ";"Cles";"esercizio commerciale";;;
"OREFICERIA A. CORRADINI";"Piazza Granda";"Cles";;;;
"ANGELI NICOLA";"Piazza Municipio";"Cles";"esercizio commerciale";;;
"PREZIOSI STELLA";"Piazza Municipio ";"Cles";;;;
"PESCHERIA GOIO";"Via Lampi ";"Cles";;;;
"COLORIFICIO PIZ";"Piazza Granda";"Cles";;;;
"ABRAM VITTORIO E C. SNC";"Via Battisti";"Sarnonico";"esercizio commerciale";;;
"BAZAR GIORNALI DI CATTARINI VINCENZO";"Via IV Novembre";"Sarnonico";;;;
"CALZATURE DALLAPÃˆ";"Via Trento";"Cavedine";;;;
"BAITA SANTA LUCIA";"Via Santa Lucia";"Ledro";"esercizio di somministrazione di alimenti e bevande";;;
"ANTICA CROCE";"Via dei Laghi";"Tenno";"esercizio di somministrazione di alimenti e bevande";;;
"MOBILI ZENI LINO S.R.L.";"Via Postal";"S. Michele allâ€™Adige";"esercizio commerciale";;;
"HOTEL CANTALEONE";"Via Tonale";"S. Michele allâ€™Adige";;;;
"BAR AL TURISTA";"Via Brennero";"S. Michele allâ€™Adige";;;;
"BAR DIGA";;"Canazei";;;;
"ALBERGO MONTILESSINI";;"Ala";"pubblico esercizio â€“ somministrazione di alimenti e bevande â€“ pizzeria";;;
"BAR EUGENIA";"Piazza G. Cantore";"Ala";;;;
"BAR TABACCHI DI BONGIOVANNI MAURO";"Piazzetta Cantore";"Ala";;;;
"MACELLERIA DEBIASI SERGIO";"Via 27 Maggio";"Ala";;;;
"VECCHIO CARNERA";"Piazza Buonacquisto";"Ala";"pubblico esercizio â€“ somministrazione di alimenti e bevande â€“ bar/trattoria";;;
"OREFICERIA CATTONI DI CATTONI CLAUDIO";"Via Cesare Battisti";"Comano Terme";;;;
"CATTONI ELETTRONICA DI CATTONO ROBERTO";"Via Cesare Battisti";"Comano Terme";;;;
"HOTEL MIRAMONTI";;"Rabbi";"ristorante â€“ bar";;;
"LE LUZIE";"Piazza SS. Filippo e Giacomo";"Predazzo";"esercizio commerciale";;;
"MARCHETTI";"Piazza Catena";"Riva del Garda";"esercizio commerciale";;;
"INDAL";"Via 24 Maggio";"Trento";"esercizio commerciale";;;
"ZANLUCCHI SOFIA & C. S.A.S.";"Via dei Bagni di Fieno";"Garniga Terme";"esercizio commerciale";;;
"RISTORANTE BAR JA VITO DI VENDER KATIA E C. S.N.C.";"Stradon de Fascia ";"Soraga di Fassa";"ristorante - bar";;;
"SALONE FUORI DI TESTA DI POZZA NADIA";"Via Cesare Battisti";"Tesero";"parrucchiera (impresa artigiana con vendita di prodotti)";;;
"FILIPPI E GARDUMI S.N.C. DI GARDUMI RENZO & C.";"Via Bolghera";"Trento";"esercizio commerciale/attivitÃ  artigianale (pasticceria, gelateria)";;;
"ALBERGO LOCANDA FIORE DI SALIZZONI SILVIO E RITA S.N.C.";"Via Mazzini";"Comano Terme";"pubblico esercizio â€“ somministrazione di alimenti e bevande â€“ locanda";;;
"AL VOLT";"Via Santa Croce ,16";;"Marchio 'Osteria tipica Trentina', che certifica la qualit? dell?offerta e dei prodotti enogastronomici. I prodotti sono di origine rigorosamente trentina e i vini serviti in tavola sono solo vini locali.";46.14205;11.155242;"(+39) 0461 983776"
"LA CANTINOTA";"Via S. Marco, 22-24";;"Marchio 'Osteria tipica Trentina', che certifica la qualit? dell?offerta e dei prodotti enogastronomici. I prodotti sono di origine rigorosamente trentina e i vini serviti in tavola sono solo vini locali.";46.069691;11.121088;"(+39) 0461 238527"
"AI VICOLI";"Piazza Santa Teresa Verzieri";;"Ristorante e Winebar";46.069691;11.121088;"(+39) 0461 260673"
"ALLA MOSTRA";"Piazza della Mostra, 13";;"Ristorante pizzeria";46.071188;11.125855;"(+39) 0461 230787"
"AL MARINAIO";"Via dei Marinai d?Italia";;"Ristorante con prodotti tipici, bar e pasticceria";46.033955;11.129333;"(+39) 0461 1734471/933053"
"AMERICA ? EL MERICAN";"Via Torre Verde, 50";;"Ristorante e bar";46.070986;11.12343;"(+39) 0461 983010"
"CHISTE?";"Via delle Orne, 4";;"Ristorante pizzeria";46.068883;11.121255;"(+39) 0461 262979"
"CLESIO c/o GRAND HOTEL TRENTO";"Via Vittorio Alfieri, 1/3";;"Ristorante con cucina tipica";46.070544;11.121636;"(+39) 0461271000"
"DOC";"Via Milano, 148";;"Ristorante pizzeria";46.061719;11.129111;"(+39) 0461 262022"
"DUO";"Via Torre Vanga, 14";;"Ristorante & tapas bar; marchio 'Strada del Vino e dei Sapori', che certifica la qualit? dell?offerta e dei prodotti enogastronomici.";46.070127;11.119711;"(+39) 0461 1594461/1594462"
"FORST";"Via Oss Mazzurana, 38";;"Ristorante birreria";46.068916;11.122541;"(+39) 0461 235590"
"IL CAPPELLO";"Piazzetta B. Lunelli, 5";;"Ristorante Osteria";46.069691;11.121088;"(+39) 0461 235850"
"IL SIMPOSIO";"Via Rosmini, 19";;"Ristorante e Winebar";46.067966;11.118869;"(+39) 0461 261848"
"MOVER";"Via Innsbruck, 13";;"Ristorante e bar";46.101533;11.101316;"(+39) 0461 966899"
"OLYMPIC";"Via R. da Sanseverino, 125";;"Ristorante all'interno dell'Hotel Sporting Trento";46.057736;11.112491;"(+39) 0461 391215"
"ORSO GRIGIO";"Via degli Orti, 19";;"Ristorante e Antica trattoria";46.065583;11.122052;"(+39) 0461 984400"
"OSTERIA DA GUIDO";"Parco San Marco (via livio marchetti 9?)";;"Ristorante tipico";46.069413;11.126516;"(+39) 0461 262418"
"4 STAGIONI";"Via San Vito, 36";;"Ristorante pizzeria";46.075252;11.137725;"(+39) 0461 987031"
"TORREFRANCA";"Via Pomeranos, 43";;"Ristorante pizzeria";46.00625;11.136672;"(+39) 0461 944511"
"ROSA D?ORO";"Piazza S. Maria Maggiore, 21";;"Ristorante pizzeria";46.069691;11.121088;"(+39) 0461 261792"
"SAPORI MEDITERRANEI";"Via Roberto da Sanseverino, 39/4";;"Ristorante pizzeria";46.065072;11.113966;"(+39) 0461 984360"
"TEX-MEX RESTAURANT CUEVA MAYA";"Piaza Duomo, 22";;"Ristorante messicano";46.06745;11.12088;"(+39) 0461 984507"
"UVA E MENTA";"Via Dietro le Mura A, 35";;"Ristorante pizzeria";46.065422;11.123858;"(+39) 0461 1903162"
"CHALET LO SCIATORE";"Strada di Vason, 84";;"Ristorante e bar";46.040137;11.05859;"(+39) 340 7124107"
"MALGA BRIGOLINA";"Via della Brigolina, 6";;"Malga e ristorante con cucina tipica";46.057136;11.060485;"(+39) 0461 947474"
"RIFUGIO VIOTE";"Localit? Viote, 6";;"Rifugio e ristorante con cucina tipica";46.02325;11.038169;"(+39) 0461 948033 - 348 3590494"
"MALGA CANDRIAI";"Strada di Candriai, 4";;"Malga e ristorante con cucina tipica";46.046327;11.065047;"(+39) 0461 947526"
"NEVADA";"Strada di Vason, 61";;"Ristorante, pizzeria e bar";46.039756;11.058479;"(+39) 0461 948117"
"IL GIARDINO DELLE SPEZIE";"Via Nazionale, 109";;"Ristorante, pizzeria e bar";46.058436;10.9809;"(+39) 0461 340122"
"LILL?";"Localit? Maso Travolt, 12";;"Ristorante pizzeria";46.097411;11.058247;"(+39) 0461 866159"
;;;;;;
"Ai solteri";"Via R. Lunelli, 40";;;46.092449;11.11874;"+39 0461 827944"
"Alla Madonna";"Via Manci, 42";;;46.069877;11.122894;"+39 0461 982584"
"Bolghera";"Largo M. d'Oro";;;46.057959;11.132696;"+39 0461 910060"
"Comunale via Veneto";"Via Veneto, 39";;;46.058384;11.121622;"+39 0461 930163"
"Comunale Clarina";"Via Degasperi, 92/1";;;46.046895;11.127781;"+39 0461 921034"
"Comunale S.Pio X";"Via San Pio X, 77";;;46.055005;11.12036;"+39 0461 923756"
"Comunale San Camillo";"Via Giovannelli, 15";;;46.065497;11.131966;"+39 0461 238869"
"Dall'armi";"Piazza Duomo, 10";;;46.067339;11.120865;"+39 0461 236139"
"Gallo";"Via Mantova, 51";;;46.067421;11.124174;"+39 0461 234387"
"Grandi";"Via Manzoni 7/A";;;46.073767;11.12491;"+39 0461 239805"
"Santoni";"Piazza Pasi, 20";;;46.067906;11.12293;"+39 0461 982103"
"S. Bartolomeo";"Viale Verona, 92";;;46.053678;11.129609;"+39 0461 913593"
"S. Chiara";"Via S. Croce, 57";;;46.063744;11.123622;"+39 0461 982457"
"S. Lorenzo";"Piazza G. Cantore, 1";;;46.077116;11.119435;"+39 0461 823529"
"Comunale Cognola";"Via Julg Carlo E Valeria, 5";;;46.076499;11.142019;
"Comunale Madonna Bianca";"Via Menguzzato, 85";;;46.040282;11.13353;"+39 0461 924329"
"Comunale Meano";"Via delle Sugarine, 30";;;46.127911;11.11635;"+39 0461 992101"
"Comunale Piedicastello";"Via Brescia, 19/A";;;46.070588;11.111381;"+39 0461 983255"
"Comunale Povo";"Piazza G.Manci, 5";;;46.066316;11.154153;"+39 0461 810525"
"Comunale San Don?";"San Don?, 52";;;46.072428;11.139525;"+39 0461 238706"
"Dott. Poli Sandro";"Via Marco Pola, 2";;;46.108217;11.112501;"+39 0461 990320"
"Gardolo di Renato Brandolani";"Via Soprasasso, 4";;;46.10611;11.108828;"+39 0461 993511"
"Martignano";"Via Formigheta, 1";;;46.089313;11.131508;"+39 0461 821050"
"Mattarello";"Via Catoni, 69";;;46.006964;11.127718;"+39 0461 945262"
"Dott. Betta";"Via Herrsching 1";;;46.040717;11.110908;"+39 0461 331490"
"Roncafort";"Via Caneppele, 31";;;46.097863;11.101995;"+39 0461 421981"
"Sopramonte";"Piazza Centrale, 147";;;46.074872;11.058361;"+39 0461 866485"
"Villazzano";"Via Tambosi, 2";;;46.047503;11.142572;"+39 0461 921218"
"dott.Folgoresi Paolo";"Via Don Negri, 22";;;45.993213;10.97172;"+39 0461 569120"
"dott.Turazza Luigi";"Va Roma, 1";;;46.079826;11.001282;"+39 0461 864032"
;;;;;;
"Azienda per il Turismo Trento, Monte Bondone, Valle dei Laghi";"Via Manci, 2";;"Ufficio di Trento";46.069636;11.121366;"+39 0461 216000"
"Azienda per il Turismo Trento, Monte Bondone, Valle dei Laghi";"Strada di Vaneze, 13";;"Ufficio Monte Bondone";46.050889;11.072877;"+39 0461 947128"
"Azienda per il Turismo Trento, Monte Bondone, Valle dei Laghi";"Via Bagni di Fieno, 18";;"Ufficio Monte Bondone";46.000874;11.086009;"+39 0461 842586"
"Azienda per il Turismo Trento, Monte Bondone, Valle dei Laghi";"Via Roma, 61/1";;"Ufficio Valle dei Laghi";46.075419;10.996386;"+39 0461 864400"
;;;;;;
"Europa **";"Strada di Vaneze, 31";;"Hotel";46.051386;11.072276;"+39 0461 947183"
"Prada Sport *";"Strada di Vason, 87";;"Il nostro Residence si trova sul Monte Bondone a Vason a 1650 m, direttamente alla partenza delle piste. Offre appartamenti accoglienti, che possono ospitare fino a 4-5 persone, ? caratterizzato da un'atmosfera accogliente e familiare, ideale per le vostre vacanze.";46.038625;11.05827;"+39 0461 948188"
"Alpine Mugon ****";"Strada per Vason, 118";;"Il calore del legno, camere in mansarda con travi a vista e balconi per crogiolarsi al sole. Bagno privato e docce con l?idromassaggio. Tv LCD con canali satellitari, frigobar, cassaforte a combinazione, asciugacapelli e riscaldamento autonomo.";46.041015;11.059336;"+39 0461 947116 - 0461 939063"
"Le Blanc Hotel & Spa ****";"Strada di Vason, 64";;"Le nostre camere uniscono le pi? moderne dotazioni al tradizionale calore del legno. Sono a disposizione degli ospiti il lounge bar panoramico, piscina e Spa, il beauty center, il miniclub, la sala lettura, internet wi-fi, il garage e il deposito sci";46.041741;11.059603;"+39 0461 947457"
"Norge wellness resort ****";"Strada per il Norge, 3";;"Hotel Norge Monte Bondone Direttamente sulle piste da sci L'HOTEL NORGE si trova sul Monte Bondone in Trentino, nelle Dolomiti di Brenta. Da sempre la montagna di Trento e ottima destinazione per vacanze sia sportive che di relax. Proprio sulla pista da sci a 1.400 m di altitudine, sorge in posizione panoramica Il Nuovo Hotel Norge, l'incanto del Monte Bondone, in una zona tranquilla che dall'alto domina lo splendido scenario offerto dalle spettacolari Dolomiti e dove la sua posizione li permette di essere soleggiato durante tutto l'arco della giornata...";46.048775;11.066649;"+39 0461 947436"
"Montana ***?";"Strada di Vason, 70";;"Il nostro albergo mette a disposizione dei propri ospiti la palestra Boulder per arrampicare al coperto, un grande auditorium multimediale da 150 posti, il garage, il miniclub e a salagiochi, deposito sci riscaldato, rete wi-fi gratuita, piscina & wellness e campo da pattinaggio.";46.040801;11.058415;"+39 0461 948200"
"Chalet Caminetto ***";"Strada di Vason, 139";;"Inaugurato nel 2006, lo Chalet Caminetto offre un ambiente moderno e familiare. Si trova a 150m dalle piste da sci ed e' affacciato su uno splendido panorama dolomitico. A disposizione degli ospiti?sala giochi?con biliardo, ampia terrazza solarium, deposito sci riscaldato. Connessione?internet gratuita disponibile via cavo nelle camere e WI-FI nella Hall . Ascensore, parcheggio e?garage completano l'offerta.";46.038109;11.055346;"+39 0461 948090"
"Dolomiti Chalet Family hotel ***";"Strada di Vason, 88";;"Il?Dolomiti Chalet Family Hotel?? un albergo moderno ed accogliente sul Monte Bondone, attento al rispetto della tradizione. Dispone di centro benessere e ambienti confortevoli e curati, con incantevole vista sulle cime montane. Tutte le stanze, arredate con gusto ed attenzione, sono dotate di telefono, TV, asciugacapelli e frigobar.?";46.027558;11.045175;"+39 0461 947158"
"Monte Bondone ***";"Via dei Falchi, 19";;"Albergo storico rinnovato nella primavera 2013 con bar e ristorante panoramico. Ampio men?, anche con prodotti tipici della tradizione locale e i migliori vini del Trentino. Possiamo preparare pasti per celiaci, vegani, vegetariani e diabetici. Gli spazi interni ed esterni coprono una superficie di oltre 8.000 mq e godono della vista panoramica sulla citt? di Trento. Centro Wellness, sala giochi, palestra, campo da tennis e calcio a 5, biciclette insieme al nostro Silver Golf Simulator, uno dei pi? sofisticati simulatori di golf esistenti per 'tirare' sui pi? bei percorsi di golf al mondo in qualsiasi stagione dell'anno, completano la nostra offerta.";46.097411;11.058246;"+39 0461 947118"
"Zodiaco ***";"Strada per Vaneze, 23";;"Il piccolo Residence Orizzonte e l' Hotel Zodiaco si trovano direttamente sulla piste del monte Bondone. L'Hotel ? ststo rinnovato di recente e dispone di 45 stanze dotate di bagno privato, doccia, phon, TV e cassaforte. Il Residence offre 8 appartamenti nuovi e completamente equipaggiati. A disposizione dei clienti ci sono ampie aree comuni, sala ristorante luminosa e un pub. Nel Residence si trova anche un moderno wellness center. L'hotel dispone anche di una sala adibita all'animazione dei bambini.";46.051062;11.072427;"+39 0461 939242"
"Augustus **";"Strada di Vaneze, 33/35";;"Hotel Augustus (2 stelle) ? situato a 100 metri dalla partenza degli impianti di risalita, ubicato tra il lago di Garda e Trento. Dispone di 37 camere con servizi privati; inoltre di una sala per incontri e animazione, Sala TV ed Internet Wi-FI.";46.051569;11.072813;"+39 0461 948030"
"Vason **";"Strada di Vason, 100";;"L?Hotel vi propone un ambiente in stile rifugio alpino, un clima famigliare, cordiale, con un'ottima cucina. 14 stanze, tutte con servizi, un accogliente soggiorno, sala tv, bar, ristorante, una bella zona solarium per gli appassionati  dell?abbronzatura e per chi gradisse il wellness, a pochi passi dall?hotel, vi ? un centro veramente incantevole con piscina, sauna e bagno turco. Nella stessa struttura dell'hotel trovate un fornito MINIMARKET dove acquistare i prodotti tipici del nostro territorio trentino, souvenir e tabacchi.";46.039487;11.057727;"+39 0461 948149"
"Candriai Alla Posta ***";"Strada di Candriai, 29";;"Armoniosamente inseriti nel verde del Monte Bondone appartamenti confortevoli, dalle piacevoli linee tipiche dell'architettura locale, a dieci minuti da Trento.?Sono la soluzione ideale per una vacanza quieta e rilassante. 1000 mt d'altitudine. E' bello sedersi alla sera di fronte a uno scenario di quiete, per ascoltare il silenzio, immersi nel profumo del bosco, ammirando il tramonto all'orizzonte.";46.065312;11.083842;"+39 0461 947207"
"Malga Candriai ***";"Strada di Candriai, 2";;"Immerso nel verde, a stretto contatto con la natura del monte Bondone a quota 1000m, vanta una vista stupenda sulle dolomiti e la valle dell?Adige. Lontano dai rumori e dal traffico ? il luogo ideale per trascorre la vostra vacanza in assoluto relax, soprattutto per famiglie con bambini che cercano luoghi tranquilli. Offre una ottima cucina tipica trentina di prodotti propri e locali e un clima famigliare unico. La sua posizione centrale permette spostamenti veloci verso le principali mete del Trentino.";46.066711;11.082013;"+39 0461947526 cell.3480451908"
"Viote";"Loc. Viote, 6";;"Il Rifugio Viote vuol essere un luogo di incontro dove condividere la passione ed il rispetto per le montagne. Nella tranquillit? della natura della Piana delle Viote, adiacente il Giardino Botanico Alpino, potete gustare la cucina tipica trentina, basata sui prodotti locali. Il rifugio offre un ampio parcheggio per macchine e camper. Dispone di 15 posti letto in stanze dotate di angolo lavandino e servizi in comune.";46.023118;11.03803;"+39 0461 948033 cell.3483590494"
"Nevada **";"Strada di Vason, 61";;"L'Hotel e Residence sono dotati di un'attrezzata palestra, solarium e sala giochi e forniamo servizio di animazione serale che prevede ciaspolade, fiaccolate, gare di bob e sci, visite in grapperia e caseifici. Le camere sono tutte dotate di bagno, doccia, servizi, telefono e televisione. Si accettano animali di piccola taglia.";46.039757;11.058471;"+39 0461 948117"
"Orizzonte ***";"Strada per Vaneze, 24";;"Il piccolo Residence Orizzonte e l' Hotel Zodiaco si trovano direttamente sulla piste del monte Bondone. L'Hotel ? ststo rinnovato di recente e dispone di 45 stanze dotate di bagno privato, doccia, phon, TV e cassaforte. Il Residence offre 8 appartamenti nuovi e completamente equipaggiati. A disposizione dei clienti ci sono ampie aree comuni, sala ristorante luminosa e un pub. Nel Residence si trova anche un moderno wellness center. L'hotel dispone anche di una sala adibita all'animazione dei bambini.";46.051062;11.072427;"+39 0461 939242"
"Cielo Aperto ***";"Loc. Vason";;"Affacciato sulle piste da sci e situato a 1650 mt. di quota, il Residence Cielo Aperto gode di una splendida vista sui monti del gruppo del Brenta. Si compone di quattro corpi adibiti ad alloggi e di un quinto cui appartengono ricevimento, piscina coperta, sauna, terrazzo solarium, sala giochi.";46.037776;11.056135;"+39 0461 948099"
"Laghetto ***";"Via Bagni di Fieno, 19";;"L' Hotel Laghetto ha 35 camere, recentemente rinnovate, dotate di ogni confort (TV, telefono, asciugacapelli) e ambienti comuni accoglienti e piacevoli (Solarium, Sala lettura e TV). L'Hotel Laghetto offre ai suoi ospiti un servizio accurato e puntuale e d? la possibilit? di trascorrere un soggiorno assolutamente rilassante e confortevole. Il ristorante con ottima cucina regionale e locale.";46.001799;11.085583;"+39 0461 842909"
"Miramonti ***";"Via dei Bagni di Fieno, 20";;"Si trova in un punto strategico per quanto riguarda salutari camminate panoramiche e pedalate in mountain bike ed ? quindi un ottima base di partenza per escursioni e passeggiate alle pendici del Monte Bondone. Le nostre 33 stanze, accuratamente arredate, sono dotate di balcone, servizi con box doccia, asciugacapelli, telefono e TV color. Dispone inoltre di bar, sala ristorante, pizzeria, sala soggiorno, ascensore, terrazza con solarium, giardino e parcheggio. Cucina innovativa con specialit? trentine.";46.001956;11.085328;"+39 0461 843243"
"BergwanderHaus";"Via C? di sopra, 13";;"Quattro appartamenti, ognuno con soggiorno, cucina, camera da letto e ampio bagno, vanno aggiunte tre camere da letto, una singola e due doppie con relativi servizi. Ampi balconi in legno si affacciano su una distesa di orti coltivati e la sottostante Valle dell'Adige. Una sala ? riservata per pianificare le escursioni attraverso la visione di filmati o diapositive. Tutti gli animali sono bene accetti. Si organizzano Escursioni Naturalistiche con propria Guida.";46.013535;11.084722;"+39 347 8157588"
"Dallago Luciano";"Via Lago, 9";;"Agritur";46.003263;11.086387;"+39 0461 842629"
"Malga Albi";"Loc. Malga Albi";;"Malga Albi, bar-ristorante con possibilit? di pernottamento ? situata nella splendida conca omonima a 1265 metri d'altitudine nel comune trentino di Garniga Terme, noto per i suoi Bagni nell'erba curativi. E' una struttura accogliente con: 8 camere da letto, per un totale di 23 posti, arredate in stile alpino, una sala ristorante ampia e luminosa dove gustare prodotti locali.";;;"+39 328 8842494"
"Piccolo Principe ****";"Via Monte Bondone, 11";;"Questo hotel ? un'oasi di relax e benessere che si specchia nelle limpide acque del lago di Lagolo, nel verde del Monte Bondone, a pochi chilometri da Trento e dal Lago di Garda. ? la partenza ideale per piacevoli passeggiate, escursioni in mountain bike, arrampicate e sciate. Le 14 suite/junior suite sono arredate in legno e molto confortevoli. Nel Ristorante Antichi Sapori e nella Stube Maria, pi? intima e romantica, si possono gustare i piatti della tradizione locale e originali menu di stagione. C?? anche il centro wellness e beauty Le Coccole, regno del relax e del benessere. Sala giochi e parco giochi all'aperto per i bambini.";46.041486;11.004835;"+39 0461 564250"
"Lill? ***?";"Loc. Maso Travolt, 14";;"L??Hotel Lill? Superior?? stato completamente ristrutturato alla fine degli anni novanta, assumendo un?elegante veste in vista del nuovo secolo; nell?ambito di tale ristrutturazione l?Hotel ? stato dotato di numerose innovazioni tecnologiche mirate al risparmio energetico, al rispetto dell?ambiente e delle persone diversamente abili, senza tuttavia rinunciare ai doni del passato, attraverso la valorizzazione ed il ripristino di alcuni elementi architettonici presenti nella vecchia villa ausburgica, dalla quale ? poi sorto l?Hotel.";46.098071;11.058179;"+39 0461 868027"
"Al Vecchio Mulino ***";"Loc. Naran, 1";;"Hotel";46.076509;11.019952;"+39 0461 864277"
"AI Masi ****";"Via Gu?, 3/A";;"Il nostro agriturismo con quattro margherite, dispone di quattro camere singole matrimoniali con bagno e di due nuclei familiari, composta da due camere con bagno adiacente con o senza balcone. Tutte le camere sono dotate di regolatore di temperatura indipendente. Inoltre internet, lavanderia, forno a microonde, deposito attrezzatura, tv, Wi-fi, frigo bar, cassaforte, asciugacapelli.";46.024443;10.959801;"+39 0461 564938 Cell.3397210101"
"Le Vallene ****";"Via Strada Laghi di Lamar, 44";;"L'agritur Le Vallene vi accoglie all'interno delle sue meravigliose stanze. Stanze accoglienti e confortevoli, arredate secondo uno stile tradizionale con legno chiaro e profumato. Ogni camera ? dotata di servizi privati con doccia o vasca da bagno, e quasi tutte dispongono di un ampio balcone.";46.112204;11.046929;"+39 0461 861119"
"Doss dei Pini";"Via Doss dei Pini 2";;"Il Bed & Breakfast 'Doss dei Pini' si trova a Pergolese, piccolo borgo della Valle dei Laghi, nel comune di Lasino, zona tra il Lago di Toblino, Lago di Cavedine e Lago di Garda. Si inserisce in una zona tranquilla ed affascinante. Sovrastano il paese, le cime del Monte Bondone, del Monte Daino e Casale.";46.030487;10.958814;"+39 347 7313733 Cell.3336616910"
"Pietra Rara ****";"Via alla Busa, 6";;"Un luogo intimo, lontano dalla ressa turistica, accogliente e pratico grazie ai servizi offerti. Residenza del 1769 completamente e accuratamente ristrutturata, un affascinante angolo di storia dove trascorrere vacanze indimenticabili con biciclette, bike office, wifi in stanza e lavanderia a disposizione gratuitamente.";46.018126;10.947414;"+39 0464 507012 Cell.3666457187"
"Floriani ***";"Via Coste de Lagol, 9";;"Il Monte Bondone (la montagna che separa Trento dalla Valle che porta al Lago di Garda) conserva sul versante meno conosciuto, il fascino dei luoghi ameni di inizio Novecento. Poche case, sparpagliate sui prati. Poi il lago, minuscolo, tra i pi? suggestivi e meno frequentati del Trentino, 1000 metri di quota per bagni estivi o pattinate sul ghiaccio nei mesi freddi. ? meta di escursionisti e di quanti vogliono godere un relax davvero genuino immersi nella tranquillit? e nella bellezza della natura e del silenzio. Nel nostro piccolo albergo la clientela deve sentirsi sempre a suo agio, quasi fosse a casa. Cordialit? e piacevolezza marciano di pari passo. Venti camere arredate come fossero la 'camera degli ospiti', contraddistinte, non dal numero, ma da un fiore tipico della flora del Trentino.";46.033933;11.004701;"+39 0461 564241"
"Ideal ***";"Piazza Valussi, 2";;"L'hotel dispone si 19 accoglienti camere dotate di bagno interno, televisore, telefono e phon. Nelle aree comuni ? a disposizione della clientela una connessione WI-FI. I nostri clienti possono partire dall'albergo per visitare le meraviglie del trentino, godere del relax, dei prodotti e dei sapori che la Valle dei Laghi offre; l'albergo si trova nelle vicinanze delle migliori stazioni sciistiche del trentino, percorsi di arrampicata e passeggiate in montagna o come punto di partenza di piste ciclabili o di mountain bike.";46.046988;10.952119;"+39 0461 564131"
"Miralaghi **";"Via Nazionale, 114";;"L?hotel Miralaghi dispone di 19 camere, arredate in maniera semplice e confortevole per garantire il massimo comfort degli ospiti.?In ogni stanza sono disponibili telefono, TV satellitare (i programmi sono disponibili in lingua italiana, tedesca e inglese), servizi igienici provvisti di doccia e asciugacapelli; gli ospiti hanno a disposizione parco con piscina, parcheggio, wi-fi gratuito nelle aree comuni. Ristorante con cucina tipica.";46.058905;10.97911;"+39 0461 864010"
"Vezzano **";"Via Roma, 156";;"L?Hotel Vezzano offre un?ospitalit? a carattere familiare che vi metter? a vostro agio. L'edificio inserito nel centro storico antico Borgo di Vezzano. Camere dotate di servizi privati, telefono, TV LCD.";46.077407;10.998532;"+39 0461 864062"
"Bressan *";"Via Nazionale, 15";;"Hotel";46.061551;10.990252;"+39 0461 864041"
"Due Laghi *";"Via Nazionale, 117";;"Le camere sono arredate con eleganza e attenzione alla comodit? e al benessere dei nostri ospiti, accoglienti e curate negli arredi. Tutte le stanze dell?albergo sono dotate di moderne comodit?: televisione, telefono diretto, aria condizionata, cassetta di sicurezza.?Dotate di bagni privati con doccia e asciugacapelli.?Parcheggio e piscina a disposizione degli ospiti.";46.058938;10.978665;"+39 0461 864198"
"Campi Alla Casetta ****";"Loc. Campi alla Casetta 1";;"L?agritur bio?Campi alla Casetta?nasce nel cuore dell?azienda agricola, ? un luogo pieno di pace, immerso nel verde. Sono a disposizione 2 camere con letto matrimoniale e ampio bagno indipendente. Possibilit? di assaporare la nostra deliziosa cucina bio con prodotti della nostra azienda agricola.";46.085052;10.991113;"+39 348 0343067"
"Dosila ****";"Loc. Dosila";;"L'agritur Dosila si trova a Lasino e dispone di 2 sale, con capienza max 150 persone, entrambe in pietra con ampio giardino esterno, in un contesto naturale unico. L?agriturismo offre pernottamento per 20 posti letto?(6 stanze con bagno privato).";46.019617;10.984493;"+39 339 3362509"
"La Fattoria ***";"Via alle Saline, 3";;"LA FATTORIA ? un piccolo agritur, dotato di tre stanze, una delle quali con servizi per diversamente abili, e una sala comune per la consumazione dei pasti e per guardare la TV. Per gli ospiti pi? piccoli, la mamma pu? usare l? angolo cottura (frigo e gas) per la preparazione delle pappe.";46.080033;10.991864;"+39 0461 340078 cell.3389391322"
"Campo Fiorito **";"Via Masi di Sopra, 9/2";;"Struttura di nuova costruzione, l'agritur Campo Fiorito ? una casa facilmente accessibile, immersa nella campagna. La nostra famiglia vi sapr? accogliere in un ambiente rilassante dove potrete passare del tempo ricco di quiete e tranquillit?. Non manca il divertimento per i pi? piccoli, che potranno stare a contatto diretto con gli animali della nostra fattoria didattica.";45.97613;10.97928;"+39 0461 566071"
"Mina";"Via Don Pisoni";;"Agriturismo";46.026457;10.960092;"+39 340 9381230"
"Casa Olimpia";"Via Lasta de L?Ormelin, 36";;"Agriturismo";46.04232;11.006337;"+39 0461 564239 cell.3383878566"
"Al Borgo";"Piazza San Valentino, 6";;"Agriturismo";46.078486;11.000055;"+39 0461 340094 cell.3393293555"
"El Belesai";"Via dei Predorighi, 9";;"Agriturismo";45.992227;10.95022;"+39 349 6782150"
"Laghi di Lamar **";"Via alla Selva Faeda, 15";;"Il campeggio Laghi di Lamar ? immerso nel meraviglioso scenario dolomitico ai piedi della Paganella. Il nostro campeggio offre tranquillit? ed ? un ottima base di partenza per visitare la citt? di Trento e per escursioni in mountain bike o passeggiate a piedi. Nelle vicinanze potete trovare: un laghetto per la pesca sportiva, un maneggio attrezzato e un mini golf, alcune palestre di roccia e vie ferrate. Il campeggio dispone di: piccolo bar, un minimarket, sala video-giochi, calcetto, tavolo da ping-pong, freccette, barbecue, parco giochi e piscina.";46.110753;11.047959;"+39 0461 860423"
"Lido Lill? **";"Via al Travolt, 5";;"Il Camping 'Lido Lill?' si trova in una posizione molto traquilla ed alberata con terreno erboso che, per la sua permeabilit? e l'esposizione al sole offre ai campeggiatori, eccellenti condizioni igieniche di abitabilit?. Piazzole numerate e delimitate di 80 mq cadauna, tutte con prese di corrente; installazioni igieniche efficienti, dalle doccie con acqua calda al locale lavanderia. Il Camping 'Lido Lill?' si stende sulla riva est del Lago di Terlago, sul quale, data la presenza dell''Ora del Garda', ? garantita una brezza fresca a tutte le ore del giorno. E' l'ideale punto di partenza per: la Paganella , raggiungibile a piedi percorrendo sentieri panoramici tra fantastici scenari dolomitici, il Monte Bondone e alle Dolomiti stesse. Adiacente al Camping si trovano: il bar interno, un ristorante, una pizzeria, tavoli da ping pong, una spiaggia privata riservata al campeggio e nel vicino paese di Cadine i campi da tennis.";46.096732;11.056698;"+39 0461 865377"
"Casa Pederzolli";"Via L?asta de l?Omerlin, 22";;"Appartamento vacanze";;;"+39 338 2256856 - +39 3356775231"
"Cristofolini";"Via S. Uldarico, 1";;"Appartamento vacanze";;;"+39 340 8564738"
"Lagolo";"Via Al Camp, 7";;"Lagolo, con il suo omonimo lago, giace a 938 m. s.l.m. sul versante sud-occidentale del Monte Bondone, montagna che separa Trento dall' Alto Garda. L' ampia scelta delle escursioni anche con mountain-bike, la vicinanza agli impianti sciistici, l'ebbrezza del volo con parapendio, l'opportunit? di fare vita di spiaggia e soprattutto la possibilit? di una vacanza all'insegna del relax, rendono questa localit? piacevole destinazione di quanti vogliono rifuggire lo stress cittadino.";46.037492;11.002635;"+39 0461 564128 - +39 0461 091214 cell.338 2204125"
;;;;;;
"Adige ****";"Via Pomeranos, 10";;"L?Hotel Adige ? una struttura?4 stelle vicino Trento, situata a pochi chilometri dal centro e rappresenta il punto ideale per raggiungere facilmente i luoghi pi? caratteristici della regione, nonch? i punti di interesse culturali e d?affari della citt?. Si trova all?interno di un?area commerciale, con ampio parcheggio, bancomat, tabacchi/edicola, alcuni negozi e la fermata bus ? a soli 200 mt. L?hotel dispone di 70 camere?recentemente rinnovate, suddivise in varie tipologie, di un?Centro Benessere?(Estetica Greta) dove ?coccolarsi e farsi coccolare? durante il soggiorno e di un?centro congressi?attrezzato con capacit? fino a 250 posti.";46.01488;11.132218;"+39 0461 944545"
"Aquila d'Oro ****";"Via R. Belenzani, 76";;"Completamente rinnovato ed interamente ristrutturato, l'Hotel Garni Aquila d'Oro si propone a tutti gli amanti del vivere bene con una nuova filosofia, quella dell'Easy Living. Che la vostra sosta sia per svago o per lavoro, a casa nostra vi sentirete subito a vostro agio ed apprezzerete tutti i comfort che abbiamo realizzato proprio per voi.";46.067842;11.121495;"+39 0461 986282"
"Accademia ****";"Vicolo Colico, 4/6";;"L'Albergo Accademia si trova nel centro storico della citt? di Trento, famoso capoluogo del Trentino, dove storia, arte e natura si compenetra, dando cos? origine ad un 'interessante' incontro fra la cultura italiana e quella mitteleuropea. Godendo di una posizione invidiabile, a pochi passi dalla bellissima Piazza del Duomo, dal famoso Castello del Buonconsiglio, il nostro Albergo ? ubicato in un antico palazzo del 1400 sapientemente restaurato, nella quale sono stati mantenuti gli originali particolari architettonici. Esso offre 40 stanze, di cui 3 Superior e 5 Junior Suite completamente ristrutturate a giugno 2010, che abbinano armoniosamente fascino antico a comfort moderni. Alcune stanze sono riservate ai ? non fumatori ? mentre per i pi? romantici consigliamo le nostre stanze mansardate, con travi a vista. L'antico chiostro ? diventato una corte interna nella quale d'estate si pu? gustare una piacevole colazione all'aria aperta. I nostri amici a quattro zampe sono i benvenuti!";46.068788;11.120519;"+39 0461 233600"
"Buonconsiglio ****";"Via Romagnosi, 14";;"Punto d`incontro tra amici, colleghi ed imprenditori, l`Hotel Buonconsiglio offre spazi luminosi e discreti per appuntamenti di lavoro e di svago: sala lettura, sala TV, una sala meeting per c.a. venti persone. Molta attenzione ? stata posta nella progettazione delle 46 camere, tutte altamente insonorizzate con materiali fonoassorbenti, per il vostro relax. Un impianto di riscaldamento silenzioso con controllo dell?umidita`, della temperatura e un costante ricambio dell`aria viziata (aria condizionata). Dotazione elettrica ed elettronica interna ed esterna di massima sicurezza che garantisce il totale controllo e confort dei servizi Tutte le stanze sono dotate di cassaforte elettronica,TV LCD , serrature ottiche di sicurezza, portoncino d?ingresso con apri porta, radio e filodiffusione, frigobar, telefono in camera e in bagno con selezione passante per poter essere chiamati direttamente dall?esterno, Mediaset Premium gratuita. In tutto l'hotel ? disponibile il sistema Wireless.";46.072929;11.122554;"+39 0461 272888"
"Grand Hotel Trento ****";"Via Alfieri, 1/3";;"Grand Hotel Trento: il calore della tradizione e dell?ospitalit? trentine, lo stile e l?eleganza di un?atmosfera fin-de-si?cle, e l?efficienza della tecnologia in uno dei centri storici pi? spettacolari d?Italia. Il nostro concetto di ospitalit? si declina, sotto la direzione del Grand Hotel, in quattro realt? indipendenti e coordinate al tempo stesso: il Ristorante Clesio, il Caff? Metr?, il Centro Congressi e il Wellness Centre Beauty&Mind ? per rispondere ad ogni vostra esigenza in modo semplice ed elegante.";46.071057;11.121219;"+39 0461 271000"
"Best Western ****";"Via Innsbruck, 11";;"Il?BEST WESTERN?Quid Hotel Trento ? un hotel 4 stelle?che offre?un?atmosfera rilassante, elegante e dotata di attrezzature hi-tech a?basso impatto ambientale.?I servizi sono personalizzati cos? da assicurare a ciascuno dei nostri ospiti una soddisfazione totale, ed includonoconnessione Wi-fi gratuita?sia nell?area dell?hotel che in quella del ristorante Mover.?A disposizione per chi si sposta per affari la nostra?Sala Meeting?modulare con una capienza di 60 posti.";46.111387;11.092597;"+39 0461 966811"
"Relais Vecchio Maso ****";"Str. Monastero S. Anna, 2";;"Grande amore e rispetto per l'arte e la tradizione trentina hanno spinto la famiglia Nicolodi a realizzare un vero gioiello di ospitalit?, sulle pendici del Monte Bondone, nelle immediate vicinanze della citt? di Trento. Esclusivo e ricco di personalit?, Relais Vecchio Maso ? stato costruito seguendo fedelmente l'impronta delle antiche dimore contadine del luogo. Per quanto possibile si ? infatti cercato di utilizzare materiale di recupero o materiali caratteristici della nostra regione. Per costruire il tetto del Relais si sono sfruttati i vecchi coppi del paese di Sopramonte, le lastre di ardesia di Pergine Valsugana e i camini in ferro delle vecchie case del centro storico di Trento. Stessa provenienza hanno le travi utilizzate, prese da strutture portanti di case del capoluogo trentino risalenti ai primi ?500. Finestre e balconi sono stati realizzati in larice, un legno che per eccellenza rappresenta la nostra regione e disegnati per assicurare ad ogni sala un'ampia luminosit?.";46.068303;11.056526;"+39 0461 1922000"
"Relais Villa Madruzzo ****";"Via Ponte Alto, 20";;"Sulla collina di Trento, Villa Madruzzo offre ai propri clienti tutti i comfort di un moderno albergo, nella quiete e nella tranquillit? di una residenza immersa nel verde. L'Hotel Villa Madruzzo dispone di 80 camere con vista sul parco dell'hotel e sulla citt? di Trento. Tutte le camere sono dotate dei principali comfort quali tv satellite, telefono, cassaforte, phon, hanno ampi e comodi letti e WI-FI gratuito. Dispone inoltre di ampio parcheggio privato e sala congressi. L'Hotel Villa Madruzzo ? anche ristorante, rinomato a Trento per la qualit? della cucina, sia tradizionale sia tipica. I vini serviti sono tra i migliori a livello locale e nazionale.";46.074083;11.146586;"+39 0461 986220"
"Sartori?s ****";"Via Nazionale, 33";;"Il nuovissimo Sartori's Hotel situato a pochi minuti da Trento. L?Hotel ? un quattro stelle in grado di proporsi con stile, eleganza e raffinatezza; in un atmosfera intima e discreta. L?albergo dispone di 40 camere, di cui 4 suites, tutte dotate del massimo confort: ascensori, telefono diretto, TV Sat, internet gratuito. Il Sartori?s Hotel dispone di 3 sale Meeting.";46.142265;11.103669;"+39 0461 246563"
"Albermonaco ***?";"Via Torre d?Augusto, 25";;"Albermonaco, Business Hotel Bed & Breakfast a Trento. Ideale per i tuoi viaggi di lavoro, vacanze o weekend a Trento. Albermonaco ? l'hotel a Trento a due passi dal centro storico, vi offre ilparcheggio gratuito?interrato e privato direttamente sotto l'hotel, facilitando gli spostamenti in citt? a piedi o in bicicletta. Nel nostro B&B trovi le migliori offerte per un soggiorno in Hotel a Trento, in grado di soddisfare qualsiasi vostra esigenza per i tuoi appuntamenti di lavoro e per la visita della citt?. Su misura per gruppi. Con centro wellness. Albermonaco, Business Hotel Bed & Breakfast a Trento. Ideale per i tuoi viaggi di lavoro, vacanze o weekend a Trento. Albermonaco ? l'hotel a Trento a due passi dal centro storico, vi offre ilparcheggio gratuito?interrato e privato direttamente sotto l'hotel, facilitando gli spostamenti in citt? a piedi o in bicicletta. Nel nostro B&B trovi le migliori offerte per un soggiorno in Hotel a Trento, in grado di soddisfare qualsiasi vostra esigenza per i tuoi appuntamenti di lavoro e per la visita della citt?. Su misura per gruppi. Con centro wellness. Albermonaco, Business Hotel Bed & Breakfast a Trento. Ideale per i tuoi viaggi di lavoro, vacanze o weekend a Trento. Albermonaco ? l'hotel a Trento a due passi dal centro storico, vi offre ilparcheggio gratuito?interrato e privato direttamente sotto l'hotel, facilitando gli spostamenti in citt? a piedi o in bicicletta. Nel nostro B&B trovi le migliori offerte per un soggiorno in Hotel a Trento, in grado di soddisfare qualsiasi vostra esigenza per i tuoi appuntamenti di lavoro e per la visita della citt?. Su misura per gruppi. Con centro wellness.";46.0731;11.126414;"+39 0461 983060"
"Al Marinaio ***";"Via dei Marinai d?Italia, 28";;"La nuovissima struttura moderna dispone di 11 stanze doppie, 1 suite e 1 junior-suite arredate in stile minimalista. Stanze ampie (18-23m?) + bagno(5 m?) + ampio balcone (16 m?) con vista panoramica della Valle dell'Adige. Posizione: vicino al Palatrento. Vicina fermata del trasporto pubblico per il centro della citt?. Posto macchina coperto garage incluso nel prezzo.";46.035116;11.126162;"+39 0461 933053"
"Everest ***";"Corso degli Alpini, 14";;"L'Hotel Everest ? situato in posizione centrale e tranquilla e come tale si propone come luogo ideale per un piacevole soggiorno nella bellissima citt? di Trento, eccellente punto di partenza per visite turistiche e per escursioni in Trentino. L'Hotel Everest ? facilmente raggiungibile e  comodo per qualsiasi tipo di spostamento. L'Hotel Everest dispone inoltre di  parcheggio riservato e di garage, nonch? di rimessa per biciclette. Il nostro Hotel a tre stelle, gestito dalla Famiglia Sembenotti, dispone di 113 camere completamente rinnovate in stile classico e con i migliori comfort, come i servizi con vasca o doccia, asciugacapelli, telefono diretto, riscaldamento, aria condizionata, cassaforte, TV a led da 26' o 32' con Premium Cinema e Premium Calcio, wireless. Sono inoltre disponibili nel nostro albergo il servizio di lavanderia, bar, sala TV, taverna, area wireless,  sala d'attesa, internet point, garage e noleggio biciclette in Trentino. Particolare attenzione ? stata prestata inoltre al fine di offrire ospitalit? alle persone disabili.";46.078611;11.11841;"+39 0461 825300"
"Karinhall ***";"Loc. I Grezzi, 17";;"L'?Albergo Karinhall?sorge a pochi chilometri da Trento in magnifica posizione panoramica facilmente raggiungibile. E' provvisto di 11 camere dotate di ogni confort e di 3 appartamenti ugualmente confortevoli, garage custodito e ampio parcheggio. La caratteristica principale del complesso ? la posizione veramente unica per un'incantevole veduta panoramica su tutta la valle, lo splendido giardino che la circonda .. un posto ideale per momenti di relax, difficili da dimenticare.L'?Albergo Karinhall?sorge a pochi chilometri da Trento in magnifica posizione panoramica facilmente raggiungibile. E' provvisto di 11 camere dotate di ogni confort e di 3 appartamenti ugualmente confortevoli, garage custodito e ampio parcheggio. La caratteristica principale del complesso ? la posizione veramente unica per un'incantevole veduta panoramica su tutta la valle, lo splendido giardino che la circonda .. un posto ideale per momenti di relax, difficili da dimenticare.L'?Albergo Karinhall?sorge a pochi chilometri da Trento in magnifica posizione panoramica facilmente raggiungibile. E' provvisto di 11 camere dotate di ogni confort e di 3 appartamenti ugualmente confortevoli, garage custodito e ampio parcheggio. La caratteristica principale del complesso ? la posizione veramente unica per un'incantevole veduta panoramica su tutta la valle, lo splendido giardino che la circonda .. un posto ideale per momenti di relax, difficili da dimenticare.";45.995601;11.126269;"+39 0461 945339"
"Sporting Trento ***";"Via R. da Sanseverino, 125";;"L?Hotel Sporting Trento, sorge in una zona strategica a sud di Trento. . 41 camere, tutte dotate di cabina doccia, asciugacapelli, telefono diretto, TV LCD 20', minibar e connessione Internet wireless gratuita. Di queste 4 sono per persone diversamente abili, attrezzate con dotazioni domotiche e con il meglio della tecnologia, primi in Italia, dal punto di vista meccanico e psicologico. Luogo ideale per organizzare i vostri incontri di lavoro, meeting e congressi. A disposizione sale polivalenti, da 20 a 200 posti, attrezzate di video proiezione con lettore DVD e VHS, impianto audio, radiomicrofoni, impianto stereo, rete dati, internet Wi-Fi, flip chart. L? OLYMPIC Restaurant e Pizzeria ? un ambiente raffinato ed accogliente che vi conquister? per la cucina nazionale ed internazionale e per l?abbinamento dei sapori. Un mix che nasce dalla scelta delle materie prima e dalla stagionalit? dei nostri piatti che accompagnato ad una fornita carta dei vini completa i nostri servizi";46.051187;11.111769;"+39 0461 391215"
"San Giorgio della Scala ***";"Via Brescia, 133";;"Il Garn? San Giorgio della Scala si trova sulle colline di Trento, immerso nel verde si apre su ?un panorama che spazia sull?intera valle dell?Adige. A conduzione familiare, offre un piacevole soggiorno ai propri ospiti che potranno apprezzare la piccola struttura curata nei suoi vari aspetti. Il Garn? ha un ampio parcheggio privato, ? dotato di 14 stanze, in gran parte con balcone e tutte dotate di servizi con doccia, televisione con canali satellitari, connessione wi fi gratuita, telefono. I piani sono raggiungibili con ascensore e nel soggiorno mettiamo a disposizione pc per connessione alla rete.?La colazione a buffet propone dolci, marmellate e prodotti del territorio. Accogliamo anche animali di piccola taglia.Il Garn? San Giorgio della Scala si trova sulle colline di Trento, immerso nel verde si apre su ?un panorama che spazia sull?intera valle dell?Adige. A conduzione familiare, offre un piacevole soggiorno ai propri ospiti che potranno apprezzare la piccola struttura curata nei suoi vari aspetti. Il Garn? ha un ampio parcheggio privato, ? dotato di 14 stanze, in gran parte con balcone e tutte dotate di servizi con doccia, televisione con canali satellitari, connessione wi fi gratuita, telefono. I piani sono raggiungibili con ascensore e nel soggiorno mettiamo a disposizione pc per connessione alla rete.?La colazione a buffet propone dolci, marmellate e prodotti del territorio. Accogliamo anche animali di piccola taglia.Il Garn? San Giorgio della Scala si trova sulle colline di Trento, immerso nel verde si apre su ?un panorama che spazia sull?intera valle dell?Adige. A conduzione familiare, offre un piacevole soggiorno ai propri ospiti che potranno apprezzare la piccola struttura curata nei suoi vari aspetti. Il Garn? ha un ampio parcheggio privato, ? dotato di 14 stanze, in gran parte con balcone e tutte dotate di servizi con doccia, televisione con canali satellitari, connessione wi fi gratuita, telefono. I piani sono raggiungibili con ascensore e nel soggiorno mettiamo a disposizione pc per connessione alla rete.?La colazione a buffet propone dolci, marmellate e prodotti del territorio. Accogliamo anche animali di piccola taglia.";46.07352;11.103739;"+39 0461 238848"
"Terme San Leonardo ***";"Via per Vigolo Baselga, 8";;"L'Hotel S. Leonardo?si trova a?Vigolo Baselga Trento in una posizione strategica?, a solo sei Km da dal cento citt? Trento sulla strada che collega Trento a Riva del Garda. Alle pendici del?Monte Bondone, una cima che raggiunge la quota di 2098 m s.l.m., ed ? una rinomata stazione sciistica invernale. In estate, la?conca delle Viote?? ricca di attrattive per chi desidera il contatto con la natura: per prendere un bagno di sole, per avventurarsi sui sentieri montani in moutain bike, per cercare funghi... In inverno, l'intera piana delle Viote ? percorsa da 5 piste da fondo di varia lunghezza (da 3 a 15 km) e difficolt?. La vicina localit? Vason ? invece una nota stazione sciistica numerosi impianti di risalita.L'Hotel S. Leonardo?si trova a?Vigolo Baselga Trento in una posizione strategica?, a solo sei Km da dal cento citt? Trento sulla strada che collega Trento a Riva del Garda. Alle pendici del?Monte Bondone, una cima che raggiunge la quota di 2098 m s.l.m., ed ? una rinomata stazione sciistica invernale. In estate, la?conca delle Viote?? ricca di attrattive per chi desidera il contatto con la natura: per prendere un bagno di sole, per avventurarsi sui sentieri montani in moutain bike, per cercare funghi... In inverno, l'intera piana delle Viote ? percorsa da 5 piste da fondo di varia lunghezza (da 3 a 15 km) e difficolt?. La vicina localit? Vason ? invece una nota stazione sciistica numerosi impianti di risalita.";46.080888;11.043555;"+39 0461 866143"
"Vela ***";"Via SS. Cosma e Damiano, 21";;"Situato?a circa a 2 km dal centro di Trento, l?Hotel Vela, ? una struttura moderna e con tutti i comfort, Internet wi-fi gratuito, parcheggi privati, garage e parcheggio per pullman custodito.?Il nostro hotel ? dotato di 30 camere ottimamente arredate, con servizi privati, TV satellite, cassaforte, frigo bar, telefono diretto, radio, phon e condizionamento autonomo. Si dispone inoltre di un?ottima pizzeria e ristorante che offre una grande variet? di piatti della cucina Italiana e di quella Trentina.Situato?a circa a 2 km dal centro di Trento, l?Hotel Vela, ? una struttura moderna e con tutti i comfort, Internet wi-fi gratuito, parcheggi privati, garage e parcheggio per pullman custodito.?Il nostro hotel ? dotato di 30 camere ottimamente arredate, con servizi privati, TV satellite, cassaforte, frigo bar, telefono diretto, radio, phon e condizionamento autonomo. Si dispone inoltre di un?ottima pizzeria e ristorante che offre una grande variet? di piatti della cucina Italiana e di quella Trentina.";46.081945;11.102854;"+39 0461 827200"
"Villa Fontana ***";"Via Felice e Gregorio Fontana, 11";;"Le 24 camere dell'albergo Villa Fontana sono state arredate all'insegna del comfort, con servizi privati con doccia e phon, televisore (digitale terrestre) con Mediaset Premium (Calcio, Cinema e serie TV) gratuiti, riscaldamento e aria condizionata, cassaforte, telefono e accesso wireless gratuito. Il tutto in uno spazio elegante ed accogliente. I cani sono permessi. Abbiamo un parcheggio privato sotterraneo, sala congressi con una capienza fino a 25 persone. Biciclette sono a disposizione della clientela. L'hotel, come le camere, ? piccolo ma confortevole, curato nei dettagli.";46.077346;11.116822;"+39 0461 829800"
"Venezia **";"Piazza Duomo, 45";;"E' situato nella suggestiva Piazza del Duomo nel centro storico del capoluogo Trentino, a 500 metri dalla stazione ferroviaria e delle autolinee, a pochi chilometri dal casello autostradale dell?A22 ed in prossimit? della Pista ciclabile Valle dell?Adige. L?hotel, a gestione tipicamente famigliare, ? aperto tutto l?anno. Dispone di 43 stanze, per una capienza complessiva di 85 posti letto, alcune delle quali godono di un?incantevole affaccio sulla Cattedrale del Duomo e la Fontana del Nettuno.";46.067268;11.121232;"+39 0461 234559"
"Ostello della Giovent? 'Giovane Europa'";"Via Torre Vanga, 11";;"L?Ostello della Giovent? ?Giovane Europa? ? collocato in un edificio completamente ristrutturato, vicinissimo alla stazione ferroviaria ed a quella degli autobus. L?ostello ? certificato Ecolabel. Dispone di 32 stanze da 1 a 6 posti letto, tutte dotate di bagno e doccia e telefono.L?Ostello della Giovent? ?Giovane Europa? ? collocato in un edificio completamente ristrutturato, vicinissimo alla stazione ferroviaria ed a quella degli autobus. L?ostello ? certificato Ecolabel. Dispone di 32 stanze da 1 a 6 posti letto, tutte dotate di bagno e doccia e telefono.";46.06997;11.119194;"+39 0461 263484"
"alla Posta";"Via alla Posta, 2";;"Il Residence ? situato sulla collina di Trento ai piedi del monte Bondone. Il complesso,?totalmente ristrutturato nell'anno 2012, vi accoglier? in un ambiente moderno e confortevole di sole 10 unit? ben arredate. Affittiamo appartamenti per minimo 2 notti.";46.089483;11.06394;"+39 0461 1740475 +39 348 0013571"
"Capitol";"Via Soprassasso, 32";;"Tutti gli appartamenti sono dotate di servizio doccia, telefono, collegamento internet ADSL gratuito in tutte le stanze, TV color, radio ed aria condizionata. Il Residednce Capitol, dotato di un ampio parcheggio privato, gratuito, recintato, con ampia disponibilit? ideale per pullman. Sono ammesi cani di piccola taglia.";46.10594;11.108679;"+39 0461 993232"
"Ester";"Via Sal?, 10";;"La nostra piccola struttura ? un?oasi immersa nella campagna,  sulla panoramica e tranquilla collina est di Trento. La privilegiata collocazione dei nostri alloggi consente spostamenti rapidi e veloci verso i luoghi pi? caratteristici del Trentino, terra piena di fascino, ove ? possibile ammirare le pi? belle architetture naturali del mondo. Ester, inoltre, ? la soluzione ideale per brevi soggiorni e viaggi di lavoro, perch? dista pochi chilometri dai principali centri di interesse culturali e d?affari del capoluogo, Trento. Disponiamo di 8 camere e 15 letti.";46.062035;11.151316;"+39 0461 810380"
"Locanda del Bel Sorriso";"Strada delle Novaline, 42";;"La nostra struttura fa parte di Villa Bertagnolli, una villa Settecentesca che si trova sulla collina sopra Mattarello, a 5 km da Trento. Le nostre stanze sono arredate con mobili antichi e vecchie suppellettili del Trentino. Servizi con doccia, televisione e frigobar sono le uniche modernit? concesse a tutte le stanze. Prezzi: 70 - 100 EUR per due persone compresa la prima colazione secondo la tipologia della stanza. Sono disponibili, oltre alle stanze normali, stanze con uso cucina e stanze con soggiorno e uso cucina.";46.011903;11.139181;"+39 0461 942194 +39 0461 942212"
"Locanda La Canonica";"Piazza Mons. Nicolini, 4";;"Le nuove stanze della Locanda La Canonica sono accoglienti, curate nei dettagli e spaziose. Il gusto dell'arredo non ha tradito quello stile semplice, ma ricco di carattere della Locanda stessa. Dispongono di: bagno privato, televisione, aria condizionata, possibilit? di accesso a internet. Possibilit? di parcheggiare all?esterno o all?interno.";46.04908;11.145865;"+39 0461 392218"
"Ponte Alto*****";"Via Alla Cascata, 27";;"L'Agriturismo Ponte Alto ? una struttura che sorge sulla collina est di Trento immerso nel verde di un vigneto, ha un ampio giardino ed ogni camera ? elegantemente arredata con servizi privati, TV e collegamento Internet. Ogni stanza ha un ingresso indipendente.";46.067882;11.152011;"+39 0461 810753"
"Pr? Sec? ****";"Via di Malebis, 1/a";;"PERCHE' L'AGRITURISMO? Il desiderio di conoscere ed apprezzare le diverse culture ha maturato in noi, a partire dall? azienda agricola a gestione familiare, la volont? di far conoscere il 'nostro' Trentino, le sue bellezze, il patrimonio di conoscenze e la sua gente. Abbiamo aperto la nostra casa agli ospiti che possono assaporare il gusto del Trentino anche attraverso i nostri prodotti quali il vino, la frutta, le marmellate, i succhi, i dolci tutti fatti in casa.";46.010897;11.10958;"+39 0461 349204"
"Alla Veduta ***";"Via Alla Veduta, 148";;"Le camere sono ampie e spaziose con bagno privato, balconi o accesso diretto all'esterno. Sono inoltre dotate di aria condizionata e riscaldamento autonomi. Ampio frigo, TV satellitare, cassaforte, asciugacapelli. La struttura ? dotata di due stanze per portatori di handicap.";46.07596;11.147319;"+39 0461 871577"
"La Decima ***";"Via Della Decima, 30";;"Oltre agli appartamenti ben arredati, il nostro agriturismo ? dotato di giardino, solarium, barbecue, stoviglie, TV, forno a microonde, lavastoviglie, frigo, lavatrice. Posto auto coperto.";46.004249;11.130939;"+39 0461 944121 Cell.338 8363205 Cell.333 6829773"
"Locanda de l?Arguta ***";"Via delle Ischie, 37";;"La costruzione ? realizzata secondo le recenti tecniche di bioedilizia. Dispone di sette stanze, ognuna con bagno ed ingresso autonomo, con capacit? da due a cinque posti letto. Tutte le stanze si affacciano sull'ampio giardino interno, ideale per rilassarsi sia in estate che in inverno con i bagni di sole, mentre per chi preferisce divertirsi ci sono aree giochi per grandi (campo da volley con fondo in sabbia) e piccini (altalene e dondolo sul prato).";46.010665;11.112742;"+39 333 7614660"
"Val d?Adige ***";"Loc. Roncafort, 78";;"L'Agritur Val d'Adige ? dotato di otto stanze doppie (alcune triple ed una quadrupla) con poggiolo, o accesso diretto al giardino. Tutte le stanze sono dotate di frigo, bagno finestrato, aria condizionata, tv color e connessione internet ADSL. L'Agritur Val d'Adige dispone inoltre di ampio parcheggio privatoe garage per il ricovero di cicli e moto a disposizione degli ospiti amanti delle 2 ruote.";46.100695;11.096802;"+39 0461 955008"
"Oasi *";"Via Bolzano, 14";;"12 camere e 15 posti";46.099792;11.112011;"+39 0461 992223 cell. 338 4040877"
"Palloncino Rosso *";"Strada di Vigolo Baselga, 21";;"Garn?";;;"+39 0461 866193"
"Vela";"Via SS. Cosma e Damiano, 21";;"l?Hotel Vela, ? una struttura moderna e con tutti i comfort e con parcheggi privati. Il nostro hotel ? dotato di 30 camere ottimamente arredate, con servizi privati, TV satellite, cassaforte, frigo bar, telefono diretto, radio, phon e condizionamento autonomo. ?Internet wi-fi gratuito.";46.081759;11.102821;"+39 0461 827200"
"Casteller ***";"Via al Casteller, 20";;"L?agritur ? situato tra i pregiati vigneti a sud di Trento e si trova a 5 km dal centro. Possibilit? di fare passeggiate nella natura. Sono disponibili: due ampie stanze matrimoniali con bagno; due stanze tipo appartamento con bagno; tutti hanno TV-satellitare a richiesta, internet point, e riscaldamento autonomo; a scelta balconi o terrazzo. Parcheggio sicuro per macchine, e coperto per bici o moto. Inoltre: barbecue con tavolata, sedie a sdraio.";46.027185;11.136261;"+39 393 9985655"
"Maso Bergamini ***";"Loc. Bergamini, 3";;"Accogliamo previa prenotazione gruppi di persone offrendo, nell?ampia sala del Maso seicentesco, la possibilit? di effettuare degustazioni guidate, pranzi cene e cerimonie accompagnate da sfiziosi assaggi di prodotti locali sapientemente elaborati ed abbinati ad ogni singolo vino.Offriamo inoltre la disponibilit? di alloggio in confortevoli mini-appartamenti. Sono disponibili nove posti letto.";46.094022;11.131381;"+39 0461 983079"
"Maso Villa Warth ***";"Via Castel di Gardolo, 5";;"L'agriturismo ha sede in un piccolo borgo ed ? stato recentemente ristrutturato all'interno dell'azienda agricola Francesco Moser che comprende anche la cantina vinicola. Situato a 5 minuti dalla citt? di Trento, sopra una terrazza naturale che gode di uno straordinario belvedere sulla Val d'Adige.";46.113237;11.11326;"+39 0461 990786"
"Le Giare **";"Via Fersina, 30";;"L?Agriturismo Le Giare dispone di tre camere: una matrimoniale e due quadruple. Tutte le camere sono dotate di bagno privato con doccia; a richiesta tv satellitare (previa cauzione di 100 euro al Vostro arrivo). Una piccola sala lettura con tv satellitare e giochi di societ?, adiacente alle camere, ? a disposizione di tutti i nostri ospiti. Piccolo alloggio indipendente a 50mt dall'agriturismo";46.045056;11.121478;"+39 0461 917107"
"Maso Wallenburg **";"Via Bassano, 3";;"Il Maso Wallenburg, felice esempio di architettura rurale trentina del settecento, mette a disposizione accoglienti camere arredate in stile, tutte con bagno privato, tv, connessione a internet, aria condizionata ed insonorizzate. E? circondato da un ampio e bellissimo vigneto in posizione panoramica alle pendici del monte Calisio ed ? in grado di fornire un soggiorno piacevole e rilassante a due passi dalla citta? di Trento. Ideale per escursioni in montagna (Dolomiti, Lagorai, gruppo del Brenta, ecc.), o agli innumerevoli laghi ed alle pi? rinomate localit? sciistiche del Trentino.";46.086477;11.125288;"+39 0461 821513"
"Al Vigneto **";"Localit? Maderno, 16";;"L'agritur, posizionato al centro di un appezzamento coltivato a vigneto, offre ai suoi ospiti tre camere doppie e tre suite per un magnifico soggiorno immerso nella natura ma a due passi dalla citt?. L'agritur ? protetto da una piccola collina che la separa di fatto dalla frenesia della citt?, si vede solo il vigneto e le montagne vicine e lontane.";46.090763;11.137347;"+39 0461 822322 cell. 347 7795404"
"Ada";"Via Mazzini, 4";;"A pochi metri dalla piazza del Duomo, lungo una delle vie pi? 'vive' del centro storico, offriamo un'ospitalit? semplice e informale. Camere (singole, doppie o triple) confortevoli e spaziose, ben arredate e dotate di tutti gli accessori. Cucina con caffe, th?, tisane a vostra disposizione.";46.066263;11.122532;"+39 335 6173399 cell.335 6058815"
"La Malvasia";"Via alla Malvasia, 77";;"Stefy e Giulio vi aspettano nel nuovo e accogliente Bed and Breakfast La Malvasia. E' un attico situato al 5? e ultimo piano, con ascensore e con vista sulle montagne trentine. Il Bed & Breakfast La Malvasia offre una camera doppia luminosa e confortevole, con possibilit? di un letto aggiunto, bagno privato con doccia. La camera ? molto luminosa e dotata di terrazza privata, angolo biblioteca e televisione.";46.075766;11.125028;"+39 0461 231803 cell.331 1173197"
"Relais Villa Sizzo";"Via Centrale, 18";;"Le stanze di Villa Sizzo sono concepite come?suites finemente arredate, dotate di ogni comfort, adatte ad una clientela esigente e raffinata. Ogni camera ? dotata di?TV,?cassaforte,?frigobar?e un?ampia camera da bagno curata in ogni dettaglio. Relais Villa Sizzo propone tre stanze, studiate come spazi ideali per trovare un tempo di relax in un?atmosfera unica.";46.038218;11.105627;"+39 0461 1750000"
"Al Parco di Melta";"Via G.B. Fattori, 16";;"Bed and Breakfast";46.100986;11.118995;"+39 0461 992540 cell. 3398598261"
"Alle Coste";"Via Alle Coste, 24";;"Il nome deriva dal vicino parco Le Coste, il parco della citt? di Trento, verde e piacevole per grandi e piccini. Il B&B ? in una posizione tranquilla e soleggiata, immerso nel verde. Fra il silenzio del bosco e il gorgheggiare del Rio Saluga puoi gustare la colazione su un ampio terrazzo con una magnifica vista su un vigneto di Teroldego.";46.078373;11.131349;"+39 0461 983783 cell. 346 2309185"
"Ca? Bianca";"Via Gabbiolo, 22";;"Al B&B Ca?Bianca diamo particolare importanza alla tua colazione. Vogliamo farti assaggiare i nostri prodotti tipici del Trentino e fatti in casa. Il nostro buffet soddisfa la tua voglia di dolce e salato. Gli ospiti hanno a disposizione una saletta per la colazione, dove trascorrere anche la serata.?Il B&B Ca? Bianca si affaccia su un ampio e soleggiato?giardino di 2000mq. Il giardino ti offre angoli di relax, attrezzato con sdraio, panche, sedie e tavoli.";46.057121;11.153097;"+39 348 8208977"
"Casa Pompermaier";"Via A. Schmid, 5";;"Il B&b Casa Pompermaier dispone di 3 ampie stanze, tutte dotate di bagno privato. La connessione internet ? gratuitae si pu? consultare una piccola biblioteca. Le bici e le moto possono essere parcheggiate al coperto. Vicino a casa ? disponibile un parcheggio auto gratuito all?aperto. Animali domestici di media e piccola taglia sono i benvenuti.";46.082799;11.116216;"+39 0461 822190 cell. 346 6695886"
"Doss Trento";"Via SS. Cosma e Damiano, 94";;"Per gli ospiti viene messo a disposizione un parcheggio privato sotto casa. ? disponibile una piccola biblioteca. La struttura ? dotata di due camere da letto di dimensioni medie, tranquille e silenziose, con bagno in comune ma ad uso esclusivo degli ospiti. Il bagno ? completo di asciugacapelli, shampoo e sapone, asciugamani.";46.078295;11.103798;"+39 0461 231270 cell. 3392039750"
"Eden";"Via Roma, 27";;"Il ricco buffet che vi offriamo, include prodotti fatti in casa e possibilit? di scelta fra colazione dolce o salata. Per gli ospiti sono disponibili gratuitamente: angolo info con piantine e depliant sulle localit? e gli eventi in Trentino Wireless gratuito e pc portatile riservato agli ospiti Lavasciuga e necessario per la stiratura Si parla inglese,spagnolo. Il palazzo ? dotato di attrezzature per diversamente abili";46.069591;11.119432;"+39 339 3650981"
"Il Grappolo";"Piazza Segantini, 7";;"Il B&B ? composto da tre stanze, tutte con accesso indipendente, ed ubicate al piano terra. Una singola con bagno privato, una matrimoniale con bagno privato e un'altra doppia con bagno riservato. Arredate con stile e praticit? offrono al viaggiatore tutto l'occorrente per una notte confortevole e al turista una camera comoda dotata di TV. Il B&B dispone di una sala ampia per la colazione e all'esterno di un grazioso giardino con pergolato dove, durante la bella stagione, viene servita la prima colazione, a base di prodotti trentini e naturalmente con frutta di nostra produzione.";45.973434;11.090397;"+39 0461 842410 cell. 339 4663799"
"Le Trecime";"Via della Pozza, 50";;"Il B&B Le Trecime si trova nella frazione di Sopramonte a soli 7 km dalla citt? di Trento. Situato in zona molto tranquilla e panoramica offre riposo e relax dopo una giornata passata a visitare la citt? ricca di monumenti e musei piuttosto che sul Monte Bondone e nei bellissimi dintorni, a passeggiare o praticando svariati sport. ? situato in zona centrale rispetto a tutte le localit? del Trentino. A disposizione degli ospiti ci sono tre camere con bagno privato e una grande sala per la colazione, che in estate pu? essere servita sull'ampio terrazzo panoramico. inoltre dispone di un comodo parcheggio. Tipologia: separato Servizi aggiuntivi: ampio parcheggio privato, deposito attrezzature sportive e moto, terrazza solarium, connessione internet wifii gratuita. si accettano animali di piccola taglia.";46.076705;11.062649;"+39 339 6020774"
"Le Ziette";"Via alla Cascata, 4/1";;"Il B&B Le ziette si trova nel centro di Povo sulla collina est di Trento, situato in una vecchia casa padronale al centro del paese. Servito da supermercato, farmacia, ufficio postale, edicola, mezzi pubblici e a pochi passi dal polo universitario. Le camere, molto accoglienti, sono dotate da tutti i comfort: bagno privato, internet, tv, asciugacapelli e angolo tisane.";46.069881;11.15035;"+39 388 0242424"
"AI Tre Portoni";"Vicolo Madruzzo, 8";;"Le stanze sono spaziose, ampie, arredate con stile, immerse nella tranquillit? e nel silenzio pur essendo nel cuore della citt?. Sono inclusi: regolazione temperatura autonoma in stanza, asciugacapelli e prodotti igiene, TV in stanza, Wi-Fi, pulizia quotidiana stanze.";46.063579;11.122524;"+39 348 7481804"
"Ada2";"Via Pinara, 6";;"Sopra l'abitato di Povo, in mezzo a vigneti di pregio, offriamo un'ospitalit? semplice e riservata. Camere confortevoli e spaziose, ben arredate, con bagno privato e dotate di tutti gli accessori. Comodo parcheggio.";46.067065;11.1636;"+39 335 6058815"
"Anna";"Via Milano, 12";;"Bed and Breakfast";46.060886;11.127754;"+39 0461 911648 cell. 335 6173399"
"Buonconsiglio";"Salita della Spalliera, 4";;"Il B&B Buonconsiglio ? costituito di due stanze: una matrimoniale (con possibilit? di aggiungere un terzo letto) e una con due letti singoli. E' disponibile, su richiesta e gratuitamente, il servizio?Wi-Fi. La cucina pu? essere utilizzata, oltre che per la colazione, anche per gli altri pasti. La casa non ? dotata di parcheggio, tuttavia all'esterno dell'edificio c'? un parcheggio libero e gratuito.Il B&B Buonconsiglio ? costituito di due stanze: una matrimoniale (con possibilit? di aggiungere un terzo letto) e una con due letti singoli. E' disponibile, su richiesta e gratuitamente, il servizio?Wi-Fi. La cucina pu? essere utilizzata, oltre che per la colazione, anche per gli altri pasti. La casa non ? dotata di parcheggio, tuttavia all'esterno dell'edificio c'? un parcheggio libero e gratuito.";46.073427;11.124626;"+39 328 7315514 cell. 347 9197904"
"Casa Brunelli";"Via S. Brigida, 2";;"Dispone di tre camere: due doppie ed una tripla, ognuna con bagno privato e di una stanza per la prima colazione. Inoltre, a disposizione degli ospiti, asciugacapelli, collegamento Wi-Fi, frigorifero in comune, TV. Gli ospiti del Bed & Breakfast possono usufruire del grande giardino e del parcheggio privatoDispone di tre camere: due doppie ed una tripla, ognuna con bagno privato e di una stanza per la prima colazione. Inoltre, a disposizione degli ospiti, asciugacapelli, collegamento Wi-Fi, frigorifero in comune, TV. Gli ospiti del Bed & Breakfast possono usufruire del grande giardino e del parcheggio privato";46.01735;11.10604;"+39 0461 349272 cell. 347 9363996"
"Casa dell?Albicocco";"Via alle Porte, 71";;"Bed and Breakfast";46.019599;11.107435;"+39 328 5473112"
"Casa Elisa";"Viale Rovereto, 17";;"Angolo cucina con caff?, th? e tisane a disposizione della clientela, Wi-Fi libero TV flat screen in ogni stanza, garage privato per biciclette/moto, stanze non fumatori, piccoli animali ammessi (giardino privato). Non accettiamo carte di credito ne bancomat";46.05941;11.127653;"+39 0461 922133"
"Centro";"Via Roma, 27";;"Bed and Breakfast";46.06957;11.119456;"+39 339 3650981"
"La casa di Maria Carlotta";"Via Paludi, 21/6";;"Il?b&b?La casa di Maria Carlotta?? una villetta unifamiliare, circondata da un ampio ortogiardino. Si propone come sosta ideale per chi voglia trascorrere i suoi giorni di turismo o lavoro vicino alla citt? ma lontano dai suoi rumori. Ad amplificare il silenzio della casa, la rinuncia ad accogliere gli ospiti con radio e TV, e l'offerta di una piccola biblioteca in ciascuna stanza.Il?b&b?La casa di Maria Carlotta?? una villetta unifamiliare, circondata da un ampio ortogiardino. Si propone come sosta ideale per chi voglia trascorrere i suoi giorni di turismo o lavoro vicino alla citt? ma lontano dai suoi rumori. Ad amplificare il silenzio della casa, la rinuncia ad accogliere gli ospiti con radio e TV, e l'offerta di una piccola biblioteca in ciascuna stanza.";46.10205;11.108711;"+39 347 3318987"
"La Porta della Malvasia";"Via alla Malvasia, 77";;"Stefy e Giulio vi aspettano nel nuovo e accogliente Bed and Breakfast La Malvasia. E' un attico situato al 5? e ultimo piano, con ascensore e con vista sulle montagne trentine. Il Bed & Breakfast La Malvasia offre una camera doppia luminosa e confortevole, con possibilit? di un letto aggiunto, bagno privato con doccia. La camera ? molto luminosa e dotata di terrazza privata, angolo biblioteca e televisione.";46.075766;11.125028;"+39 0461 233818 cell.331 1173197"
"La Rosa Blu";"Via De Gasperi, 108";;"Il B&B ?La Rosa Blu? ? composto da una stanza matrimoniale con balcone e con possibilit? di aggiungere il terzo letto, una stanza singola, un bagno con vasca doccia, e zona giorno dove si possono trovare depliants, mappe e cartine della citt?. A disposizione degli ospiti collegamento internet WiFi gratuito in tutto l?appartamento e angolo tisane.";46.091812;11.184162;"+39 335 5654230"
"Marina";"Via per Villamontagna, 54";;"Bed and Breakfast";46.070934;11.135937;"+39 0461 209221 cell. 346 3831179"
"Nettuno";"Via Romagnosi, 26";;"Il Bed & Breakfast Nettuno ha a disposizione 3 camere: tutte doppie o matrimoniali e 2 con la possibilit? di aggiungere eventuali altri letti. A disposizione degli ospiti ci sono 2 bagni e su richiesta un terzo privato. Inoltre dispone di rete Wi-Fi gratuita, angolo del the e caff? sempre disponibile gratuitamente e servizio lavanderia su richiesta in casa.";46.072819;11.122795;"+39 345 8267294"
"Palace";"Via Belenzani, 47";;"Bed and Breakfast";46.068016;11.1215;"+39 0461 261524 cell. 347 1917095"
"Prime Viole";"Via di S. Brigida, 2";;"Il?B&B Prime viole??? situato in una grande e antica? casa contadina di recente ristrutturazione ?e pu? ospitare fino a sei persone. Le stanze sono semplici e confortevoli, dotate di bagno e, pur nella nuova veste, mantengono le tradizionali caratteristiche della vecchia casa. Gli ospiti del Bed & Breakfast possono usufruire del grande giardino e del parcheggio privato";46.017383;11.105784;"+39 0461 1636303 cell. 328 4479941"
"Rosagalina";"Via Zara 8/C";;"L'appartamento, composto da una spaziosa camera matrimoniale (con possibilit? di terzo letto) e una accogliente singola, si trova al primo piano di un edificio del 1920. Una connessione internet wireless ? a disposizione dei nostri ospiti.";46.064241;11.131618;"+39 334 7464718"
"Sofia";"Via Vittorio Veneto, 92";;"Bed and Breakfast";46.058385;11.122288;"+39 0461914077 cell. 3298454177"
"Villa Bertagnolli";"Strada delle Novaline, 42";;"Le stanze che offriamo sono nella antica residenza nobiliare. Sono particolarmente belle, molto spaziose e luminose, arredate? con mobili antichi e raffinati. Ognuna dispone di servizi privati e di un soggiorno. Alcune si aprono sul giardino.";46.009913;11.138838;"+39 0461 942194 +39 0461 942212"
"Villa Gemma";"Via delle Laste, 2";;"Una villa nel verde, sulla collina che domina la citt?. Un'atmosfera accogliente e riservata, a poche centinaia di metri dal centro storico. Soltanto due camere, con bagno e un giardino per passeggiare, riposarsi e nella bella stagione, ?fare colazione. Parcheggio interno";46.072806;11.128571;"+39 0461 230302"
"White Rose";"Passo Cimirlo, 81";;"Bed and Breakfast";46.062525;11.125071;"+39 335 6342205"
"Zara";"Via Zara, 8/c";;"B&B ZARA: un appartamento solo per te... nel centro di Trento! Il Bed & Breakfast ZARA ? costituito da un grazioso appartamento completamente ristrutturato che pu? ospitare fino a 4 persone. ? dotato di tutti i comfort e sar? interamente a vostra disposizione per garantirvi la massima privacy e tranquillit?. Affaccia su un silezioso e curato cortile interno, a 600 mt da piazza fiera (sede dei rinomati mercatini natalizi) a pochi minuti a piedi dal centro storico di Trento. Si compone di un'ampia e luminosa camera matrimoniale, con possibilit? di inserire un terzo letto; di una cucina perfettamente attrezzata, di un bagno con doccia e asciugacapelli, e di una zona giorno. A disposizione degli ospiti: TV flat screen, postazione internet con PC dedicato alla navigazione, caff?, th?, tisane rilassanti e succhi di frutta fresca.";46.064241;11.131618;"+39 347 7254043"
"Alex";"Via 4 Novembre, 106";;"Appartamento Vacanze";46.09804;11.112821;"+39 0461 992951 cell. 338 4040877"
"America 2";"Via Torre Verde, 50";;"Appartamenti monolocali a disposizione per soggiorni settimanali con minii cucina accessoriata, servizi igienici con bagno doccia e phon, TV con satellitare, telefono diretto, minibar, Wi-Fi gratuito, aria condizionata e riscaldamento";46.071114;11.124084;"+39 0461 983010"
"Borgo Rossi Via delle Cave";"Via delle Cave, 45";;"Ampia terrazza, soggiorno, cucina, 2 stanze da letto con 4 posti letto e la possibilit? di aggiungerne altri 2, 2 bagni, TV in camera e microonde. Parcheggio pubblico gratuito sotto casa.";46.066693;11.132449;"+39 0461 652327"
"Borgo Rossi Via G. Ossanna";"Via G. Ossanna, 4";;"Terrazzino con vista sulle montagne, doppio posto auto gratuito, parco sotto casa. Cucina completa, forno a microonde con grill, vasca da bagno, TV LCD con digitale terrestre in soggiorno,? TV LCD con digitale terrestre in camera da letto";46.062525;11.125071;"+39 0461 652327"
"Borgo Rossi Via Suffragio";"Via Suffragio, 104";;"Nel cuore della citt? in una casa antica di via del Suffragio, l?unica via porticata del centro storico, antica via d?accesso a Trento.Cucina completa, bagno con doccia, TV LCD con digitale terrestre, letto a baldacchino";46.070585;11.124683;"+39 0461 652327"
"Collina appartamenti";"Lanzerotti, 14";;"Per la maggior parte gli appartamenti sono composti da camera a due letti, con possibilit? di doppio letto o matrimoniale, soggiorno con angolo cottura, bagno con doccia, ripostiglio e di uno spazioso terrazzo panoramico. Dispongono di frigoo, stoviglie e televisione con satellitare. Inoltre, in tutti gli appartamenti vi ? una connessione wi-fi gratuita e su richiesta servizio di biancheria. E' a disposizione un locale lavanderia con lavatrice e asciugatrice. Numerosi parcheggi sono disponibili nel piazzale della struttura, completamente recintato.";46.043697;11.136582;"+39 0461 924868"
"Karinhall";"Loc. I Grezzi, 17";;"4 appartamenti composti da soggiorno, cucina e una o due camere da letto. Adatti a 2 o pi? persone. Tutti gli appartamenti sono dotati di ogni confort: telefono - tv - internet - radio - cassaforte - asciugacapelli - frigo bar. Ampia terrazza e giardino privato. Parcheggio custodito.";45.995601;11.126269;"+39 0461 945339"
"Residenza ?Antonella?";"Via al Pont dei Vodi, 2";;"Appartamento Vacanze";46.122042;11.09206;"+39 348 0409704"
"Residenza ?Al Parco?";"Via Bolzano, 21/B/F";;"Situato a nord della citt?, all'interno di un complesso residenziale, adiacente ad una zona verde con attrattive per bambini.";46.103108;11.110538;"+39 0461 2604387 cell. 348 4140922"
"Residenza ?Galileo?";"Via Galilei, 7";;"a poca distanza dal parco Gocciadoro, area verde attrezzata per lunghe passeggiate e per lo sport all'ariea aperta.";46.067904;11.125848;"+39 0461 2604387 cell. 348 4140922"
"Residenza ?Gocciadoro?";"Via Gocciadoro, 152";;"situato a ridosso del centro storico a poca distanza dal Castello del Buonconsiglio";46.054177;11.135225;"+39 0461 2604387 cell. 348 4140922"
"Residenza ?Piedicastello?";"Via Brescia, 37";;"? ubicato nel tranquillo quartiere di Piedicastello a sinistra dell'Adige";46.070648;11.111976;"+39 0461 2604387 cell. 348 4140922"
"Residenza ?Port?Aquila?";"P.zza Venezia,12";;"ad un centinaio di metri dal centro storico, il residence ? uno splendido palazzo signorile";46.068332;11.127067;"+39 0461 2604387 cell. 348 4140922"
"Residenza ?Torre Vanga?";"Via Prepositura, 17";;"a ridosso del centro storico, incorniciato tra la bellissima chiesa di Santa Maria Maggiore e Torre Vanga";46.069024;11.11869;"+39 0461 2604387 cell. 348 4140922"
"Maranza";"Strada per Maranza, 23";;"Il?rifugio?? il posto ideale per trascorrere qualche ora in compagnia dei suoni e dei colori offerti dalla natura. Le?camere?del rifugio sono molto accoglienti e luminose, arredate in?stile tipico trentino e godono di una bellissima vista sulla vallata. Ogni camera dispone della zona bagno";46.046459;11.171936;"+39 0461 1862998 cell. 3284811438"
;;;;;;
"Ex Sit";"via Canestrini";;;46.068348;11.115422;
"Centro Europa";"via Giovanni Segantini 7";;;46.075241;11.122385;"0461/987330"
"Autosilo";"via F. Petrarca 1/5";;;46.07268;11.124016;"0461/238855"
"Piazza Fiera";"Piazza di Fiera";;;46.065676;11.125497;"0461/231225"
"Duomo";"Piazza Mosna";;;46.066547;11.115186;"0461/231600"
"CTE Trento Fiere";"via Bomporto";;;46.065133;11.116581;
"Sanseverino";"piazzale San Severino";;;46.065855;11.114854;
"Monte Baldo";"via Monte Baldo";;;46.057323;11.113609;
"Area ex Zuffo";"area ex Zuffo (uscita casello A22 trento centro)";;;46.07658;11.111152;
"Palazzo Onda";"via zambra";;;46.09139;11.117187;"0461/231600"
"Ghiaie (via Fersina)";"via Fersina";;;46.046029;11.120556;
;;;;;;
"Centro Sportivo 'G. Manazzin'";"via Fogazzaro, 4";;;46.055983;11.129713;"piscina: +39 (0461) 924248 uff.gestione: +39 (0461) 959812"
"Centro Sportivo Trento Nord";"via 4 Novembre, 23";;;46.104706;11.112894;"piscina: +39 (0461) 959812       uff.gestione: +39 (0461) 959812"
"Madonna Bianca";"via Bettini, 7";;;46.041348;11.134112;"piscina: +39 (0461) 390785 uff.gestione: +39 (0461) 959812"
"Stadio Briamasco";"via R. da Sanseverino, 41";;;46.064179;11.11428;
"Ice Stadium";"via Fersina, 15";;;46.045056;11.214781;"+39 0461 959812"
"PalaTrento";"via Fersina, 11";;"Indoor Stadium";46.044952;11.121665;"+39 0461 959812"
"Athletics";"Corso Alpini";;"Campo scuola Atletica Leggera";46.078808;11.11828;
"Argentario";"via Ponte Alto, 79";;"Centro sportivo";46.073858;11.146996;
"Snow Park Monte Bondone";"Monte Bondone";;;46.043539;11.067781;"+39 0461 948127"
;;;;;;
"Biblioteca Comunale di Trento ? Sede centrale";"Via Roma, 55";;;46.069664;11.121003;"+39 0461 889521"
"Biblioteca Comunale di Trento ? Sede Clarina";"Via Clarina, 2/1";;;46.051567;11.128238;"+39 0461 889879"
"Biblioteca Comunale di Garniga Terme";"Via dei Bagni di Fieno, 18";;;46.001008;11.086031;"+39 0461 843338"
"Biblioteca Comunale di Vezzano";"P.zza San Valentino, 3";;;46.078879;10.0002;"+39 0461 340072"
;;;;;;
"Studio 1";"Strada di Vaneze";;;46.050822;11.072705;
"La Cantinota";"Via S. Marco, 22-24";;;46.069691;11.121088;"+39 0461 238527"
;;;;;;
"Poste Italiane";"Via Scopoli Giovanni Antonio, 51";;;46.075654;11.118237;"+39 0461 823489"
"Poste Italiane";"Via Marighetto Ancilla, 19";;;46.038818;11.131414;"+39 0461 920236"
"Poste Italiane";"Via di Vegiara, 155";;;46.073128;11.059396;"+39 0461 866133"
"Poste Italiane";"Lungadige S. Nicol?, 14";;;46.067767;11.112756;"+39 0461 237937"
"Poste Italiane";"Via Dei Muredei, 8";;;46.055444;11.118314;"+39 0461 921549"
"Poste Italiane";"Via Padre Eusebio Chini, 4";;;46.053261;11.131301;"+39 0461 925538"
"Poste Italiane";"Via Alcide De Gasperi, 31";;;46.049893;11.124869;"+39 0461 910304"
"Poste Italiane";"Viale Verona, 1";;;46.058586;11.127447;"+39 0461 380911"
"Poste Italiane";"Via Antonio Gazzoletti, 43";;;46.071743;11.12277;"+39 0461 274011"
"Poste Italiane";"Piazza Alessandro Vittoria, 20";;;46.067167;11.12356;"+39 0461 275311"
"Poste Italiane";"Via Giovanni Battista Trener, 5";;;46.095809;11.118843;"+39 0461 431911"
"Poste Italiane";"Via Roma, 43/1";;;46.07767;10.998849;"+39 0461 864038"
;;;;;;
"Antica Salumeria Belli";"Piazza Oveno, 1";;"Vendita di carne e prodotti alimentari";46.074019;11.060518;"+39 0461 866130"
"Antica Salumeria Belli";"Piazza A. Vittoria";;"Vendita di carne e prodotti alimentari";46.067167;11.12356;"+39 0461 866130"
"La Bottega degli Antichi Sapori";"Via Belenzani, 56";;"Prodotti alimentari tipici";46.068191;11.121307;"+39 0461 260535"
"Cantina Sociale di Trento Le Meridiane S.C.A.";"Via dei Viticoltori 2-4";;"Vendita di vino e grappa";46.032785;11.130995;"+39 0461920186"
"Cantine Rotari / Nosio S.P.A.";"Via del Teroldego, 1";;"Vendita di vino e grappa";46.202564;11.122026;"+39 0461 616399"
"Cantina Aldeno";"Via Roma, 76";;"Vendita di vino e grappa";45.980768;11.091773;"+39 0461 842511"
"Cantine Ferrari - F.lli Lunelli";"Via Ponte di Ravina, 15";;"Vendita di vino e grappa";46.043122;11.112756;"+39 0461 972311"
"Cavit - Cantina ed Enoteca";"Via del Ponte, 31";;"Vendita di vino e grappa";46.042214;11.113421;"+39 0461 381711"
"Distilleria Segnana - F.lli Lunelli";"Via Ponte Ravina, 13";;"Vendita di vino e grappa";46.043122;11.112756;"+39 0461 972311"
"Maso Bergamini";"Loc. Bergamini, 3";;"Prodotti alimentari tipici";46.094022;11.131381;"+39 0461 983079"
;;;;;;
"Mercato del Contadino";"Piazza Dante";;"Vendita di prodotti alimentari, soprattutto verdure";46.071146;11.120438;
"Mercato del Contadino";"Via Fabio Filzi";;"Vendita di prodotti alimentari, soprattutto verdure";46.059068;11.120149;
"Mercato dei Prodotti Alimentari";"Piazza Vittoria";;"Vendita di prodotti alimentari, anche tipici";46.067167;11.12356;
"Mercato settimanale";"Centro storico";;"Vendita di prodotti di ogni genere";46.066836;11.120642;
"Mercatino dei Gaudenti";"Piazza Garzetti";;"Mercatino delle pulci";46.066061;11.123937;
"Mercatini di Natale";"Piazza di Fiera";;"Prodotti tipici (e non) di tutti i tipi";46.065228;11.12327;
"TRENTO FIERE S.P.A.";"Via Briamasco, 2";;;;;"+39 0461 230264"
;;;;;;
"Azienda per il Turismo Trento, Monte Bondone, Valle dei Laghi";"Via Manci, 2";;"Ufficio di Trento";46.069636;11.121366;"+39 0461 216000"
"Azienda per il Turismo Trento, Monte Bondone, Valle dei Laghi";"Strada di Vaneze, 13";;"Ufficio Monte Bondone";46.050889;11.072877;"+39 0461 947128"
"Azienda per il Turismo Trento, Monte Bondone, Valle dei Laghi";"Via Bagni di Fieno, 18";;"Ufficio Monte Bondone";46.000874;11.086009;"+39 0461 842586"
"Azienda per il Turismo Trento, Monte Bondone, Valle dei Laghi";"Via Roma, 61/1";;"Ufficio Valle dei Laghi";46.075419;10.996386;"+39 0461 864400"
;;;;;;
"Bren Center";"Via Giovanni Battista Trener, 16";;"Centro commerciale";46.093739;11.114816;"+39 0461 821256"
"Top Center";"Via del Brennero, 320";;"Centro commerciale";46.090138;11.116189;"+39 0461 828066"
"Big Center";"Via Degasperi, 16";;"Centro commerciale";46.04488;11.129751;"+39 0461 362600"
;;;;;;
"CASSA RURALE DELLA VALLE DEI LAGHI ? Filiale di Terlago";"Via Roma, 6";;;46.097345;11.04517;"+39 0461 860270"
"CASSA RURALE DELLA VALLE DEI LAGHI ? Filiale di Vezzano";"Va Roma, 61/2";;;46.07595;10.996899;"+39 0461 864044"
"CASSA RURALE DI ALDENO E CADINE BCC S.C.";"Via Roma, 1";;;45.977536;11.091264;"+39 0461 842517"
"CASSA RURALE DI TRENTO";"Via Belenzani, 6";;;46.067961;11.121514;"+39 0461 206111"
"CASSA RURALE DI TRENTO ? Filiale 07 di Trento citt?";"Via Belenzani, 4";;;46.067961;11.121514;"+39 0461 206217"
"CASSA RURALE DI TRENTO ? Filiale 01 di Trento citt?";"Largo Medaglie d'oro, 8/1";;;46.058066;11.132803;"+39 0461 206511"
"CASSA RURALE DI TRENTO ? Filiale 02 di Trento citt?";"Via Brennero, 94";;;46.078527;11.122867;"+39 0461 206561"
"CASSA RURALE DI TRENTO ? Filiale 03 di Trento citt?";"Via Don Sordo, 3";;;46.056672;11.120206;"+39 0461 206532"
"CASSA RURALE DI TRENTO ? Filiale 06 di Trento citt?";"Via Gandhi, 10";;;46.053007;11.124232;"+39 0461 206522"
"CASSA RURALE DI TRENTO ? Filiale 08 di Trento citt?";"Via del Commercio, 30";;;46.091734;11.105054;"+39 0461 206582"
"CASSA RURALE DI TRENTO ? Filiale 13 di Trento citt?";"Via Santa Croce, 4";;;46.064877;11.123262;"+39 0461 206632"
"CASSA RURALE DI TRENTO ? Filiale 18 di Trento citt?";"Via Solteri, 39/6";;;46.088598;11.121165;"+39 0461 206682"
"CASSA RURALE DI TRENTO ? Filiale 21 di Trento citt?";"Via Brennero, 320 Top Center";;;46.090495;11.116468;"+39 0461 206711"
"CASSA RURALE DI TRENTO ? Filiale 22 di Trento citt?";"Centro Direz.Trento Sud, 6 - Big Center";;;46.04488;11.129751;"+39 0461 206731"
"CASSA RURALE DI TRENTO ? Filiale 24 di Trento citt?";"Via Innsbruck,?17 - Interporto";;;46.107819;11.091836;"+39 0461 206770"
"CASSA RURALE DI TRENTO ? Filiale 33 di Trento citt?";"Via Grazioli, 38";;;46.066705;11.129454;"+39 0461 206831"
;;;;;;
"Castello del Buonconsiglio";"Via Bernardo Clesio, 5";;"Il Castello del Buonconsiglio ? il maggiore complesso monumentale del Trentino e sede ogni anno di mostre di grande successo. Il?Castello del Buonconsiglio, addossato alle duecentesche mura cittadine, fu la residenza dei principi vescovi di Trento dalla seconda met? del XIII secolo fino alla secolarizzazione del principato, nel 1803.  Edificato con funzioni difensive sopra un rilievo roccioso come castrum romano, dal XIII secolo divenne vera e propria fortezza. Con l?invasione napoleonica,?Pietro Vigilio Thun abbandon? il castello che poi divenne caserma militare austriaca. Durante la Prima Guerra Mondiale qui si svolse il processo agli irredentisti?Cesare Battisti, Fabio Filzi e Damiano Chiesa. Lo Stato italiano, proprietario dal 1918, lo ha passato alla Provincia autonoma di Trento nel 1974 eoggi ospita il?Museo Provinciale d'Arte, monumenti e collezioni provinciali. Numerose sono le collezioni d'arte, di dipinti, sculture, opere grafiche, codici miniati, stufe in maiolica, nonch? le raccolte archeologiche e numismatiche. Tra gli affreschi barocchi e gotici il?Ciclo dei Mesi, considerato come uno degli esempi pi? importanti del gotico internazionale.Il Castello del Buonconsiglio ? il maggiore complesso monumentale del Trentino e sede ogni anno di mostre di grande successo. Il?Castello del Buonconsiglio, addossato alle duecentesche mura cittadine, fu la residenza dei principi vescovi di Trento dalla seconda met? del XIII secolo fino alla secolarizzazione del principato, nel 1803.  Edificato con funzioni difensive sopra un rilievo roccioso come castrum romano, dal XIII secolo divenne vera e propria fortezza. Con l?invasione napoleonica,?Pietro Vigilio Thun abbandon? il castello che poi divenne caserma militare austriaca. Durante la Prima Guerra Mondiale qui si svolse il processo agli irredentisti?Cesare Battisti, Fabio Filzi e Damiano Chiesa. Lo Stato italiano, proprietario dal 1918, lo ha passato alla Provincia autonoma di Trento nel 1974 eoggi ospita il?Museo Provinciale d'Arte, monumenti e collezioni provinciali. Numerose sono le collezioni d'arte, di dipinti, sculture, opere grafiche, codici miniati, stufe in maiolica, nonch? le raccolte archeologiche e numismatiche. Tra gli affreschi barocchi e gotici il?Ciclo dei Mesi, considerato come uno degli esempi pi? importanti del gotico internazionale.";46.071533;11.126296;"+39 0461 233770"
"Cattedrale di San Vigilio";"Piazza Duomo";;"La?Cattedrale di San Vigilio, Duomo di Trento, rappresenta il principale edificio religioso della citt?. Fu costruito nel XIII secolo sopra l?area in cui era originariamente presente un?antica basilica paleocristiana tutt?ora visitabile, dove?San Vigilio, terzo vescovo e patrono di Trento, fu seppellito insieme ai tre Martiri anauniensi Sisinio, Martirio e Alessandro.La?Cattedrale di San Vigilio, Duomo di Trento, rappresenta il principale edificio religioso della citt?. Fu costruito nel XIII secolo sopra l?area in cui era originariamente presente un?antica basilica paleocristiana tutt?ora visitabile, dove?San Vigilio, terzo vescovo e patrono di Trento, fu seppellito insieme ai tre Martiri anauniensi Sisinio, Martirio e Alessandro.";46.066873;11.121001;"+39 0461 980132"
"Chiesa di Santa Maria Maggiore";"Vicolo delle Orsoline, 1";;"? la chiesa del?Concilio di Trento. Fu fatta costruire dal?vescovo-principe Bernardo Clesio?tra il 1520 e il 1524. All?impianto della chiesa romanica fu sostituita una chiesa a navata unica, voltata a botte, senza transetto.?La chiesa fu arricchita nei secoli con opere di grande valore.? la chiesa del?Concilio di Trento. Fu fatta costruire dal?vescovo-principe Bernardo Clesio?tra il 1520 e il 1524. All?impianto della chiesa romanica fu sostituita una chiesa a navata unica, voltata a botte, senza transetto.?La chiesa fu arricchita nei secoli con opere di grande valore.";46.068504;11.119183;"+39 0461 230037"
"Galleria Civica";"Via Belenzani, 44";;"La Galleria Civica di Trento ha riaperto al pubblico.?La citt? ritrova un suo spazio espositivo, arricchito dalle collezioni e dalle competenze del Mart, per riscoprire patrimonio artistico trentino di ieri e di oggi.";46.068418;11.12128;"+39 0461 985511; +39 800397760"
"Palazzo delle Albere";"Via R. da Sanseverino, 45";;"Sede del Mart, Palazzo delle Albere ? un notevole esempio di palazzo fortificato in stile rinascimentale. Splendido esempio di palazzo in stile rinascimentale fortificato, dal 1987 ? sede del?Mart, il prestigioso?Museo d?arte moderna e contemporanea di Trento e Rovereto. La denominazione Albere pare derivi dal filare di pioppi lungo l?antica via che dai Tre Portoni e via Santa Croce, conduceva all?ingresso orientale. Il palazzo fu costruito nel 1550 per volere della famiglia?Madruzzo, che resse il Principato di Trento per un secolo.";46.063177;11.113539;"+39 800 397760"
"Mausoleo Cesare Battisti ? Doss Trento";"Via Brescia, 1";;"Il monumento dedicato all'eroe dell'Irredentismo Cesare Battisti si trova in posizione panoramica sulla collina del Doss Trento";46.072694;11.112928;"+39 0461 827248"
"Museo Storico delle Truppe Alpine";"Via Brescia, 1";;"Oggetti personali, armi, fotografie, documenti degli episodi pi? significativi della storia delle Penne nere sono il cuore del Museo Nazionale Storico degli Alpini, realizzato negli spazi ricavati da un'ex polveriera austriaca donata dal Comune di Trento alla Fondazione acropoli alpina, e ubicato sul Doss di Trento?Oggetti personali, armi, fotografie, documenti degli episodi pi? significativi della storia delle Penne nere sono il cuore del Museo Nazionale Storico degli Alpini, realizzato negli spazi ricavati da un'ex polveriera austriaca donata dal Comune di Trento alla Fondazione acropoli alpina, e ubicato sul Doss di Trento?";46.072694;11.112928;"+39 0461 827248"
"Museo dell'Aeronautica ?G. Caproni?";"Via Lidorno, 3";;"Il?Museo dell?Aeronautica Gianni Caproni?raccoglie ed espone una collezione di aeromobili storici originali di rilievo mondiale, a cui affianca una raccolta aperta a tutte le testimonianze materiali della conquista dell?aria da parte dell?uomo.";46.021268;11.127047;"+39 0461 944888"
"Museo Diocesano Tridentino";"Piazza Duomo, 18";;"Il?Museo Diocesano Tridentino?? nel centralissimo Palazzo Pretorio che nell?Alto Medio Evo fu residenza dei principi-vescovi di Trento. Fondato nel 1903 per salvaguardare il patrimonio artistico della diocesi. Al Museo compete anche la custodia della basilica paleocristiana di San Vigilio.Il?Museo Diocesano Tridentino?? nel centralissimo Palazzo Pretorio che nell?Alto Medio Evo fu residenza dei principi-vescovi di Trento. Fondato nel 1903 per salvaguardare il patrimonio artistico della diocesi. Al Museo compete anche la custodia della basilica paleocristiana di San Vigilio.";46.067474;11.121946;"+39 0461 234419"
"Torre Civica";"Piazza Duomo, 18";;"Il Palazzo Pretorio e la Torre Civica si affacciano sulla bella Piazza Duomo di Trento. Il?Palazzo Pretorio?fu residenza vescovile fino alla met? del XIII secolo. In origine la?Torre Civica?rappresentava il mastio di Palazzo Pretorio. Fu costruita prima dell?XI secolo e innalzata in pi? riprese. Oggi accompagna, con il grande orologio, il trascorrere del tempo, ma in passato fu utilizzata come prigione cittadina e al suo interno ? conservata la?campana della Renga, ossia che chiamava all?arengo, cio? alle pubbliche assemblee e alle condanne a morte eseguite nella sottostante Piazza Duomo.";46.067474;11.121946;"+39 0461 234419"
"Museo della S.A.T.";"Via Giannantonio Manci, 57";;"Il Museo della Sat di Trento racconta la storia dell?alpinismo trentino e delle prime ascensioni. Il?Museo della Societ? degli Alpinisti Tridentini?? situato al pianterreno della Casa della Sat, a Trento. Qui sono raccolti documenti, fotografie e cimeli sull?alpinismo trentino e sulla storia del sodalizio, erede della?Societ? Alpina del Trentino, fondata a Madonna di Campiglio nel 1872 con lo scopo di far conoscere e rispettare le montagne del Trentino.";46.069981;11.123334;"+39 0461 981871"
"MUSE - Museo delle Scienze";"Corso del Lavoro e della Scienza, 3";;"Il MUSE di Trento ? un sogno che si realizza, quello di un luogo attivo, attrattivo, memorabile, sul modello di science center e musei internazionali con exhibit multimediali, giochi interattivi, sperimentazione in prima persona e un intreccio del 'sapere' col 'fare'.";46.062526;11.113808;"+39 0461 270311"
"Palazzo Roccabruna - Enoteca provinciale del Trentino";"Via Ss. Trinit?, 24";;"L?enoteca provinciale, una vetrina dei vini trentini, ? ospitata nel magnifico Palazzo Roccabruna, un palazzo del XVI secolo a pochi piani da Piazza Duomo. Il Palazzo Roccabruna ? il centro della conoscenza sul patrimonio enologico del Trentino. Vengono organizzate degustazioni assistite da sommelier.";46.066404;11.123421;"+39 0461 887101"
"S.A.S.S. - Spazio Archeologico Sotterraneo del Sass";"Piazza Cesare Battisti";;"Viaggio nello Spazio sotterraneo archeologico per scoprire l?antica Tridentum romana. Nello?Spazio sotterraneo archeologico del Sass, in piazza Cesare Battisti, cuore di Trento e luogo simbolo di Tridentum, sono visitabili oltre 1.700 metri quadrati di citt? romana, venuti alla luce grazie agli scavi archeologici effettuati in occasione del restauro e dell'ampliamento del Teatro Sociale. L?antica Tridentum romana ha permesso di ricostruire una sequenza storica di circa 2000 anni, ossia dalla fondazione a oggi: ecco dunque sovrapporsi nella medesima area le strutture d?et? romana, la fase tardo antica e altomedievale, il quartiere medievale, il palazzo rinascimentale, il teatro ottocentesco e quello contemporaneo.?";46.069454;11.123448;"+39 0461 492161"
"Badia di San Lorenzo";"Via. A. Pozzo, 2";;"La?Badia di S. Lorenzo?risale alla?seconda met? del XII secolo?e fu una delle chiese di Trento pi? frequentate all?epoca del Concilio. Fu?costruita dai Benedettini?del monastero di Vallalta, a Bergamo, che che nel 1146 si insediarono a Trento.La?Badia di S. Lorenzo?risale alla?seconda met? del XII secolo?e fu una delle chiese di Trento pi? frequentate all?epoca del Concilio. Fu?costruita dai Benedettini?del monastero di Vallalta, a Bergamo, che che nel 1146 si insediarono a Trento.";46.071179;11.118935;"+39 0461 981569"
"Chiesa di Sant'Apollinare";"Piazzetta Sant'Apollinare";;"La chiesa di Sant?Apollinare fu costruita nel 1320 dai monaci benedettini della vicina abbazia di San Lorenzo. Molti dei materiali utilizzati per la costruzione provenivano dai resti della citt? romana. L?interno, a due campate a crociera, fu modificato nel XVIII secolo.";46.0707;11.11468;"+39 0641 235625"
"Torre Vanga";"Piazza della Portella, 1";;"Sulle rive dell'Adige, a guardia di un antico ponte ormai scomparso, venne costruita nel XIII secolo con il nome del vescovo (Federico Vanga). Alta 39 m poggia su un basamento di pietra massiccia.";46.069831;11.118466;
"Torre Verde";"Via Alessandro Manzoni, 5";;"Torre Verde ? sorta sulle rovine o sulle fondamenta di qualche fortificazione difensiva che si collegava all'antica rocca o torre d'Augusto. Leggenda vuole che questa torre fosse l?accesso ad orribili e misteriosi sotterranei che immettevano in precipizi senza fondo nei quali si giustiziavano i colpevoli di alto tradimento o di lesa maest?, nonch? i ribelli e i parricidi. In periodo medievale, la Torre Verde fu certamente adibita a carcere.";46.072248;11.124901;
"Le Gallerie";"Piazza di Piedicastello";;"Le?Gallerie di Piedicastello?della Fondazione Museo storico del Trentino a Trento hanno come obiettivo la valorizzazione della storia della Citt? di Trento, del Trentino e dell?area regionale corrispondente al Tirolo storico. Nata nel 2007 in due tunnel ormai chiusi, si configura come centro di iniziative espositive e di studio, punto di riferimento per la storia delle varie comunit? territoriali.";46.071503;11.113518;"+39 0461 230482"
;;;;;;
"Teatro Sociale";"Via Oss Mazzurana, 18";;;46.069657;11.122552;"+39 0461 213862"
"Teatro Auditorium Santa Chiara";"Via Santa Croce, 67";;;46.062494;11.124451;"+39 0461 213811"
"Teatro Cuminetti";"Via Santa Croce, 67";;;46.062494;11.124451;"+39 0461 213811"
"Teatro Valle dei Laghi";"Via Stoppani, Loc. Lusan";;;46.073736;10.997529;"+39 0461 340158"
;;;;;;
"Scuola Italiana Sci Fondo Viote";"Via delle Caserme, 5";;;46.020449;11.041817;"+39 0461 948105"
"Accademia dello Sci e Snowboard Nazionale";"Piazza Centrale, Loc. Vason";;;46.038982;11.05688;"+39 328 7744255"
"Maestri di Sci Azzurra Monte Bondone";"Strada di Vason, 84";;;46.050818;11.072727;"+39 345 4262152"
"Scuola Italiana di Sci Monte Bondone";"Strada del Vason, 93";;;46.03849;11.058583;"+39 0461 948211"
;;;;;;
"Sport Nicolussi";"Strada di Vason, 84";;;46.050818;11.072727;"+39 0461 948163"
"Noleggio Sci F.lli Degasperi S.A.S.";"Pista da sci - Monte Bondone";;;46.038445;11.058484;"+39 0461 948182"
;;;;;;
"Stazione dei Treni";"Piazza Dante, 1";;;46.072009;11.119719;
"Stazione dei Treni - Trento - Mal?";"Via Dogana, 8";;;46.073662;11.120245;"+39 0461 238350"
"Autostazione Servizio Urbano";"Via Dogana, 3";;;46.072009;11.119719;"+39 0461 238350"
"Autostazione Servizio Extra-urbano";"Via Pozzo, 4";;;46.070811;11.119451;"+39 800 498504"
"Trentino Trasporti S.P.A.";"Via Innsbruck, 65";;;46.101804;11.094818;"+39 0461 983627"
"Funivia Trento - Sardagna";"Via Monte Grappa, 1";;;46.069568;11.115417;"+39 0461 232154"
"Trento Funivie S.P.A. - Monte Bondone";"Strada di Vason, 83";;;46.050818;11.072727;"+39 0461 948187"
"Radio Taxi Trento";"Via Degasperi, 27";;;46.045153;11.128083;"+39 0461 930002"
"Skibus Trento-Monte Bondone (Area sciistica/Ski area) - ORARIO FESTIVO; per info: APT Trento, Monte Bondone, Valle dei Laghi";"Via Manci, 2; Strada di Vaneze, 13";;"Costo: in base alla tratta chilometrica. Gratuito per i titolari di TrentoCard e WinterPass. Collegamento Vason-Viote gratuito per tutti. Abbonamento skibus: validit? 7 giorni consecutivi ? 15,00 stagionale ? 100,00.";;;"+39 0461 216000; +39 0461 947128"
"Skibus Trento-Monte Bondone (Area sciistica/Ski area) - ORARIO FERIALE; per info: APT Trento, Monte Bondone, Valle dei Laghi";"Via Manci, 2; Strada di Vaneze, 13";;"Navetta feriale in quota con collegamenti a Sopramonte con il bus di linea n. 6 (1,20 ?).";;;"+39 0461 216000; +39 0461 947128"
;;;;;;
"Juta S.P.A.";"Via Herrsching, 7";;;46.037797;11.107424;"+39 0461 935202"
;;;;;;
"Emergenza sanitaria";;;;;;"118"
"Pronto soccorso";;;;;;"+39 0461 903206"
"Pronto soccorso pediatrico";;;;;;"+39 0461 903528"
"Guardia medica";;;;;;"+39 0461 915809"
"Polizia";;;;;;"113"
"Carabinieri";;;;;;"112"
"Guardia di Finanza";;;;;;"117"
"Vigili del Fuoco";;;;;;"115"
"Soccorso alpino e speleologico";;;;;;"+39 0461 233166"
"Polizia Municipale";;;;;;"+39 0461 916111"
"Questura";;;;;;"+39 0461 899511"
"Soccorso stradale A.C.I.";;;;;;"803116"
"Viabilit?";;;;;;"199 505040"
"Autostrada del Brennero Centro Assistenza Utenza";;;;;;"800 279940"
"Comune di Trento, Ufficio di relazioni con il pubblico";;;;;;"800 017615"
;;;;;;
"T&T Services Di Nguyen Thu Thuy";"Via Rodolfo Belenzani, 42";;;46.068676;11.121286;"+39 0461 266840"
"Trio Comunicazioni S.R.L.";"Largo Giosu? Carducci, 55";;;46.068391;11.124797;"+39 0461 263677"
"Bonvecchio Associati & C. S.A.S.";"Via del Brennero";;;46.085279;11.118651;"+39 0461 436049"
"International Communication And Service'S M.D.";"Via della Prepositura, 66";;;46.069092;11.118484;"+39 0461 263747"
"Chaudhry Food And Phone Center S.A.S.";"Via della Malvasia";;;46.077333;11.124297;"+39 0461 221679"
;;;;;;
"ASSOCIAZIONE AGRITURISMO TRENTINO";"Via Jacopo Aconcio, 13";;;;;"+39 0461 235323"
"ASSOCIAZIONE ALBERGATORI DELLA PROVINCIA DI TRENTO";"Via Degasperi, 77";;;;;"+39 0461 923666"
"ASSOCIAZIONE ARTIGIANI E PICCOLE IMPRESE DELLA PROVINCIA DI TRENTO";"via Brennero 182";;;;;"+39 0461 803800"
"ASSOCIAZIONE COMMERCIANTI AL DETTAGLIO";"?via Solteri, 78";;;;;"+39 0461 880414/415"
"ASSOCIAZIONE PUBBLICI ESERCIZI DEL TRENTINO";"?via Solteri, 78";;;;;"+39 0461 880436"
"ASSOCIAZIONE RISTORATORI DEL TRENTINO";"?via Solteri, 78";;;;;"+39 0461 880435"
"COMUNE DI ALDENO";"Via C.Battisti, 30";;;;;"+39 0461 842523                        +39 0461 842711"
"COMUNE DI CALAVINO";"Piazza C. C. Madruzzo, 2";;;;;"+39 0461 564111"
"COMUNE DI CAVEDINE";"via XXV Aprile, 26";;;;;"+39 0461 568518"
"COMUNE DI CIMONE";"fraz. Covelo, 90";;;;;"+39 0461 855210                        +39 0461 855220"
"COMUNE DI GARNIGA TERME";"Via dei Bagni di Fieno n?18";;;;;"+39 0461 842295"
"COMUNE DI LASINO";"piazza Alcide Degasperi, 25";;;;;"+39 0461 564141"
"COMUNE DI PADERGNONE";"Via Nazionale, 71";;;;;"+39 0461 864083"
"COMUNE DI TERLAGO";"Piazza di Torchio, 1";;;;;"+39 0461 860163"
"COMUNE DI TRENTO";"via Belenzani, 19";;;;;"+39 0461 884111                        +39 0461 889444"
"COMUNE DI VEZZANO";"Via Roma, 41";;;;;"+39 0461 864014"
"COMUNITA' DELLA VALLE DEI LAGHI";"Via Nazionale, 12";;;;;"+39 0461 340163"
"CONFESERCENTI DEL TRENTINO";"Via Maccani, 207";;;;;"+39 0461 434200"
"CONSORZIO ARTIGIANATO ARTISTICO E DI QUALITA' TRENTINO";;;;;;"+39  0461 829332"
"CONSORZIO PRO LOCO VALLE DEI LAGHI, TRENTO, MONTE BONDONE";"Via Roma, 63";;;;;"+39 0461 864400"
"CONSORZIO TRENTINO AUTONOLEGGIATORI";"via Klagenfurt, 52";;;;;"+39 0461 956266"
"CONSORZIO TRENTO INIZIATIVE";"Via Giannantonio Manci, 5";;;;;"+39 0461 233909"
"UNIONE ALBERGATORI DEL TRENTINO";"Via Solteri, 78";;;;;"+39 0461 880111"
"UNIONE DELLE IMPRESE, DELLE ATTIVITA' PROFESSIONALI E DEL LAVORO AUTONOMO - CONFCOMMERCIO - IMPRESE PER L'ITALIA TRENTINO";"Via Solteri, 78";;;;;
;;;;;;
"ARTIMEDIA S.A.S.";"Via Madruzzo, 31";;;;;"+39 0461 232400"
"CAT IMPRESE UNIONE S.R.L.";"?via Solteri, 78";;;;;"+39 0461 880414"
"C.L.M. BELL S.R.L.";"Via Pozzo 30";;;;;"+39 0461 981733"
"CURCU GENOVESE ASSOCIATI S.R.L.";"Via Ghiaie 15";;;;;"+39 0461 362122"
"DON MARIO S.R.L.";"Galleria Torre Vanga, 14";;;;;"+39 0461 261387"
"GRAPHIC TOURIST LINE S.A.S.";"Via dell'Ora del Garda, 13";;;;;"+39 0461 951011"
"INIZIATIVE TURISTICHE PER LA MONTAGNA S.R.L.";"Via Maccani, 207";;;;;
"PERINI AUTONOLEGGIO / PERINI FRANCO";"Via Croz, 2";;;;;"+39 0461 864556; cel: 335 7878947"
"SUDTIROLER STUDIO S.R.L.";"Via delle Ghiaie, 15";;;;;"+39 0461 934494"
"TANDEM PUBBLICITA' S.R.L.";"via Pranzelores, 57/A";;;;;"+39 0461 916624"
"TRENTINO HOLIDAYS S.R.L.";"Via Solteri 38B";;;;;"+39 0461 822000"
;;;;;;
"BAR RISTORANTE EURO CAFE'";"Via J. Aconcio, 1";;;;;
"EDEN CAFFE'";"Via J. Aconcio, 19";;;;;
"ILARY'S CAFE'";"Vicoletto dell'Adige, 3";;;;;
"BAR CAFFE' MONTECARLO";"VIA L. ANZOLETTI, 4/1";;;;;
"AMERICAN BAR";"VIA F. BARBACOVI, 40/1";;;;;
"BAR SILVANA";"VIA BARTOLAMEO DA TRENTO, 6";;;;;
"CAFFE' MARCHIODI";"PIAZZA C. BATTISTI, 4";;;;;
"CAFFE' CITTA'";"PIAZZA C. BATTISTI, 10";;;;;
"BAR OLIMPIA";"VIA R. BELENZANI, 33/1";;;;;
"GOLDEN EAGLE STREET BAR";"VIA R. BELENZANI, 74";;;;;
"FEELING BAR & FOOD";"VIA ANDRONA BORGONUOVO, 20";;;;;
"BAR MADISON";"VIA DEL BRENNERO, 5/1";;;;;
"NUOVO BAR CHISTE'";"VIA DEL BRENNERO, 6";;;;;
"BAR CARLA";"VIA DEL BRENNERO, 46";;;;;
"BAR SPORT";"VIA DEL BRENNERO, 72";;;;;
"BAR LE FORNACI";"VIA DEL BRENNERO, 122";;;;;
"BAR AGIP";"VIA DEL BRENNERO, 154";;;;;
"THE RING";"VIA DEL BRENNERO, 320";;;;;
"TOP BAR";"VIA DEL BRENNERO, 320";;;;;
"BAR CIN CIN";"VIA BRESCIA, 38";;;;;
"BAR SOULTRAIN";"VIA B. BRIAMASCO, 2";;;;;
"BAR TRENTOFIERE";"VIA B. BRIAMASCO, 2";;;;;
"BAR SAYONARA";"VIA BRIGATA ACQUI, 1";;;;;
"BAR ELISABETTA";"VIA G. BUCCELLA, 4";;;;;
"CHICCO D'ORO";"CORSO M. BUONARROTI, 12/2";;;;;
"BAR MAGNANI";"CORSO M. BUONARROTI, 26";;;;;
"L'ANGOLO DEI 33";"CORSO M. BUONARROTI, 43/1";;;;;
"BAR FIORENTINA";"VIA CALEPINA, 4";;;;;
"JO' BAR";"VIA CALEPINA, 29";;;;;
"BAR JONNY";"VIA CALEPINA, 69";;;;;
"CAFFE' DOLCE NERO";"PIAZZA GEN. A. CANTORE, 4";;;;;
"BAR ZINZORLA";"PIAZZA GEN. A. CANTORE, 15";;;;;
"BAR MAZZOLENI";"PIAZZA GEN. A. CANTORE, 28";;;;;
"CAFFE' RANDRE'";"LARGO G. CARDUCCI, 18";;;;;
"CAFFE' CARDUCCI";"LARGO G. CARDUCCI, 25";;;;;
"PLAN";"LARGO G. CARDUCCI, 38";;;;;
"CAFFETTERIA NETTUNO";"VIA CAMILLO BENSO CAVOUR, 40";;;;;
"BAR PACE";"VIA CAMILLO BENSO CAVOUR, 42";;;;;
"CAFFETTERIA BUONCONSIGLIO";"VIA CARD. BERNARDO CLESIO, 5";;;;;
"ENOTECA BAR ACCADEMIA";"VICOLO COLICO, 8";;;;;
"BAR SPAZIO PRADA";"VIA DEL COMMERCIO, 5/C";;;;;
"BAR TRENTO NORD";"VIA DEL COMMERCIO, 30/B";;;;;
"BAR RISTORANTE SIRIO";"VIA DEL COMMERCIO,40";;;;;
"BISTRO' ALLE TORRI CAFFE' GELATERIA";"VIA E. CONCI, 76";;;;;
"BAR CHIOSCO STAZIONE";"PIAZZA DANTE, 0";;;;;
"BAR FONTANARI";"VIA A. DEGASPERI, 51";;;;;
"BAR STAZIONE TRENTO MALE'";"VIA DOGANA, 2";;;;;
"AL PORTEGHET";"PASSAGGIO S. DORIGONI, 3";;;;;
"CAFFE' ITALIA";"PIAZZA DUOMO, 7";;;;;
"CAFFE' TRIDENTE";"PIAZZA DUOMO,31";;;;;
"CAFFE' 34";"PIAZZA DUOMO, 34";;;;;
"CAFFE' PORTICI";"PIAZZA DUOMO, 40";;;;;
"CAFFE' CADORIN";"VIA L. EINAUDI, 56";;;;;
"BAR 70";"VIA MONS. C. ENDRICI, 5";;;;;
"KAFFE MATRIX";"VIA FRANCESCO FERRUCCIO, 2/2";;;;;
"BAR PALATRENTO";"VIA FERSINA, 11";;;;;
"BAR IGLOO";"VIA FERSINA, 15";;;;;
"BAR BACCUS";"PIAZZA DI FIERA, 11";;;;;
"BLACK AND WHITE";"VIA FIUME, 32";;;;;
"BAR MANAZZON PISCINA ESTERNA";"VIA A. FOGAZZARO, 4";;;;;
"BAR SALA GIOCO AL PONTE";"VIA FELICE E G. FONTANA, 1";;;;;
"BAR CRISTALLO";"VIA FELICE E G. FONTANA, 30/1";;;;;
"BOTTEGA DEL CAFFE' DERSUT";"VIA FELICE E G. FONTANA, 36";;;;;
"IL PAPIRO LIBRI & CAFFE'";"VIA G. GALILEI, 5";;;;;
"JUTA CAFE'";"VIA G. GALILEI,32";;;;;
"MILKY WALKY";"VIA G. GARIBALDI, 27";;;;;
"CAFFE' GARZETTI";"PIAZZA G.B. GARZETTI, 4";;;;;
"MINIBAR";"VIA G. GEROLA, 7";;;;;
"CAFFE' SAN CAMILLO";"VIA B. GIOVANELLI, 2/1";;;;;
"BAR GIUSTI";"VIA G. GIUSTI, 22";;;;;
"BAR DANY";"VIA G. GIUSTI, 45";;;;;
"BAR EUROPA";"VIA GOCCIADORO, 1";;;;;
"GREEN BAR BISTRO'";"VIA GOCCIADORO, 42";;;;;
"BAR DEI BOTESEI";"VIA GORIZIA, 18";;;;;
"BAR EDY";"VIA DON GIUSEPPE GRAZIOLI, 10";;;;;
"BAR GRATTACIELO";"VIA DON GIUSEPPE GRAZIOLI, 60";;;;;
"BAR SMILE";"VIA R. GUARDINI, 25";;;;;
"BAR TRE TORRI";"VIA R. GUARDINI, 54";;;;;
"CAFFE' AL FEUDO";"PIAZZETTA P. DIEGO LAINEZ, 8";;;;;
"BAR TORRE VANGA";"PIAZZA LEONARDO DA VINCI, 1";;;;;
"CAFFE' PIAZZA LODRON";"PIAZZA LODRON, 21";;;;;
"BAR ONDA";"VIA R. LUNELLI, 56";;;;;
"OK BAR";"VIA E. MACCANI, 11";;;;;
"MISTER BAR";"VIA E. MACCANI, 40";;;;;
"BAR SUPERMERCATI POLI";"VIA E. MACCANI, 56";;;;;
"BAR ONE";"VIA E. MACCANI, 105";;;;;
"AGIPCAFE'";"VIA E. MACCANI, 157";;;;;
"BAR ARISTON";"VIA CARD. C. MADRUZZO, 43";;;;;
"CAFFE' BISTROT 70";"VIA A. MAFFEI, 17";;;;;
"Just  caf?";"VIA MALPAGA, 20";;;;;
"CAFFE' DIVINO";"VIA MALTA, 13";;;;;
"CAFFE' LATTE";"VIA G. MANCI, 20";;;;;
"CAFFE' SPECCHI";"VIA G. MANCI, 20/1";;;;;
"BAR CINEMA VITTORIA";"VIA G. MANCI, 72";;;;;
"ANTICO CAFFE' COMMERCIO";"VIA MANTOVA, 39";;;;;
"BAR MANZONI";"VIA A. MANZONI, 19";;;;;
"BAR GELATERIA NUOVA APULEIO";"LUNGADIGE MARCO APULEIO, 58";;;;;
"BLUE ANGEL";"VIA G. MATTEOTTI, 5";;;;;
"IL GIRASOLE";"VIA G. MATTEOTTI, 24";;;;;
"BAR GELATERIA NUOVA";"VIA G. MAZZINI, 11";;;;;
"SAX CAFE'";"VIA G. MAZZINI, 26";;;;;
"BAR MAZZINI";"VIA G. MAZZINI, 50";;;;;
"BAR MEDAGLIE D'ORO";"LARGO MEDAGLIE D'ORO, 2";;;;;
"CASANOVA CAFE'";"LARGO MEDAGLIE D'ORO, 5";;;;;
"BAR PABLO";"VIA GEN. GIACOMO MEDICI, 35";;;;;
"BAR VICENZA";"VIA MILANO, 59";;;;;
"DOLCE VITA CAFFETTERIA";"VIA DEI MILLE, 53";;;;;
"BAR FUNIVIA";"LUNGADIGE MONTE GRAPPA, 1";;;;;
"BAR CLESIO";"PIAZZA DELLA MOSTRA, 22";;;;;
"BAR PRATI";"VIA DEI MUREDEI, 4";;;;;
"FLAMBARD";"VIALE DEGLI OLMI, 4";;;;;
"BAR AZZURRA";"VIALE DEGLI OLMI, 44";;;;;
"VINO & SENSI";"VIA DEGLI ORBI, 4";;;;;
"BOTTEGA DEL CAFFE' DERSUT";"VIA DELLE ORFANE. 5";;;;;
"BAR ORCHIDEA";"VIA DELLE ORFANE, 17";;;;;
"BAR ORIOLA";"VIA ORIOLA, 28";;;;;
"BERTELLI";"VIA ORIOLA, 29";;;;;
"T J BAR";"VIA DELLE ORNE, 7";;;;;
"BLUE BAR";"VIA P. ORSI, 7";;;;;
"BAR TEATRO";"VIA P. OSS MAZZURANA, 15";;;;;
"FORST";"VIA P. OSS MAZZURANA, 38";;;;;
"REX CAFFE'";"VIA P. OSS MAZZURANA, 41";;;;;
"INOROUT";"VIA DEI PARADISI, 15";;;;;
"VINTAGE CAFFE'";"VIA DEI PARADISI, 15";;;;;
"BAR PASI";"PIAZZA M. PASI, 1";;;;;
"Bar Rosy";"VIA G. PEDROTTI, 10";;;;;
"ROSY CAFFE'";"VIA G. PEDROTTI, 10";;;;;
"BAR TORINO";"PIAZZA S. PELLICO, 8/2";;;;;
"BAR PERINI CIVICO 131";"VIA F.LLI PERINI, 131";;;;;
"BAR PARKING";"VIA F. PETRARCA, 1/2";;;;;
"CAFFE' AL TEMPO PERSO";"VIA F. PETRARCA, 32/2";;;;;
"BAR ROSA";"VIA PIAVE, 56";;;;;
"CAFFE' CREME";"VIA PIAVE, 74";;;;;
"CAFFE' VENEZIA";"LARGO PORTA NUOVA, 11";;;;;
"BAR DEL VEGA SELF SERVICE";"VIA A. POZZO, 12";;;;;
"GIGI'S CAFFE'";"VIA A. POZZO, 24";;;;;
"CAFFE' MESA VERDE";"VIA A. PRANZELORES, 11";;;;;
"WILLY'S CAFE' PUB";"VIA A. PRANZELORES, 46";;;;;
"UNIVERSITA'";"VIA G. PRATI, 4";;;;;
"BAR NUOVO PARADISO";"VIA DELLA PREPOSITURA, 72";;;;;
"PUB ALLA POSTA";"VIA ROCCABRUNA, 2";;;;;
"OLD BAR & FOOD";"VIA DELLA ROGGIA GRANDE, 8";;;;;
"CITY BAR";"VIA DELLA ROGGIA GRANDE, 24";;;;;
"DIANA BAR";"VIA ROMA, 43";;;;;
"BAR BIBLIOTECA COMUNALE";"VIA ROMA, 55";;;;;
"BAR DOGANA";"VIA G.D. ROMAGNOSI, 2";;;;;
"BAR DELL'HOTEL BUONCONSIGLIO";"VIA G.D. ROMAGNOSI, 10/A";;;;;
"BAR RISTORANTE IL SIMPOSIO";"VIA A. ROSMINI, 19";;;;;
"BAR DA GIORGIO";"VIA A. ROSMINI, 56";;;;;
"CAFFE' ROSMINI";"VIA A. ROSMINI, 63";;;;;
"BAR CINEMA MODENA";"VIA S. FRANCESCO D'ASSISI, 6";;;;;
"BOSTON BAR FAST FOOD";"VIA S. FRANCESCO D'ASSISI, 8/2";;;;;
"BIANCO CORNER CAFE'";"VIA SAN GIOVANNI, 34";;;;;
"BAR PICARO";"VIA SAN GIOVANNI, 36";;;;;
"BAR DEI CAVAI";"VIA SAN MARTINO, 90";;;;;
"CAFFE' EXCELSIOR";"VIA SAN PIETRO, 2";;;;;
"CASA DEL CAFFE'";"VIA SAN PIETRO, 38";;;;;
"NIKY'S CAF?";"VIA SAN PIO X, 29";;;;;
"BIG BEN PUB";"VIA SAN PIO X, 71";;;;;
"EXSENSE FASHION CAFE'";"VIA R. DA SANSEVERINO, 27";;;;;
"BAR STADIO";"VIA R. DA SANSEVERINO, 39/2";;;;;
"BAR STADIO BRIAMASCO TRIBUNA SUD";"VIA R. DA SANSEVERINO, 41/A";;;;;
"BAR TRIBUNA NORD STADIO BRIAMASCO";"VIA R. DA SANSEVERINO, 41";;;;;
"BAR LA TANA DEL GHIRO";"VIA SANT'ANTONIO, 8";;;;;
"BIRRERIA PEDAVENA";"VIA SANTA CROCE, 15";;;;;
"BAR TRE PORTONI";"VIA SANTA CROCE, 48";;;;;
"BAR SANTA CHIARA";"VIA SANTA CROCE, 59";;;;;
"WELL CAFE'";"VIA SANTA CROCE, 67";;;;;
"LE NOTE CAFE'";"VIA S. MARIA MADDALENA, 3";;;;;
"BAR CAVOUR";"PIAZZA S. MARIA MAGGIORE, 19";;;;;
"BAR ADRIA";"LARGO N. SAURO, 3";;;;;
"AFTER PUB";"VIA SECONDO DA TRENTO, 1";;;;;
"CAFFE' AL PARCO";"VIA DEI SOLTERI, 36";;;;;
"BAR IRIS";"VIA DEI SOLTERI, 75";;;;;
"BAR GELATERIA TORRE VERDE";"VIA DEL SUFFRAGIO, 4";;;;;
"CAFFE' ROSSINI";"VIA DEL SUFFRAGIO, 27";;;;;
"BAR 168";"VIA DEL SUFFRAGIO, 51";;;;;
"SUITE CAFE";"VIA DEL SUFFRAGIO, 83";;;;;
"CAFFE' LETTERARIO PREDARA";"VIA TORRE D'AUGUSTO, 29";;;;;
"BAR PASTICCERIA GELATERIA AL PARCO";"VIA TORRE VANGA, 20/1";;;;;
"CAFFE' GALASSO";"VIA TORRE VERDE, 4";;;;;
"BAR CONAD";"VIA TORRE VERDE, 26";;;;;
"GREEN TOWER";"VIA TORRE VERDE, 29";;;;;
"BAR ROBY";"VIA DEL TRAVAI, 34";;;;;
"CAFFE' AL CORSO";"CORSO 3 NOVEMBRE, 40";;;;;
"BAR POLI";"CORSO 3 NOVEMBRE, 57";;;;;
"BAR VITTORIA";"CORSO 3 NOVEMBRE, 76";;;;;
"BAR GELATERIA AL PONTE";"CORSO 3 NOVEMBRE, 178";;;;;
"MORDI E FUGGI";"CENTRO DIR. TRENTO SUD, 7";;;;;
"BAR TERRAZZA TRIDENTE";"PIAZZA DEL 'TRIDENTE', 1";;;;;
"DORIAN GRAY";"VIALE TRIESTE, 25";;;;;
"GIORNALE & CAFFE'";"VIA C. VANNETTI, 29/1";;;;;
"BARYCENTRO";"PIAZZA VENEZIA, 35";;;;;
"BAR DEL CIRCOLO TENNIS TRENTO";"PIAZZA VENEZIA, 41/1";;;;;
"21.1 VENTUNO.UNO";"VIA DEI VENTUNO, 1";;;;;
"BAR 900";"VIA G. VERDI, 11/A";;;;;
"CAFFE' VERDI";"VIA G. VERDI, 31/1";;;;;
"CAFFE' MOZART";"VIA G. VERDI, 34";;;;;
"BAR DUOMO";"VIA G. VERDI, 40";;;;;
"LINE CAFE'";"VIA G. VERDI, 75";;;;;
"BAR PIZZERIA CAVALLEGGERI";"VIALE VERONA, 3";;;;;
"BAR MICHELA";"VIALE VERONA, 28";;;;;
"BAR MELODY";"VIALE VERONA, 134";;;;;
"CAFFE' 196";"VIALE VERONA, 196";;;;;
"AGIPCAFE'";"VIALE VERONA, 210";;;;;
"INTERNATIONAL BAR";"PIAZZA VICENZA, 11";;;;;
"BAR ALLA ARCATE";"VIA A. VIVALDI, 14/1";;;;;
"BAR RISTORO";"VIA G. B. TRENER, 16";;;;;
"BREAK PIZZA BAR";"VIA G. B. TRENER , 16";;;;;
"CAFFE' ZURIGO";"VIA G. B. TRENER, 16";;;;;
"CAFFE' RISTRETTO";"VIA VITTORIO VENETO, 10";;;;;
"BAR ZORBA'S";"VIA VITTORIO VENETO, 77";;;;;
"MALYBAR";"VIA VITTORIO VENETO, 98";;;;;
"BAR FLORIDA";"VIA VITTORIO VENETO, 134";;;;;
"ATENEO CAFFE' BAR";"VIA DON G. B. ZANELLA, 3";;;;;
"TRENTOOTTO";"VIA MAESTRI DEL LAVORO, 27";;;;;
"BAR RISTORANTE NORD CAFE'";"PASSAGGIO B. DISERTORI, 13";;;;;
"BAR ELENA";"PASSAGGIO B. DISERTORI, 16";;;;;
"UNIBAR";"VIA DELLA MALPENSADA, 138";;;;;
"BAR & SHOPPING";"TANGENZIALE OVEST, 3";;;;;
"SNACK BAR Q 8";"TANGENZIALE OVEST, 4";;;;;
"ENICAFE' & SHOP";"TANGENZIALE SUD, 4";;;;;
"BAR GROFF";"VIA DI MADONNA BIANCA, 114";;;;;
"BAR FEDELTA'";"VIA A. PEZCOLLER, 9";;;;;
"BAR AL MARINAIO";"VIA DEI MARINAI D'ITALIA, 6";;;;;
"AUTOBAR";"STRADA DELL'INTERPORTO, 4";;;;;
"CAFFE' BRISTOT 70";"VIA G. UNTERVEGER, 0";;;;;
"BAR AL SOLE";"CIMA PALON - VASON, 1";;;;;
"BAR SUPERMERCATO CONAD";"PIAZZA OVENO, 9";;;;;
"BAR VALLEY";"VIA DI REVOLTA, 17";;;;;
"BAR EN PIAZA CAFFETTERIA";"PIAZZA DEL SACRO CUORE, 11";;;;;
"BAITA VASON";"STRADA DI VASON, 63";;;;;
"IL BONDONERO SKIBAR";"STRADA DI VASON, 69";;;;;
"BAR FILIPPI";"STRADA DI CADINE, 16";;;;;
"SKYLINE";"VIA DI COLTURA, 9/A";;;;;
;;;;;;
"PASTICCERIA CAFFETTERIA CASA DEL CIOCCOLATO";"VIA R. BELENZANI, 21";;;;;
"PASTICCERIA LOTT";"CORSO 3 NOVEMBRE, 56";;;;;
"PASTICC.-DOLCIUMI-CONFETTERIA-GELATERIA";"VIA A. ABONDI, 1";;;;;
"PASTICC.-DOLCIUMI-CONFETTERIA-GELATERIA";"VICOLO DELL'ADIGE, 9";;;;;
"PASTICC.-DOLCIUMI-CONFETTERIA-GELATERIA";"PIAZZA C. BATTISTI, 4";;;;;
"PASTICC.-DOLCIUMI-CONFETTERIA-GELATERIA";"PIAZZA C. BATTISTI, 10";;;;;
"PASTICC.-DOLCIUMI-CONFETTERIA-GELATERIA";"PIAZZA C. BATTISTI, 25";;;;;
"PASTICC.-DOLCIUMI-CONFETTERIA-GELATERIA";"VIA R. BELENZANI, 21";;;;;
"PASTICC.-DOLCIUMI-CONFETTERIA-GELATERIA";"VIA R. BELENZANI, 28";;;;;
"PASTICC.-DOLCIUMI-CONFETTERIA-GELATERIA";"VIA R. BELENZANI, 48";;;;;
"PASTICC.-DOLCIUMI-CONFETTERIA-GELATERIA";"VIA BOLGHERA, 34";;;;;
"PASTICC.-DOLCIUMI-CONFETTERIA-GELATERIA";"VIA DEL BRENNERO, 5/1";;;;;
"PASTICC.-DOLCIUMI-CONFETTERIA-GELATERIA";"VIA DEL BRENNERO, 6";;;;;
"PASTICC.-DOLCIUMI-CONFETTERIA-GELATERIA";"VIA DEL BRENNERO, 320";;;;;
"PASTICC.-DOLCIUMI-CONFETTERIA-GELATERIA";"VIA DEL BRENNERO, 320";;;;;
"PASTICC.-DOLCIUMI-CONFETTERIA-GELATERIA";"PIAZZA GEN. A. CANTORE, 28";;;;;
"PASTICC.-DOLCIUMI-CONFETTERIA-GELATERIA";"LARGO G. CARDUCCI, 38";;;;;
"PASTICC.-DOLCIUMI-CONFETTERIA-GELATERIA";"VIA L. EINAUDI, 56";;;;;
"PASTICC.-DOLCIUMI-CONFETTERIA-GELATERIA";"VIA FELICE E G. FONTANA, 41";;;;;
"PASTICC.-DOLCIUMI-CONFETTERIA-GELATERIA";"VIA B. GIOVANELLI, 19";;;;;
"PASTICC.-DOLCIUMI-CONFETTERIA-GELATERIA";"PIAZZETTA P. DIEGO LAINEZ,  1";;;;;
"PASTICC.-DOLCIUMI-CONFETTERIA-GELATERIA";"VIA E. MACCANI, 36";;;;;
"PASTICC.-DOLCIUMI-CONFETTERIA-GELATERIA";"VIA MANTOVA, 28";;;;;
"PASTICC.-DOLCIUMI-CONFETTERIA-GELATERIA";"VIA G. MAZZINI, 11";;;;;
"PASTICC.-DOLCIUMI-CONFETTERIA-GELATERIA";"VIA G. MAZZINI, 20";;;;;
"PASTICC.-DOLCIUMI-CONFETTERIA-GELATERIA";"LARGO MEDAGLIE D'ORO, 5";;;;;
"PASTICC.-DOLCIUMI-CONFETTERIA-GELATERIA";"VIA MILANO, 152";;;;;
"PASTICC.-DOLCIUMI-CONFETTERIA-GELATERIA";"VIA DEI MILLE, 17";;;;;
"PASTICC.-DOLCIUMI-CONFETTERIA-GELATERIA";"VIA ORIOLA, 28";;;;;
"PASTICC.-DOLCIUMI-CONFETTERIA-GELATERIA";"VIA ORIOLA, 29";;;;;
"PASTICC.-DOLCIUMI-CONFETTERIA-GELATERIA";"VIA P. OSS MAZZURANA, 15";;;;;
"PASTICC.-DOLCIUMI-CONFETTERIA-GELATERIA";"VIA PASUBIO, 22/1";;;;;
"PASTICC.-DOLCIUMI-CONFETTERIA-GELATERIA";"VIA F.LLI PERINI, 58";;;;;
"PASTICC.-DOLCIUMI-CONFETTERIA-GELATERIA";"VIA DEI SOLTERI, 36";;;;;
"PASTICC.-DOLCIUMI-CONFETTERIA-GELATERIA";"VIA TORRE VANGA, 20/1";;;;;
"PASTICC.-DOLCIUMI-CONFETTERIA-GELATERIA";"CORSO 3 NOVEMBRE, 2";;;;;
"PASTICC.-DOLCIUMI-CONFETTERIA-GELATERIA";"CORSO 3 NOVEMBRE, 56";;;;;
"PASTICC.-DOLCIUMI-CONFETTERIA-GELATERIA";"VIA 24 MAGGIO, 9";;;;;
"PASTICC.-DOLCIUMI-CONFETTERIA-GELATERIA";"VIA G. VERDI, 40";;;;;
"PASTICC.-DOLCIUMI-CONFETTERIA-GELATERIA";"VIA DI MADONNA BIANCA, 114";;;;;
"PASTICC.-DOLCIUMI-CONFETTERIA-GELATERIA";"STRADA DI SPINEDA, 6";;;;;
"PASTICC.-DOLCIUMI-CONFETTERIA-GELATERIA";"STRADA DI CADINE, 16";;;;;
;;;;;;
"PANE E LATTE";"VIA DEL BRENNERO, 320";;"Negozio di alimentari di piccola dimensione (pane e latte)";;;
"PANE E LATTE";"VIA BRESCIA, 25";;"Negozio di alimentari di piccola dimensione (pane e latte)";;;
"PANE E LATTE";"VIA F.LLI BRONZETTI, 31";;"Negozio di alimentari di piccola dimensione (pane e latte)";;;
"PANE E LATTE";"CORSO M. BUONARROTI, 37";;"Negozio di alimentari di piccola dimensione (pane e latte)";;;
"PANE E LATTE";"VIA CALEPINA, 33";;"Negozio di alimentari di piccola dimensione (pane e latte)";;;
"PANE E LATTE";"PIAZZA GEN. A. CANTORE, 9";;"Negozio di alimentari di piccola dimensione (pane e latte)";;;
"PANE E LATTE";"LARGO G. CARDUCCI, 48";;"Negozio di alimentari di piccola dimensione (pane e latte)";;;
"PANE E LATTE";"VIA CAMILLO BENSO CAVOUR, 25";;"Negozio di alimentari di piccola dimensione (pane e latte)";;;
"PANE E LATTE";"VIA DEL COMMERCIO, 4";;"Negozio di alimentari di piccola dimensione (pane e latte)";;;
"PANE E LATTE";"VIA G. GARIBALDI, 21";;"Negozio di alimentari di piccola dimensione (pane e latte)";;;
"PANE E LATTE";"VIA B. GIOVANELLI, 33";;"Negozio di alimentari di piccola dimensione (pane e latte)";;;
"PANE E LATTE";"VIA GOCCIADORO, 46";;"Negozio di alimentari di piccola dimensione (pane e latte)";;;
"PANE E LATTE";"VIA GORIZIA, 27";;"Negozio di alimentari di piccola dimensione (pane e latte)";;;
"PANE E LATTE";"VIA DON GIUSEPPE GRAZIOLI, 2";;"Negozio di alimentari di piccola dimensione (pane e latte)";;;
"PANE E LATTE";"VIA DON GIUSEPPE GRAZIOLI, 72";;"Negozio di alimentari di piccola dimensione (pane e latte)";;;
"PANE E LATTE";"VIA R. LUNELLI, 31";;"Negozio di alimentari di piccola dimensione (pane e latte)";;;
"PANE E LATTE";"LUNGADIGE MARCO APULEIO, 26/2";;"Negozio di alimentari di piccola dimensione (pane e latte)";;;
"PANE E LATTE";"VIA G. MAZZINI, 15";;"Negozio di alimentari di piccola dimensione (pane e latte)";;;
"PANE E LATTE";"VIA GEN. GIACOMO MEDICI, 50";;"Negozio di alimentari di piccola dimensione (pane e latte)";;;
"PANE E LATTE";"VIA MILANO, 46/2";;"Negozio di alimentari di piccola dimensione (pane e latte)";;;
"PANE E LATTE";"VIA F.LLI PERINI, 137";;"Negozio di alimentari di piccola dimensione (pane e latte)";;;
"PANE E LATTE";"VIA F.LLI PERINI, 177/1";;"Negozio di alimentari di piccola dimensione (pane e latte)";;;
"PANE E LATTE";"VIA PIAVE, 28";;"Negozio di alimentari di piccola dimensione (pane e latte)";;;
"PANE E LATTE";"LARGO E. PRATI, 3";;"Negozio di alimentari di piccola dimensione (pane e latte)";;;
"PANE E LATTE";"LARGO E. PRATI, 5";;"Negozio di alimentari di piccola dimensione (pane e latte)";;;
"PANE E LATTE";"VIALE DELLE ROBINIE, 8";;"Negozio di alimentari di piccola dimensione (pane e latte)";;;
"PANE E LATTE";"VIA A. ROSMINI, 18";;"Negozio di alimentari di piccola dimensione (pane e latte)";;;
"PANE E LATTE";"VIALE ROVERETO, 11";;"Negozio di alimentari di piccola dimensione (pane e latte)";;;
"PANE E LATTE";"VIALE ROVERETO, 57";;"Negozio di alimentari di piccola dimensione (pane e latte)";;;
"PANE E LATTE";"VIA SAN PIO X, 26";;"Negozio di alimentari di piccola dimensione (pane e latte)";;;
"PANE E LATTE";"VIA SANTA CROCE, 28";;"Negozio di alimentari di piccola dimensione (pane e latte)";;;
"PANE E LATTE";"VIA G.A. SCOPOLI, 9";;"Negozio di alimentari di piccola dimensione (pane e latte)";;;
"PANE E LATTE";"VIA DEI SOLTERI, 49";;"Negozio di alimentari di piccola dimensione (pane e latte)";;;
"PANE E LATTE";"VIA DEL SUFFRAGIO, 76";;"Negozio di alimentari di piccola dimensione (pane e latte)";;;
"PANE E LATTE";"VIA DEL SUFFRAGIO, 104";;"Negozio di alimentari di piccola dimensione (pane e latte)";;;
"PANE E LATTE";"VIALE DEI TIGLI, 3/1";;"Negozio di alimentari di piccola dimensione (pane e latte)";;;
"PANE E LATTE";"GALLERIA TIRRENA, 1";;"Negozio di alimentari di piccola dimensione (pane e latte)";;;
"PANE E LATTE";"VIA DEL TRAVAI, 27";;"Negozio di alimentari di piccola dimensione (pane e latte)";;;
"PANE E LATTE";"VIA DEL TRAVAI, 36";;"Negozio di alimentari di piccola dimensione (pane e latte)";;;
"PANE E LATTE";"CORSO 3 NOVEMBRE, 38";;"Negozio di alimentari di piccola dimensione (pane e latte)";;;
"PANE E LATTE";"VIA C. VANNETTI, 31";;"Negozio di alimentari di piccola dimensione (pane e latte)";;;
"PANE E LATTE";"PIAZZA VENEZIA, 40";;"Negozio di alimentari di piccola dimensione (pane e latte)";;;
"PANE E LATTE";"VIA G. VERDI, 11/A";;"Negozio di alimentari di piccola dimensione (pane e latte)";;;
"PANE E LATTE";"PIAZZA VICENZA, 16";;"Negozio di alimentari di piccola dimensione (pane e latte)";;;
"PANE E LATTE";"VIA G. B. TRENER, 16";;"Negozio di alimentari di piccola dimensione (pane e latte)";;;
"PANE E LATTE";"VIA VITTORIO VENETO, 10";;"Negozio di alimentari di piccola dimensione (pane e latte)";;;
"PANE E LATTE";"VIA VITTORIO VENETO, 94";;"Negozio di alimentari di piccola dimensione (pane e latte)";;;
"PANE E LATTE";"VIA VITTORIO VENETO, 100";;"Negozio di alimentari di piccola dimensione (pane e latte)";;;
"PANE E LATTE";"VIA VITTORIO VENETO, 166";;"Negozio di alimentari di piccola dimensione (pane e latte)";;;
"PANE E LATTE";"VIA A. VOLTA, 100";;"Negozio di alimentari di piccola dimensione (pane e latte)";;;
"SUPERMERCATI";"VIA DEL BRENNERO, 0";;"Negozio di alimentari di dimensioni medio-grandi (pi? di 400 m2)Negozio di alimentari di dimensioni medio-grandi (pi? di 400 m2)Negozio di alimentari di dimensioni medio-grandi (pi? di 400 m2)Negozio di alimentari di dimensioni medio-grandi (pi? di 400 m2)Negozio di alimentari di dimensioni medio-grandi (pi? di 400 m2)";;;
"SUPERMERCATI";"VIA DEL BRENNERO, 138";;"Negozio di alimentari di dimensioni medio-grandi (pi? di 400 m2)Negozio di alimentari di dimensioni medio-grandi (pi? di 400 m2)Negozio di alimentari di dimensioni medio-grandi (pi? di 400 m2)Negozio di alimentari di dimensioni medio-grandi (pi? di 400 m2)Negozio di alimentari di dimensioni medio-grandi (pi? di 400 m2)";;;
"SUPERMERCATI";"VIA DEL BRENNERO, 320";;"Negozio di alimentari di dimensioni medio-grandi (pi? di 400 m2)Negozio di alimentari di dimensioni medio-grandi (pi? di 400 m2)Negozio di alimentari di dimensioni medio-grandi (pi? di 400 m2)Negozio di alimentari di dimensioni medio-grandi (pi? di 400 m2)Negozio di alimentari di dimensioni medio-grandi (pi? di 400 m2)";;;
"SUPERMERCATI";"PIAZZA GEN. A. CANTORE, 30";;"Negozio di alimentari di dimensioni medio-grandi (pi? di 400 m2)Negozio di alimentari di dimensioni medio-grandi (pi? di 400 m2)Negozio di alimentari di dimensioni medio-grandi (pi? di 400 m2)Negozio di alimentari di dimensioni medio-grandi (pi? di 400 m2)Negozio di alimentari di dimensioni medio-grandi (pi? di 400 m2)";;;
"SUPERMERCATI";"VIA PADRE E. CHIOCCHETTI, 12";;"Negozio di alimentari di dimensioni medio-grandi (pi? di 400 m2)Negozio di alimentari di dimensioni medio-grandi (pi? di 400 m2)Negozio di alimentari di dimensioni medio-grandi (pi? di 400 m2)Negozio di alimentari di dimensioni medio-grandi (pi? di 400 m2)Negozio di alimentari di dimensioni medio-grandi (pi? di 400 m2)";;;
"SUPERMERCATI";"VIA DEL COMMERCIO, 13";;"Negozio di alimentari di dimensioni medio-grandi (pi? di 400 m2)Negozio di alimentari di dimensioni medio-grandi (pi? di 400 m2)Negozio di alimentari di dimensioni medio-grandi (pi? di 400 m2)Negozio di alimentari di dimensioni medio-grandi (pi? di 400 m2)Negozio di alimentari di dimensioni medio-grandi (pi? di 400 m2)";;;
"SUPERMERCATI";"VIA E. FERMI, 5";;"Negozio di alimentari di dimensioni medio-grandi (pi? di 400 m2)Negozio di alimentari di dimensioni medio-grandi (pi? di 400 m2)Negozio di alimentari di dimensioni medio-grandi (pi? di 400 m2)Negozio di alimentari di dimensioni medio-grandi (pi? di 400 m2)Negozio di alimentari di dimensioni medio-grandi (pi? di 400 m2)";;;
"SUPERMERCATI";"VIA E. FERMI, 15";;"Negozio di alimentari di dimensioni medio-grandi (pi? di 400 m2)Negozio di alimentari di dimensioni medio-grandi (pi? di 400 m2)Negozio di alimentari di dimensioni medio-grandi (pi? di 400 m2)Negozio di alimentari di dimensioni medio-grandi (pi? di 400 m2)Negozio di alimentari di dimensioni medio-grandi (pi? di 400 m2)";;;
"SUPERMERCATI";"VIA B. GIOVANELLI, 31";;"Negozio di alimentari di dimensioni medio-grandi (pi? di 400 m2)Negozio di alimentari di dimensioni medio-grandi (pi? di 400 m2)Negozio di alimentari di dimensioni medio-grandi (pi? di 400 m2)Negozio di alimentari di dimensioni medio-grandi (pi? di 400 m2)Negozio di alimentari di dimensioni medio-grandi (pi? di 400 m2)";;;
"SUPERMERCATI";"PIAZZA LODRON, 28";;"Negozio di alimentari di dimensioni medio-grandi (pi? di 400 m2)Negozio di alimentari di dimensioni medio-grandi (pi? di 400 m2)Negozio di alimentari di dimensioni medio-grandi (pi? di 400 m2)Negozio di alimentari di dimensioni medio-grandi (pi? di 400 m2)Negozio di alimentari di dimensioni medio-grandi (pi? di 400 m2)";;;
"SUPERMERCATI";"VIA E. MACCANI, 56";;"Negozio di alimentari di dimensioni medio-grandi (pi? di 400 m2)Negozio di alimentari di dimensioni medio-grandi (pi? di 400 m2)Negozio di alimentari di dimensioni medio-grandi (pi? di 400 m2)Negozio di alimentari di dimensioni medio-grandi (pi? di 400 m2)Negozio di alimentari di dimensioni medio-grandi (pi? di 400 m2)";;;
"SUPERMERCATI";"VIA E. MACCANI, 88";;"Negozio di alimentari di dimensioni medio-grandi (pi? di 400 m2)Negozio di alimentari di dimensioni medio-grandi (pi? di 400 m2)Negozio di alimentari di dimensioni medio-grandi (pi? di 400 m2)Negozio di alimentari di dimensioni medio-grandi (pi? di 400 m2)Negozio di alimentari di dimensioni medio-grandi (pi? di 400 m2)";;;
"SUPERMERCATI";"VIA G. MANCI, 30";;"Negozio di alimentari di dimensioni medio-grandi (pi? di 400 m2)Negozio di alimentari di dimensioni medio-grandi (pi? di 400 m2)Negozio di alimentari di dimensioni medio-grandi (pi? di 400 m2)Negozio di alimentari di dimensioni medio-grandi (pi? di 400 m2)Negozio di alimentari di dimensioni medio-grandi (pi? di 400 m2)";;;
"SUPERMERCATI";"VIA G. MATTEOTTI, 16";;"Negozio di alimentari di dimensioni medio-grandi (pi? di 400 m2)Negozio di alimentari di dimensioni medio-grandi (pi? di 400 m2)Negozio di alimentari di dimensioni medio-grandi (pi? di 400 m2)Negozio di alimentari di dimensioni medio-grandi (pi? di 400 m2)Negozio di alimentari di dimensioni medio-grandi (pi? di 400 m2)";;;
"SUPERMERCATI";"VIA C.MENGUZZATO 'VEGLIA', 81";;"Negozio di alimentari di dimensioni medio-grandi (pi? di 400 m2)Negozio di alimentari di dimensioni medio-grandi (pi? di 400 m2)Negozio di alimentari di dimensioni medio-grandi (pi? di 400 m2)Negozio di alimentari di dimensioni medio-grandi (pi? di 400 m2)";;;
"SUPERMERCATI";"VIA MONTE BALDO, 3";;"Negozio di alimentari di dimensioni medio-grandi (pi? di 400 m2)Negozio di alimentari di dimensioni medio-grandi (pi? di 400 m2)Negozio di alimentari di dimensioni medio-grandi (pi? di 400 m2)Negozio di alimentari di dimensioni medio-grandi (pi? di 400 m2)";;;
"SUPERMERCATI";"VIA DEI MUREDEI, 70";;"Negozio di alimentari di dimensioni medio-grandi (pi? di 400 m2)Negozio di alimentari di dimensioni medio-grandi (pi? di 400 m2)Negozio di alimentari di dimensioni medio-grandi (pi? di 400 m2)Negozio di alimentari di dimensioni medio-grandi (pi? di 400 m2)";;;
"SUPERMERCATI";"VIA DELLE ORFANE, 2";;"Negozio di alimentari di dimensioni medio-grandi (pi? di 400 m2)Negozio di alimentari di dimensioni medio-grandi (pi? di 400 m2)Negozio di alimentari di dimensioni medio-grandi (pi? di 400 m2)Negozio di alimentari di dimensioni medio-grandi (pi? di 400 m2)";;;
"SUPERMERCATI";"VIA SAN PIO X, 1";;"Negozio di alimentari di dimensioni medio-grandi (pi? di 400 m2)Negozio di alimentari di dimensioni medio-grandi (pi? di 400 m2)Negozio di alimentari di dimensioni medio-grandi (pi? di 400 m2)Negozio di alimentari di dimensioni medio-grandi (pi? di 400 m2)";;;
"SUPERMERCATI";"LARGO N. SAURO, 27";;"Negozio di alimentari di dimensioni medio-grandi (pi? di 400 m2)Negozio di alimentari di dimensioni medio-grandi (pi? di 400 m2)Negozio di alimentari di dimensioni medio-grandi (pi? di 400 m2)Negozio di alimentari di dimensioni medio-grandi (pi? di 400 m2)";;;
"SUPERMERCATI";"VIA DEI SOLTERI, 43/8";;"Negozio di alimentari di dimensioni medio-grandi (pi? di 400 m2)Negozio di alimentari di dimensioni medio-grandi (pi? di 400 m2)Negozio di alimentari di dimensioni medio-grandi (pi? di 400 m2)Negozio di alimentari di dimensioni medio-grandi (pi? di 400 m2)";;;
"SUPERMERCATI";"VIA TORRE VERDE, 26";;"Negozio di alimentari di dimensioni medio-grandi (pi? di 400 m2)Negozio di alimentari di dimensioni medio-grandi (pi? di 400 m2)Negozio di alimentari di dimensioni medio-grandi (pi? di 400 m2)Negozio di alimentari di dimensioni medio-grandi (pi? di 400 m2)";;;
"SUPERMERCATI";"CORSO 3 NOVEMBRE, 57";;"Negozio di alimentari di dimensioni medio-grandi (pi? di 400 m2)Negozio di alimentari di dimensioni medio-grandi (pi? di 400 m2)Negozio di alimentari di dimensioni medio-grandi (pi? di 400 m2)Negozio di alimentari di dimensioni medio-grandi (pi? di 400 m2)";;;
"SUPERMERCATI";"VIA G. B. TRENER, 16";;"Negozio di alimentari di dimensioni medio-grandi (pi? di 400 m2)Negozio di alimentari di dimensioni medio-grandi (pi? di 400 m2)Negozio di alimentari di dimensioni medio-grandi (pi? di 400 m2)Negozio di alimentari di dimensioni medio-grandi (pi? di 400 m2)";;;
"SUPERMERCATI";"VIA LEOPOLDO PERGHER, 30";;"Negozio di alimentari di dimensioni medio-grandi (pi? di 400 m2)Negozio di alimentari di dimensioni medio-grandi (pi? di 400 m2)Negozio di alimentari di dimensioni medio-grandi (pi? di 400 m2)Negozio di alimentari di dimensioni medio-grandi (pi? di 400 m2)";;;
"SUPERMERCATI";"VIA LUIGI BRUGNARA, 10";;"Negozio di alimentari di dimensioni medio-grandi (pi? di 400 m2)Negozio di alimentari di dimensioni medio-grandi (pi? di 400 m2)Negozio di alimentari di dimensioni medio-grandi (pi? di 400 m2)Negozio di alimentari di dimensioni medio-grandi (pi? di 400 m2)";;;
"SUPERMERCATI";"PASSAGGIO L. CARBONARI, 1";;"Negozio di alimentari di dimensioni medio-grandi (pi? di 400 m2)Negozio di alimentari di dimensioni medio-grandi (pi? di 400 m2)Negozio di alimentari di dimensioni medio-grandi (pi? di 400 m2)Negozio di alimentari di dimensioni medio-grandi (pi? di 400 m2)";;;
"SUPERMERCATI";"PIAZZA OVENO, 9";;"Negozio di alimentari di dimensioni medio-grandi (pi? di 400 m2)Negozio di alimentari di dimensioni medio-grandi (pi? di 400 m2)Negozio di alimentari di dimensioni medio-grandi (pi? di 400 m2)Negozio di alimentari di dimensioni medio-grandi (pi? di 400 m2)";;;
"MINIMERCATO";"STRADA DI VASON, 102";;"Negozio di alimentari di piccolo-media dimensione";;;
"MINIMERCATO";"STRADA DI VASON, 102";;"Negozio di alimentari di piccolo-media dimensione";;;
"MINIMERCATO";"STRADA PER SOPRAMONTE, 40";;"Negozio di alimentari di piccolo-media dimensione";;;
"MINIMERCATO";"VIA DELLA POSTA, 8";;"Negozio di alimentari di piccolo-media dimensione";;;
"MINIMERCATO";"PIAZZA SAN LEONARDO, 2";;"Negozio di alimentari di piccolo-media dimensione";;;
"MINIMERCATO";"V. DELLA VILLA DI BASELGA, 55";;"Negozio di alimentari di piccolo-media dimensione";;;
"MINIMERCATO";"VIA ALTO SASSO, 21";;"Negozio di alimentari di piccolo-media dimensione";;;
"MINIMERCATO";"VIA R. BELENZANI, 58";;"Negozio di alimentari di piccolo-media dimensione";;;
"MINIMERCATO";"VIA DEL BRENNERO, 16";;"Negozio di alimentari di piccolo-media dimensione";;;
"MINIMERCATO";"VIA DEL BRENNERO, 256/G";;"Negozio di alimentari di piccolo-media dimensione";;;
"MINIMERCATO";"VIA BRIGATA ACQUI, 2";;"Negozio di alimentari di piccolo-media dimensione";;;
"MINIMERCATO";"VIA BRIGATA ACQUI, 5";;"Negozio di alimentari di piccolo-media dimensione";;;
"MINIMERCATO";"VIA A. DEGASPERI, 29";;"Negozio di alimentari di piccolo-media dimensione";;;
"MINIMERCATO";"PIAZZA DI FIERA, 13";;"Negozio di alimentari di piccolo-media dimensione";;;
"MINIMERCATO";"VIA A. GRAMSCI, 70";;"Negozio di alimentari di piccolo-media dimensione";;;
"MINIMERCATO";"VIA DELLA MALVASIA, 101";;"Negozio di alimentari di piccolo-media dimensione";;;
"MINIMERCATO";"VIA A. MARIGHETTO 'ORA', 29";;"Negozio di alimentari di piccolo-media dimensione";;;
"MINIMERCATO";"VIA G. MAZZINI, 45";;"Negozio di alimentari di piccolo-media dimensione";;;
"MINIMERCATO";"VIA G. MAZZINI, 46";;"Negozio di alimentari di piccolo-media dimensione";;;
"MINIMERCATO";"VICOLO MOROSANTE, 10";;"Negozio di alimentari di piccolo-media dimensione";;;
"MINIMERCATO";"VIA P. OSS MAZZURANA, 35";;"Negozio di alimentari di piccolo-media dimensione";;;
"MINIMERCATO";"VIA F. PETRARCA, 32";;"Negozio di alimentari di piccolo-media dimensione";;;
"MINIMERCATO";"VIA F. PETRARCA, 32/1";;"Negozio di alimentari di piccolo-media dimensione";;;
"MINIMERCATO";"VIA A. PRANZELORES, 64";;"Negozio di alimentari di piccolo-media dimensione";;;
"MINIMERCATO";"VIA G. A PRATO, 22/2";;"Negozio di alimentari di piccolo-media dimensione";;;
"MINIMERCATO";"VIA DELLA PREPOSITURA, 8";;"Negozio di alimentari di piccolo-media dimensione";;;
"MINIMERCATO";"VIA DELLA PREPOSITURA, 74";;"Negozio di alimentari di piccolo-media dimensione";;;
"MINIMERCATO";"VIA DELLA PREPOSITURA, 78";;"Negozio di alimentari di piccolo-media dimensione";;;
"MINIMERCATO";"VIA DELLA ROGGIA GRANDE, 12";;"Negozio di alimentari di piccolo-media dimensione";;;
"MINIMERCATO";"VIA ROMA,  48";;"Negozio di alimentari di piccolo-media dimensione";;;
"MINIMERCATO";"VIA G.D. ROMAGNOSI, 32/A";;"Negozio di alimentari di piccolo-media dimensione";;;
"MINIMERCATO";"VIA SAN BARTOLAMEO, 2/3";;"Negozio di alimentari di piccolo-media dimensione";;;
"MINIMERCATO";"VIA SAN GIOVANNI, 30";;"Negozio di alimentari di piccolo-media dimensione";;;
"MINIMERCATO";"VIA SAN PIO X, 53";;"Negozio di alimentari di piccolo-media dimensione";;;
"MINIMERCATO";"VIA S. MARIA MADDALENA, 19";;"Negozio di alimentari di piccolo-media dimensione";;;
"MINIMERCATO";"VIA SANTI COSMA E DAMIANO, 24";;"Negozio di alimentari di piccolo-media dimensione";;;
"MINIMERCATO";"VIA DEL SUFFRAGIO, 80";;"Negozio di alimentari di piccolo-media dimensione";;;
"MINIMERCATO";"VIA TORRE VANGA, 1";;"Negozio di alimentari di piccolo-media dimensione";;;
"MINIMERCATO";"VIA DEL TRAVAI, 132";;"Negozio di alimentari di piccolo-media dimensione";;;
"MINIMERCATO";"CORSO 3 NOVEMBRE, 4";;"Negozio di alimentari di piccolo-media dimensione";;;
"MINIMERCATO";"VIA C. VANNETTI, 35";;"Negozio di alimentari di piccolo-media dimensione";;;
"MINIMERCATO";"PASSAGGIO B. DISERTORI, 20";;"Negozio di alimentari di piccolo-media dimensione";;;
"MINIMERCATO";"VIA ALLA VEDUTA, 10";;"Negozio di alimentari di piccolo-media dimensione";;;
"MINIMERCATO";"VIA DI REVOLTA, 13";;"Negozio di alimentari di piccolo-media dimensione";;;
"IPERMERCATI";"VIA DEL BRENNERO, 320";;"Negozio di alimentari di grande dimensione (pi? di 2500 mq.); self service";;;
"IPERMERCATI";"CENTRO DIR. TRENTO SUD, 11";;"Negozio di alimentari di grande dimensione (pi? di 2500 mq.); self service";;;
"IPERMERCATI";"VIALE VERONA, 50";;"Negozio di alimentari di grande dimensione (pi? di 2500 mq.); self service";;;
